<?xml version="1.0" encoding="UTF-8"?>
<gpx creator="Garmin Connect" version="1.1"
  xsi:schemaLocation="http://www.topografix.com/GPX/1/1 http://www.topografix.com/GPX/11.xsd"
  xmlns:ns3="http://www.garmin.com/xmlschemas/TrackPointExtension/v1"
  xmlns="http://www.topografix.com/GPX/1/1"
  xmlns:xsi="http://www.w3.org/2001/XMLSchema-instance" xmlns:ns2="http://www.garmin.com/xmlschemas/GpxExtensions/v3">
  <metadata>
    <link href="connect.garmin.com">
      <text>Garmin Connect</text>
    </link>
    <time>2026-05-09T02:04:54.000Z</time>
  </metadata>
  <trk>
    <name>普陀区 公路骑行</name>
    <type>road_biking</type>
    <trkseg>
      <trkpt lat="31.28431968390941619873046875" lon="121.37185399420559406280517578125">
        <ele>8.19999980926513671875</ele>
        <time>2026-05-09T02:04:54.000Z</time>
        <extensions>
          <ns3:TrackPointExtension>
            <ns3:hr>77</ns3:hr>
          </ns3:TrackPointExtension>
        </extensions>
      </trkpt>
      <trkpt lat="31.28436033613979816436767578125" lon="121.37183890677988529205322265625">
        <ele>8</ele>
        <time>2026-05-09T02:04:55.000Z</time>
        <extensions>
          <ns3:TrackPointExtension>
            <ns3:hr>78</ns3:hr>
          </ns3:TrackPointExtension>
        </extensions>
      </trkpt>
      <trkpt lat="31.28436955623328685760498046875" lon="121.37185868807137012481689453125">
        <ele>8</ele>
        <time>2026-05-09T02:04:56.000Z</time>
        <extensions>
          <ns3:TrackPointExtension>
            <ns3:hr>83</ns3:hr>
          </ns3:TrackPointExtension>
        </extensions>
      </trkpt>
      <trkpt lat="31.28438808023929595947265625" lon="121.37189137749373912811279296875">
        <ele>8</ele>
        <time>2026-05-09T02:04:57.000Z</time>
        <extensions>
          <ns3:TrackPointExtension>
            <ns3:hr>83</ns3:hr>
          </ns3:TrackPointExtension>
        </extensions>
      </trkpt>
      <trkpt lat="31.2844030000269412994384765625" lon="121.371940411627292633056640625">
        <ele>7.80000019073486328125</ele>
        <time>2026-05-09T02:04:58.000Z</time>
        <extensions>
          <ns3:TrackPointExtension>
            <ns3:hr>92</ns3:hr>
          </ns3:TrackPointExtension>
        </extensions>
      </trkpt>
      <trkpt lat="31.28444113768637180328369140625" lon="121.3719647191464900970458984375">
        <ele>8</ele>
        <time>2026-05-09T02:04:59.000Z</time>
        <extensions>
          <ns3:TrackPointExtension>
            <ns3:hr>94</ns3:hr>
          </ns3:TrackPointExtension>
        </extensions>
      </trkpt>
      <trkpt lat="31.284492015838623046875" lon="121.37222900055348873138427734375">
        <ele>8.19999980926513671875</ele>
        <time>2026-05-09T02:05:05.000Z</time>
        <extensions>
          <ns3:TrackPointExtension>
            <ns3:hr>97</ns3:hr>
          </ns3:TrackPointExtension>
        </extensions>
      </trkpt>
      <trkpt lat="31.28446661867201328277587890625" lon="121.3723660446703433990478515625">
        <ele>8.19999980926513671875</ele>
        <time>2026-05-09T02:05:08.000Z</time>
        <extensions>
          <ns3:TrackPointExtension>
            <ns3:hr>98</ns3:hr>
          </ns3:TrackPointExtension>
        </extensions>
      </trkpt>
      <trkpt lat="31.28445337526500225067138671875" lon="121.37254332192242145538330078125">
        <ele>8.19999980926513671875</ele>
        <time>2026-05-09T02:05:13.000Z</time>
        <extensions>
          <ns3:TrackPointExtension>
            <ns3:hr>100</ns3:hr>
          </ns3:TrackPointExtension>
        </extensions>
      </trkpt>
      <trkpt lat="31.28454289399087429046630859375" lon="121.37261088006198406219482421875">
        <ele>8</ele>
        <time>2026-05-09T02:05:17.000Z</time>
        <extensions>
          <ns3:TrackPointExtension>
            <ns3:hr>102</ns3:hr>
          </ns3:TrackPointExtension>
        </extensions>
      </trkpt>
      <trkpt lat="31.2847825326025485992431640625" lon="121.3726671226322650909423828125">
        <ele>8.19999980926513671875</ele>
        <time>2026-05-09T02:05:24.000Z</time>
        <extensions>
          <ns3:TrackPointExtension>
            <ns3:hr>102</ns3:hr>
          </ns3:TrackPointExtension>
        </extensions>
      </trkpt>
      <trkpt lat="31.2851023860275745391845703125" lon="121.37268212623894214630126953125">
        <ele>8.19999980926513671875</ele>
        <time>2026-05-09T02:05:31.000Z</time>
        <extensions>
          <ns3:TrackPointExtension>
            <ns3:hr>103</ns3:hr>
          </ns3:TrackPointExtension>
        </extensions>
      </trkpt>
      <trkpt lat="31.285408996045589447021484375" lon="121.372702158987522125244140625">
        <ele>8</ele>
        <time>2026-05-09T02:05:38.000Z</time>
        <extensions>
          <ns3:TrackPointExtension>
            <ns3:hr>104</ns3:hr>
          </ns3:TrackPointExtension>
        </extensions>
      </trkpt>
      <trkpt lat="31.28579481504857540130615234375" lon="121.3727519474923610687255859375">
        <ele>7.80000019073486328125</ele>
        <time>2026-05-09T02:05:46.000Z</time>
        <extensions>
          <ns3:TrackPointExtension>
            <ns3:hr>104</ns3:hr>
          </ns3:TrackPointExtension>
        </extensions>
      </trkpt>
      <trkpt lat="31.2858936376869678497314453125" lon="121.37280383147299289703369140625">
        <ele>7.80000019073486328125</ele>
        <time>2026-05-09T02:05:49.000Z</time>
        <extensions>
          <ns3:TrackPointExtension>
            <ns3:hr>104</ns3:hr>
          </ns3:TrackPointExtension>
        </extensions>
      </trkpt>
      <trkpt lat="31.28590059466660022735595703125" lon="121.372854374349117279052734375">
        <ele>7.599999904632568359375</ele>
        <time>2026-05-09T02:05:50.000Z</time>
        <extensions>
          <ns3:TrackPointExtension>
            <ns3:hr>104</ns3:hr>
          </ns3:TrackPointExtension>
        </extensions>
      </trkpt>
      <trkpt lat="31.28589154221117496490478515625" lon="121.37311697937548160552978515625">
        <ele>7</ele>
        <time>2026-05-09T02:05:55.000Z</time>
        <extensions>
          <ns3:TrackPointExtension>
            <ns3:hr>103</ns3:hr>
          </ns3:TrackPointExtension>
        </extensions>
      </trkpt>
      <trkpt lat="31.285907216370105743408203125" lon="121.3735029660165309906005859375">
        <ele>7.400000095367431640625</ele>
        <time>2026-05-09T02:06:03.000Z</time>
        <extensions>
          <ns3:TrackPointExtension>
            <ns3:hr>103</ns3:hr>
          </ns3:TrackPointExtension>
        </extensions>
      </trkpt>
      <trkpt lat="31.28586656413972377777099609375" lon="121.3738466240465641021728515625">
        <ele>7.400000095367431640625</ele>
        <time>2026-05-09T02:06:11.000Z</time>
        <extensions>
          <ns3:TrackPointExtension>
            <ns3:hr>106</ns3:hr>
          </ns3:TrackPointExtension>
        </extensions>
      </trkpt>
      <trkpt lat="31.28582976758480072021484375" lon="121.37410252355039119720458984375">
        <ele>7.599999904632568359375</ele>
        <time>2026-05-09T02:06:15.000Z</time>
        <extensions>
          <ns3:TrackPointExtension>
            <ns3:hr>109</ns3:hr>
          </ns3:TrackPointExtension>
        </extensions>
      </trkpt>
      <trkpt lat="31.28581308759748935699462890625" lon="121.37423244304955005645751953125">
        <ele>8.19999980926513671875</ele>
        <time>2026-05-09T02:06:19.000Z</time>
        <extensions>
          <ns3:TrackPointExtension>
            <ns3:hr>110</ns3:hr>
          </ns3:TrackPointExtension>
        </extensions>
      </trkpt>
      <trkpt lat="31.285829432308673858642578125" lon="121.37428977526724338531494140625">
        <ele>8.19999980926513671875</ele>
        <time>2026-05-09T02:06:20.000Z</time>
        <extensions>
          <ns3:TrackPointExtension>
            <ns3:hr>110</ns3:hr>
          </ns3:TrackPointExtension>
        </extensions>
      </trkpt>
      <trkpt lat="31.2858399935066699981689453125" lon="121.37430955655872821807861328125">
        <ele>8.19999980926513671875</ele>
        <time>2026-05-09T02:06:21.000Z</time>
        <extensions>
          <ns3:TrackPointExtension>
            <ns3:hr>110</ns3:hr>
          </ns3:TrackPointExtension>
        </extensions>
      </trkpt>
      <trkpt lat="31.28590025939047336578369140625" lon="121.37433805502951145172119140625">
        <ele>8</ele>
        <time>2026-05-09T02:06:25.000Z</time>
        <extensions>
          <ns3:TrackPointExtension>
            <ns3:hr>110</ns3:hr>
          </ns3:TrackPointExtension>
        </extensions>
      </trkpt>
      <trkpt lat="31.28600855357944965362548828125" lon="121.374392621219158172607421875">
        <ele>7.599999904632568359375</ele>
        <time>2026-05-09T02:06:30.000Z</time>
        <extensions>
          <ns3:TrackPointExtension>
            <ns3:hr>110</ns3:hr>
          </ns3:TrackPointExtension>
        </extensions>
      </trkpt>
      <trkpt lat="31.2860039435327053070068359375" lon="121.37439857237040996551513671875">
        <ele>7.599999904632568359375</ele>
        <time>2026-05-09T02:06:32.000Z</time>
        <extensions>
          <ns3:TrackPointExtension>
            <ns3:hr>110</ns3:hr>
          </ns3:TrackPointExtension>
        </extensions>
      </trkpt>
      <trkpt lat="31.28593931905925273895263671875" lon="121.3744450919330120086669921875">
        <ele>7.400000095367431640625</ele>
        <time>2026-05-09T02:07:20.000Z</time>
        <extensions>
          <ns3:TrackPointExtension>
            <ns3:hr>86</ns3:hr>
          </ns3:TrackPointExtension>
        </extensions>
      </trkpt>
      <trkpt lat="31.2859147600829601287841796875" lon="121.3744734227657318115234375">
        <ele>7.400000095367431640625</ele>
        <time>2026-05-09T02:07:21.000Z</time>
        <extensions>
          <ns3:TrackPointExtension>
            <ns3:hr>86</ns3:hr>
          </ns3:TrackPointExtension>
        </extensions>
      </trkpt>
      <trkpt lat="31.28583789803087711334228515625" lon="121.37461164034903049468994140625">
        <ele>7.80000019073486328125</ele>
        <time>2026-05-09T02:07:27.000Z</time>
        <extensions>
          <ns3:TrackPointExtension>
            <ns3:hr>86</ns3:hr>
          </ns3:TrackPointExtension>
        </extensions>
      </trkpt>
      <trkpt lat="31.28573211841285228729248046875" lon="121.37486108578741550445556640625">
        <ele>7.80000019073486328125</ele>
        <time>2026-05-09T02:07:34.000Z</time>
        <extensions>
          <ns3:TrackPointExtension>
            <ns3:hr>86</ns3:hr>
          </ns3:TrackPointExtension>
        </extensions>
      </trkpt>
      <trkpt lat="31.2856736965477466583251953125" lon="121.37521706521511077880859375">
        <ele>7.80000019073486328125</ele>
        <time>2026-05-09T02:07:42.000Z</time>
        <extensions>
          <ns3:TrackPointExtension>
            <ns3:hr>88</ns3:hr>
          </ns3:TrackPointExtension>
        </extensions>
      </trkpt>
      <trkpt lat="31.2856359779834747314453125" lon="121.37558260001242160797119140625">
        <ele>8.19999980926513671875</ele>
        <time>2026-05-09T02:07:50.000Z</time>
        <extensions>
          <ns3:TrackPointExtension>
            <ns3:hr>90</ns3:hr>
          </ns3:TrackPointExtension>
        </extensions>
      </trkpt>
      <trkpt lat="31.285610496997833251953125" lon="121.37592273764312267303466796875">
        <ele>8.6000003814697265625</ele>
        <time>2026-05-09T02:07:57.000Z</time>
        <extensions>
          <ns3:TrackPointExtension>
            <ns3:hr>93</ns3:hr>
          </ns3:TrackPointExtension>
        </extensions>
      </trkpt>
      <trkpt lat="31.28561326302587985992431640625" lon="121.3759674131870269775390625">
        <ele>8.6000003814697265625</ele>
        <time>2026-05-09T02:07:58.000Z</time>
        <extensions>
          <ns3:TrackPointExtension>
            <ns3:hr>94</ns3:hr>
          </ns3:TrackPointExtension>
        </extensions>
      </trkpt>
      <trkpt lat="31.2856032885611057281494140625" lon="121.37606170959770679473876953125">
        <ele>8.6000003814697265625</ele>
        <time>2026-05-09T02:08:00.000Z</time>
        <extensions>
          <ns3:TrackPointExtension>
            <ns3:hr>95</ns3:hr>
          </ns3:TrackPointExtension>
        </extensions>
      </trkpt>
      <trkpt lat="31.28556867130100727081298828125" lon="121.376210488379001617431640625">
        <ele>8</ele>
        <time>2026-05-09T02:08:03.000Z</time>
        <extensions>
          <ns3:TrackPointExtension>
            <ns3:hr>98</ns3:hr>
          </ns3:TrackPointExtension>
        </extensions>
      </trkpt>
      <trkpt lat="31.28554947674274444580078125" lon="121.37652288191020488739013671875">
        <ele>8.19999980926513671875</ele>
        <time>2026-05-09T02:08:09.000Z</time>
        <extensions>
          <ns3:TrackPointExtension>
            <ns3:hr>99</ns3:hr>
          </ns3:TrackPointExtension>
        </extensions>
      </trkpt>
      <trkpt lat="31.2855426035821437835693359375" lon="121.3768416456878185272216796875">
        <ele>8</ele>
        <time>2026-05-09T02:08:15.000Z</time>
        <extensions>
          <ns3:TrackPointExtension>
            <ns3:hr>102</ns3:hr>
          </ns3:TrackPointExtension>
        </extensions>
      </trkpt>
      <trkpt lat="31.2855355627834796905517578125" lon="121.376895122230052947998046875">
        <ele>8.19999980926513671875</ele>
        <time>2026-05-09T02:08:16.000Z</time>
        <extensions>
          <ns3:TrackPointExtension>
            <ns3:hr>104</ns3:hr>
          </ns3:TrackPointExtension>
        </extensions>
      </trkpt>
      <trkpt lat="31.2855281867086887359619140625" lon="121.376947425305843353271484375">
        <ele>8.19999980926513671875</ele>
        <time>2026-05-09T02:08:17.000Z</time>
        <extensions>
          <ns3:TrackPointExtension>
            <ns3:hr>107</ns3:hr>
          </ns3:TrackPointExtension>
        </extensions>
      </trkpt>
      <trkpt lat="31.28548644483089447021484375" lon="121.37725193984806537628173828125">
        <ele>8.19999980926513671875</ele>
        <time>2026-05-09T02:08:24.000Z</time>
        <extensions>
          <ns3:TrackPointExtension>
            <ns3:hr>108</ns3:hr>
          </ns3:TrackPointExtension>
        </extensions>
      </trkpt>
      <trkpt lat="31.285437159240245819091796875" lon="121.37781838886439800262451171875">
        <ele>8.19999980926513671875</ele>
        <time>2026-05-09T02:08:34.000Z</time>
        <extensions>
          <ns3:TrackPointExtension>
            <ns3:hr>107</ns3:hr>
          </ns3:TrackPointExtension>
        </extensions>
      </trkpt>
      <trkpt lat="31.2854160368442535400390625" lon="121.37796758674085140228271484375">
        <ele>8.19999980926513671875</ele>
        <time>2026-05-09T02:08:37.000Z</time>
        <extensions>
          <ns3:TrackPointExtension>
            <ns3:hr>108</ns3:hr>
          </ns3:TrackPointExtension>
        </extensions>
      </trkpt>
      <trkpt lat="31.28539063967764377593994140625" lon="121.37816791422665119171142578125">
        <ele>8.19999980926513671875</ele>
        <time>2026-05-09T02:08:42.000Z</time>
        <extensions>
          <ns3:TrackPointExtension>
            <ns3:hr>108</ns3:hr>
          </ns3:TrackPointExtension>
        </extensions>
      </trkpt>
      <trkpt lat="31.28531620837748050689697265625" lon="121.37876889668405055999755859375">
        <ele>8.19999980926513671875</ele>
        <time>2026-05-09T02:08:53.000Z</time>
        <extensions>
          <ns3:TrackPointExtension>
            <ns3:hr>111</ns3:hr>
          </ns3:TrackPointExtension>
        </extensions>
      </trkpt>
      <trkpt lat="31.28531067632138729095458984375" lon="121.378821618854999542236328125">
        <ele>8.19999980926513671875</ele>
        <time>2026-05-09T02:08:54.000Z</time>
        <extensions>
          <ns3:TrackPointExtension>
            <ns3:hr>111</ns3:hr>
          </ns3:TrackPointExtension>
        </extensions>
      </trkpt>
      <trkpt lat="31.28527413122355937957763671875" lon="121.37933853082358837127685546875">
        <ele>8</ele>
        <time>2026-05-09T02:09:04.000Z</time>
        <extensions>
          <ns3:TrackPointExtension>
            <ns3:hr>110</ns3:hr>
          </ns3:TrackPointExtension>
        </extensions>
      </trkpt>
      <trkpt lat="31.28522216342389583587646484375" lon="121.3797773234546184539794921875">
        <ele>8</ele>
        <time>2026-05-09T02:09:14.000Z</time>
        <extensions>
          <ns3:TrackPointExtension>
            <ns3:hr>109</ns3:hr>
          </ns3:TrackPointExtension>
        </extensions>
      </trkpt>
      <trkpt lat="31.28516214899718761444091796875" lon="121.3802752085030078887939453125">
        <ele>8.19999980926513671875</ele>
        <time>2026-05-09T02:09:23.000Z</time>
        <extensions>
          <ns3:TrackPointExtension>
            <ns3:hr>110</ns3:hr>
          </ns3:TrackPointExtension>
        </extensions>
      </trkpt>
      <trkpt lat="31.28511361777782440185546875" lon="121.38067276217043399810791015625">
        <ele>8.19999980926513671875</ele>
        <time>2026-05-09T02:09:31.000Z</time>
        <extensions>
          <ns3:TrackPointExtension>
            <ns3:hr>110</ns3:hr>
          </ns3:TrackPointExtension>
        </extensions>
      </trkpt>
      <trkpt lat="31.2850604765117168426513671875" lon="121.38115681707859039306640625">
        <ele>8</ele>
        <time>2026-05-09T02:09:41.000Z</time>
        <extensions>
          <ns3:TrackPointExtension>
            <ns3:hr>109</ns3:hr>
          </ns3:TrackPointExtension>
        </extensions>
      </trkpt>
      <trkpt lat="31.2850185669958591461181640625" lon="121.3815281353890895843505859375">
        <ele>8.19999980926513671875</ele>
        <time>2026-05-09T02:09:50.000Z</time>
        <extensions>
          <ns3:TrackPointExtension>
            <ns3:hr>111</ns3:hr>
          </ns3:TrackPointExtension>
        </extensions>
      </trkpt>
      <trkpt lat="31.284995935857295989990234375" lon="121.38198159635066986083984375">
        <ele>8.19999980926513671875</ele>
        <time>2026-05-09T02:09:59.000Z</time>
        <extensions>
          <ns3:TrackPointExtension>
            <ns3:hr>111</ns3:hr>
          </ns3:TrackPointExtension>
        </extensions>
      </trkpt>
      <trkpt lat="31.2849525175988674163818359375" lon="121.3822734542191028594970703125">
        <ele>8.6000003814697265625</ele>
        <time>2026-05-09T02:10:07.000Z</time>
        <extensions>
          <ns3:TrackPointExtension>
            <ns3:hr>111</ns3:hr>
          </ns3:TrackPointExtension>
        </extensions>
      </trkpt>
      <trkpt lat="31.28490314818918704986572265625" lon="121.38265927322208881378173828125">
        <ele>8.6000003814697265625</ele>
        <time>2026-05-09T02:10:14.000Z</time>
        <extensions>
          <ns3:TrackPointExtension>
            <ns3:hr>111</ns3:hr>
          </ns3:TrackPointExtension>
        </extensions>
      </trkpt>
      <trkpt lat="31.28483626060187816619873046875" lon="121.38318532146513462066650390625">
        <ele>8</ele>
        <time>2026-05-09T02:10:24.000Z</time>
        <extensions>
          <ns3:TrackPointExtension>
            <ns3:hr>111</ns3:hr>
          </ns3:TrackPointExtension>
        </extensions>
      </trkpt>
      <trkpt lat="31.2847905792295932769775390625" lon="121.38373433612287044525146484375">
        <ele>7.80000019073486328125</ele>
        <time>2026-05-09T02:10:35.000Z</time>
        <extensions>
          <ns3:TrackPointExtension>
            <ns3:hr>109</ns3:hr>
          </ns3:TrackPointExtension>
        </extensions>
      </trkpt>
      <trkpt lat="31.28473685123026371002197265625" lon="121.3842178881168365478515625">
        <ele>8</ele>
        <time>2026-05-09T02:10:46.000Z</time>
        <extensions>
          <ns3:TrackPointExtension>
            <ns3:hr>109</ns3:hr>
          </ns3:TrackPointExtension>
        </extensions>
      </trkpt>
      <trkpt lat="31.28468790091574192047119140625" lon="121.3846928067505359649658203125">
        <ele>8.19999980926513671875</ele>
        <time>2026-05-09T02:10:56.000Z</time>
        <extensions>
          <ns3:TrackPointExtension>
            <ns3:hr>112</ns3:hr>
          </ns3:TrackPointExtension>
        </extensions>
      </trkpt>
      <trkpt lat="31.28464247100055217742919921875" lon="121.384990029036998748779296875">
        <ele>8</ele>
        <time>2026-05-09T02:11:03.000Z</time>
        <extensions>
          <ns3:TrackPointExtension>
            <ns3:hr>111</ns3:hr>
          </ns3:TrackPointExtension>
        </extensions>
      </trkpt>
      <trkpt lat="31.28460408188402652740478515625" lon="121.38537685386836528778076171875">
        <ele>7.80000019073486328125</ele>
        <time>2026-05-09T02:11:12.000Z</time>
        <extensions>
          <ns3:TrackPointExtension>
            <ns3:hr>112</ns3:hr>
          </ns3:TrackPointExtension>
        </extensions>
      </trkpt>
      <trkpt lat="31.2845496833324432373046875" lon="121.3857459090650081634521484375">
        <ele>8</ele>
        <time>2026-05-09T02:11:20.000Z</time>
        <extensions>
          <ns3:TrackPointExtension>
            <ns3:hr>112</ns3:hr>
          </ns3:TrackPointExtension>
        </extensions>
      </trkpt>
      <trkpt lat="31.2845149822533130645751953125" lon="121.38588555157184600830078125">
        <ele>7.80000019073486328125</ele>
        <time>2026-05-09T02:11:23.000Z</time>
        <extensions>
          <ns3:TrackPointExtension>
            <ns3:hr>112</ns3:hr>
          </ns3:TrackPointExtension>
        </extensions>
      </trkpt>
      <trkpt lat="31.2845002301037311553955078125" lon="121.38606584630906581878662109375">
        <ele>8</ele>
        <time>2026-05-09T02:11:27.000Z</time>
        <extensions>
          <ns3:TrackPointExtension>
            <ns3:hr>113</ns3:hr>
          </ns3:TrackPointExtension>
        </extensions>
      </trkpt>
      <trkpt lat="31.28444482572376728057861328125" lon="121.3864575326442718505859375">
        <ele>8.3999996185302734375</ele>
        <time>2026-05-09T02:11:35.000Z</time>
        <extensions>
          <ns3:TrackPointExtension>
            <ns3:hr>113</ns3:hr>
          </ns3:TrackPointExtension>
        </extensions>
      </trkpt>
      <trkpt lat="31.28442672081291675567626953125" lon="121.38662743382155895233154296875">
        <ele>8.6000003814697265625</ele>
        <time>2026-05-09T02:11:39.000Z</time>
        <extensions>
          <ns3:TrackPointExtension>
            <ns3:hr>116</ns3:hr>
          </ns3:TrackPointExtension>
        </extensions>
      </trkpt>
      <trkpt lat="31.28439612686634063720703125" lon="121.3868928886950016021728515625">
        <ele>9.19999980926513671875</ele>
        <time>2026-05-09T02:11:45.000Z</time>
        <extensions>
          <ns3:TrackPointExtension>
            <ns3:hr>117</ns3:hr>
          </ns3:TrackPointExtension>
        </extensions>
      </trkpt>
      <trkpt lat="31.28439051099121570587158203125" lon="121.38693639077246189117431640625">
        <ele>9.19999980926513671875</ele>
        <time>2026-05-09T02:11:46.000Z</time>
        <extensions>
          <ns3:TrackPointExtension>
            <ns3:hr>118</ns3:hr>
          </ns3:TrackPointExtension>
        </extensions>
      </trkpt>
      <trkpt lat="31.284324713051319122314453125" lon="121.38729781843721866607666015625">
        <ele>9.80000019073486328125</ele>
        <time>2026-05-09T02:11:55.000Z</time>
        <extensions>
          <ns3:TrackPointExtension>
            <ns3:hr>118</ns3:hr>
          </ns3:TrackPointExtension>
        </extensions>
      </trkpt>
      <trkpt lat="31.2843104638159275054931640625" lon="121.387501917779445648193359375">
        <ele>10</ele>
        <time>2026-05-09T02:12:00.000Z</time>
        <extensions>
          <ns3:TrackPointExtension>
            <ns3:hr>117</ns3:hr>
          </ns3:TrackPointExtension>
        </extensions>
      </trkpt>
      <trkpt lat="31.28430685959756374359130859375" lon="121.38754583895206451416015625">
        <ele>10.19999980926513671875</ele>
        <time>2026-05-09T02:12:01.000Z</time>
        <extensions>
          <ns3:TrackPointExtension>
            <ns3:hr>116</ns3:hr>
          </ns3:TrackPointExtension>
        </extensions>
      </trkpt>
      <trkpt lat="31.28426612354815006256103515625" lon="121.38782889582216739654541015625">
        <ele>11.19999980926513671875</ele>
        <time>2026-05-09T02:12:08.000Z</time>
        <extensions>
          <ns3:TrackPointExtension>
            <ns3:hr>119</ns3:hr>
          </ns3:TrackPointExtension>
        </extensions>
      </trkpt>
      <trkpt lat="31.28425220958888530731201171875" lon="121.387918330729007720947265625">
        <ele>11.3999996185302734375</ele>
        <time>2026-05-09T02:12:10.000Z</time>
        <extensions>
          <ns3:TrackPointExtension>
            <ns3:hr>120</ns3:hr>
          </ns3:TrackPointExtension>
        </extensions>
      </trkpt>
      <trkpt lat="31.28421700559556484222412109375" lon="121.38833440840244293212890625">
        <ele>10.3999996185302734375</ele>
        <time>2026-05-09T02:12:18.000Z</time>
        <extensions>
          <ns3:TrackPointExtension>
            <ns3:hr>121</ns3:hr>
          </ns3:TrackPointExtension>
        </extensions>
      </trkpt>
      <trkpt lat="31.2842108868062496185302734375" lon="121.38849534094333648681640625">
        <ele>10.19999980926513671875</ele>
        <time>2026-05-09T02:12:21.000Z</time>
        <extensions>
          <ns3:TrackPointExtension>
            <ns3:hr>121</ns3:hr>
          </ns3:TrackPointExtension>
        </extensions>
      </trkpt>
      <trkpt lat="31.28420166671276092529296875" lon="121.388657279312610626220703125">
        <ele>9.80000019073486328125</ele>
        <time>2026-05-09T02:12:24.000Z</time>
        <extensions>
          <ns3:TrackPointExtension>
            <ns3:hr>118</ns3:hr>
          </ns3:TrackPointExtension>
        </extensions>
      </trkpt>
      <trkpt lat="31.28418649546802043914794921875" lon="121.3888287730515003204345703125">
        <ele>9.6000003814697265625</ele>
        <time>2026-05-09T02:12:27.000Z</time>
        <extensions>
          <ns3:TrackPointExtension>
            <ns3:hr>117</ns3:hr>
          </ns3:TrackPointExtension>
        </extensions>
      </trkpt>
      <trkpt lat="31.28415883518755435943603515625" lon="121.38906254433095455169677734375">
        <ele>9.3999996185302734375</ele>
        <time>2026-05-09T02:12:31.000Z</time>
        <extensions>
          <ns3:TrackPointExtension>
            <ns3:hr>114</ns3:hr>
          </ns3:TrackPointExtension>
        </extensions>
      </trkpt>
      <trkpt lat="31.2841418199241161346435546875" lon="121.3891868479549884796142578125">
        <ele>9</ele>
        <time>2026-05-09T02:12:34.000Z</time>
        <extensions>
          <ns3:TrackPointExtension>
            <ns3:hr>113</ns3:hr>
          </ns3:TrackPointExtension>
        </extensions>
      </trkpt>
      <trkpt lat="31.28407853655517101287841796875" lon="121.3894922845065593719482421875">
        <ele>8.6000003814697265625</ele>
        <time>2026-05-09T02:12:38.000Z</time>
        <extensions>
          <ns3:TrackPointExtension>
            <ns3:hr>112</ns3:hr>
          </ns3:TrackPointExtension>
        </extensions>
      </trkpt>
      <trkpt lat="31.28404299728572368621826171875" lon="121.3897061906754970550537109375">
        <ele>8</ele>
        <time>2026-05-09T02:12:43.000Z</time>
        <extensions>
          <ns3:TrackPointExtension>
            <ns3:hr>111</ns3:hr>
          </ns3:TrackPointExtension>
        </extensions>
      </trkpt>
      <trkpt lat="31.28401198424398899078369140625" lon="121.3899197615683078765869140625">
        <ele>7.80000019073486328125</ele>
        <time>2026-05-09T02:12:46.000Z</time>
        <extensions>
          <ns3:TrackPointExtension>
            <ns3:hr>108</ns3:hr>
          </ns3:TrackPointExtension>
        </extensions>
      </trkpt>
      <trkpt lat="31.28392263315618038177490234375" lon="121.3905631564557552337646484375">
        <ele>7.80000019073486328125</ele>
        <time>2026-05-09T02:12:59.000Z</time>
        <extensions>
          <ns3:TrackPointExtension>
            <ns3:hr>107</ns3:hr>
          </ns3:TrackPointExtension>
        </extensions>
      </trkpt>
      <trkpt lat="31.28391626290977001190185546875" lon="121.39061872847378253936767578125">
        <ele>7.599999904632568359375</ele>
        <time>2026-05-09T02:13:00.000Z</time>
        <extensions>
          <ns3:TrackPointExtension>
            <ns3:hr>107</ns3:hr>
          </ns3:TrackPointExtension>
        </extensions>
      </trkpt>
      <trkpt lat="31.283903606235980987548828125" lon="121.390668265521526336669921875">
        <ele>7.599999904632568359375</ele>
        <time>2026-05-09T02:13:01.000Z</time>
        <extensions>
          <ns3:TrackPointExtension>
            <ns3:hr>107</ns3:hr>
          </ns3:TrackPointExtension>
        </extensions>
      </trkpt>
      <trkpt lat="31.28387116827070713043212890625" lon="121.39093346893787384033203125">
        <ele>7.599999904632568359375</ele>
        <time>2026-05-09T02:13:05.000Z</time>
        <extensions>
          <ns3:TrackPointExtension>
            <ns3:hr>108</ns3:hr>
          </ns3:TrackPointExtension>
        </extensions>
      </trkpt>
      <trkpt lat="31.28379221074283123016357421875" lon="121.39148742891848087310791015625">
        <ele>7.80000019073486328125</ele>
        <time>2026-05-09T02:13:17.000Z</time>
        <extensions>
          <ns3:TrackPointExtension>
            <ns3:hr>109</ns3:hr>
          </ns3:TrackPointExtension>
        </extensions>
      </trkpt>
      <trkpt lat="31.2837368063628673553466796875" lon="121.39186285436153411865234375">
        <ele>7.80000019073486328125</ele>
        <time>2026-05-09T02:13:25.000Z</time>
        <extensions>
          <ns3:TrackPointExtension>
            <ns3:hr>110</ns3:hr>
          </ns3:TrackPointExtension>
        </extensions>
      </trkpt>
      <trkpt lat="31.2836580164730548858642578125" lon="121.39241212047636508941650390625">
        <ele>7.80000019073486328125</ele>
        <time>2026-05-09T02:13:35.000Z</time>
        <extensions>
          <ns3:TrackPointExtension>
            <ns3:hr>110</ns3:hr>
          </ns3:TrackPointExtension>
        </extensions>
      </trkpt>
      <trkpt lat="31.28363731317222118377685546875" lon="121.39261253178119659423828125">
        <ele>7.80000019073486328125</ele>
        <time>2026-05-09T02:13:40.000Z</time>
        <extensions>
          <ns3:TrackPointExtension>
            <ns3:hr>113</ns3:hr>
          </ns3:TrackPointExtension>
        </extensions>
      </trkpt>
      <trkpt lat="31.28360562957823276519775390625" lon="121.3929332233965396881103515625">
        <ele>8</ele>
        <time>2026-05-09T02:13:46.000Z</time>
        <extensions>
          <ns3:TrackPointExtension>
            <ns3:hr>112</ns3:hr>
          </ns3:TrackPointExtension>
        </extensions>
      </trkpt>
      <trkpt lat="31.28358467482030391693115234375" lon="121.39309071935713291168212890625">
        <ele>7.80000019073486328125</ele>
        <time>2026-05-09T02:13:49.000Z</time>
        <extensions>
          <ns3:TrackPointExtension>
            <ns3:hr>113</ns3:hr>
          </ns3:TrackPointExtension>
        </extensions>
      </trkpt>
      <trkpt lat="31.28351074643433094024658203125" lon="121.39333832077682018280029296875">
        <ele>7.599999904632568359375</ele>
        <time>2026-05-09T02:13:53.000Z</time>
        <extensions>
          <ns3:TrackPointExtension>
            <ns3:hr>113</ns3:hr>
          </ns3:TrackPointExtension>
        </extensions>
      </trkpt>
      <trkpt lat="31.28344335593283176422119140625" lon="121.39381290413439273834228515625">
        <ele>7.80000019073486328125</ele>
        <time>2026-05-09T02:14:02.000Z</time>
        <extensions>
          <ns3:TrackPointExtension>
            <ns3:hr>114</ns3:hr>
          </ns3:TrackPointExtension>
        </extensions>
      </trkpt>
      <trkpt lat="31.28340563736855983734130859375" lon="121.39396646060049533843994140625">
        <ele>7.80000019073486328125</ele>
        <time>2026-05-09T02:14:05.000Z</time>
        <extensions>
          <ns3:TrackPointExtension>
            <ns3:hr>114</ns3:hr>
          </ns3:TrackPointExtension>
        </extensions>
      </trkpt>
      <trkpt lat="31.2833405099809169769287109375" lon="121.39420651830732822418212890625">
        <ele>7.80000019073486328125</ele>
        <time>2026-05-09T02:14:10.000Z</time>
        <extensions>
          <ns3:TrackPointExtension>
            <ns3:hr>116</ns3:hr>
          </ns3:TrackPointExtension>
        </extensions>
      </trkpt>
      <trkpt lat="31.283250153064727783203125" lon="121.394571550190448760986328125">
        <ele>7.599999904632568359375</ele>
        <time>2026-05-09T02:14:18.000Z</time>
        <extensions>
          <ns3:TrackPointExtension>
            <ns3:hr>115</ns3:hr>
          </ns3:TrackPointExtension>
        </extensions>
      </trkpt>
      <trkpt lat="31.28311160020530223846435546875" lon="121.394998691976070404052734375">
        <ele>7.400000095367431640625</ele>
        <time>2026-05-09T02:14:27.000Z</time>
        <extensions>
          <ns3:TrackPointExtension>
            <ns3:hr>116</ns3:hr>
          </ns3:TrackPointExtension>
        </extensions>
      </trkpt>
      <trkpt lat="31.28291957080364227294921875" lon="121.3954514823853969573974609375">
        <ele>7.19999980926513671875</ele>
        <time>2026-05-09T02:14:38.000Z</time>
        <extensions>
          <ns3:TrackPointExtension>
            <ns3:hr>118</ns3:hr>
          </ns3:TrackPointExtension>
        </extensions>
      </trkpt>
      <trkpt lat="31.28288545645773410797119140625" lon="121.3955394923686981201171875">
        <ele>7</ele>
        <time>2026-05-09T02:14:40.000Z</time>
        <extensions>
          <ns3:TrackPointExtension>
            <ns3:hr>117</ns3:hr>
          </ns3:TrackPointExtension>
        </extensions>
      </trkpt>
      <trkpt lat="31.2828075885772705078125" lon="121.39579472132027149200439453125">
        <ele>6.599999904632568359375</ele>
        <time>2026-05-09T02:14:46.000Z</time>
        <extensions>
          <ns3:TrackPointExtension>
            <ns3:hr>116</ns3:hr>
          </ns3:TrackPointExtension>
        </extensions>
      </trkpt>
      <trkpt lat="31.28280448727309703826904296875" lon="121.39582724310457706451416015625">
        <ele>6.80000019073486328125</ele>
        <time>2026-05-09T02:14:50.000Z</time>
        <extensions>
          <ns3:TrackPointExtension>
            <ns3:hr>115</ns3:hr>
          </ns3:TrackPointExtension>
        </extensions>
      </trkpt>
      <trkpt lat="31.28284505568444728851318359375" lon="121.395880468189716339111328125">
        <ele>7</ele>
        <time>2026-05-09T02:14:58.000Z</time>
        <extensions>
          <ns3:TrackPointExtension>
            <ns3:hr>111</ns3:hr>
          </ns3:TrackPointExtension>
        </extensions>
      </trkpt>
      <trkpt lat="31.28285746090114116668701171875" lon="121.3959034346044063568115234375">
        <ele>7</ele>
        <time>2026-05-09T02:14:59.000Z</time>
        <extensions>
          <ns3:TrackPointExtension>
            <ns3:hr>111</ns3:hr>
          </ns3:TrackPointExtension>
        </extensions>
      </trkpt>
      <trkpt lat="31.2829123623669147491455078125" lon="121.39597241766750812530517578125">
        <ele>7.400000095367431640625</ele>
        <time>2026-05-09T02:15:02.000Z</time>
        <extensions>
          <ns3:TrackPointExtension>
            <ns3:hr>110</ns3:hr>
          </ns3:TrackPointExtension>
        </extensions>
      </trkpt>
      <trkpt lat="31.2829904817044734954833984375" lon="121.396144665777683258056640625">
        <ele>6.80000019073486328125</ele>
        <time>2026-05-09T02:15:08.000Z</time>
        <extensions>
          <ns3:TrackPointExtension>
            <ns3:hr>109</ns3:hr>
          </ns3:TrackPointExtension>
        </extensions>
      </trkpt>
      <trkpt lat="31.28298855386674404144287109375" lon="121.396160423755645751953125">
        <ele>6.80000019073486328125</ele>
        <time>2026-05-09T02:15:11.000Z</time>
        <extensions>
          <ns3:TrackPointExtension>
            <ns3:hr>111</ns3:hr>
          </ns3:TrackPointExtension>
        </extensions>
      </trkpt>
      <trkpt lat="31.28298101015388965606689453125" lon="121.396173499524593353271484375">
        <ele>6.599999904632568359375</ele>
        <time>2026-05-09T02:15:30.000Z</time>
        <extensions>
          <ns3:TrackPointExtension>
            <ns3:hr>108</ns3:hr>
          </ns3:TrackPointExtension>
        </extensions>
      </trkpt>
      <trkpt lat="31.28291110508143901824951171875" lon="121.39619059860706329345703125">
        <ele>7</ele>
        <time>2026-05-09T02:15:34.000Z</time>
        <extensions>
          <ns3:TrackPointExtension>
            <ns3:hr>109</ns3:hr>
          </ns3:TrackPointExtension>
        </extensions>
      </trkpt>
      <trkpt lat="31.28279459662735462188720703125" lon="121.3962869904935359954833984375">
        <ele>6.80000019073486328125</ele>
        <time>2026-05-09T02:15:39.000Z</time>
        <extensions>
          <ns3:TrackPointExtension>
            <ns3:hr>108</ns3:hr>
          </ns3:TrackPointExtension>
        </extensions>
      </trkpt>
      <trkpt lat="31.2827634997665882110595703125" lon="121.39630920253694057464599609375">
        <ele>6.80000019073486328125</ele>
        <time>2026-05-09T02:15:40.000Z</time>
        <extensions>
          <ns3:TrackPointExtension>
            <ns3:hr>105</ns3:hr>
          </ns3:TrackPointExtension>
        </extensions>
      </trkpt>
      <trkpt lat="31.2826417945325374603271484375" lon="121.39646007679402828216552734375">
        <ele>6.80000019073486328125</ele>
        <time>2026-05-09T02:15:44.000Z</time>
        <extensions>
          <ns3:TrackPointExtension>
            <ns3:hr>106</ns3:hr>
          </ns3:TrackPointExtension>
        </extensions>
      </trkpt>
      <trkpt lat="31.28257599659264087677001953125" lon="121.396588571369647979736328125">
        <ele>6.599999904632568359375</ele>
        <time>2026-05-09T02:15:47.000Z</time>
        <extensions>
          <ns3:TrackPointExtension>
            <ns3:hr>110</ns3:hr>
          </ns3:TrackPointExtension>
        </extensions>
      </trkpt>
      <trkpt lat="31.28253526054322719573974609375" lon="121.396716646850109100341796875">
        <ele>6.80000019073486328125</ele>
        <time>2026-05-09T02:15:50.000Z</time>
        <extensions>
          <ns3:TrackPointExtension>
            <ns3:hr>111</ns3:hr>
          </ns3:TrackPointExtension>
        </extensions>
      </trkpt>
      <trkpt lat="31.2823672033846378326416015625" lon="121.39718293212354183197021484375">
        <ele>6.80000019073486328125</ele>
        <time>2026-05-09T02:16:00.000Z</time>
        <extensions>
          <ns3:TrackPointExtension>
            <ns3:hr>109</ns3:hr>
          </ns3:TrackPointExtension>
        </extensions>
      </trkpt>
      <trkpt lat="31.28221255727112293243408203125" lon="121.3976074755191802978515625">
        <ele>6.80000019073486328125</ele>
        <time>2026-05-09T02:16:09.000Z</time>
        <extensions>
          <ns3:TrackPointExtension>
            <ns3:hr>110</ns3:hr>
          </ns3:TrackPointExtension>
        </extensions>
      </trkpt>
      <trkpt lat="31.28210912458598613739013671875" lon="121.397986002266407012939453125">
        <ele>7</ele>
        <time>2026-05-09T02:16:17.000Z</time>
        <extensions>
          <ns3:TrackPointExtension>
            <ns3:hr>112</ns3:hr>
          </ns3:TrackPointExtension>
        </extensions>
      </trkpt>
      <trkpt lat="31.2820852361619472503662109375" lon="121.39802933670580387115478515625">
        <ele>6.80000019073486328125</ele>
        <time>2026-05-09T02:16:18.000Z</time>
        <extensions>
          <ns3:TrackPointExtension>
            <ns3:hr>112</ns3:hr>
          </ns3:TrackPointExtension>
        </extensions>
      </trkpt>
      <trkpt lat="31.28202111460268497467041015625" lon="121.398175098001956939697265625">
        <ele>6.80000019073486328125</ele>
        <time>2026-05-09T02:16:20.000Z</time>
        <extensions>
          <ns3:TrackPointExtension>
            <ns3:hr>113</ns3:hr>
          </ns3:TrackPointExtension>
        </extensions>
      </trkpt>
      <trkpt lat="31.28195338882505893707275390625" lon="121.39836863614618778228759765625">
        <ele>6.599999904632568359375</ele>
        <time>2026-05-09T02:16:25.000Z</time>
        <extensions>
          <ns3:TrackPointExtension>
            <ns3:hr>113</ns3:hr>
          </ns3:TrackPointExtension>
        </extensions>
      </trkpt>
      <trkpt lat="31.2818352878093719482421875" lon="121.3987053371965885162353515625">
        <ele>7</ele>
        <time>2026-05-09T02:16:32.000Z</time>
        <extensions>
          <ns3:TrackPointExtension>
            <ns3:hr>114</ns3:hr>
          </ns3:TrackPointExtension>
        </extensions>
      </trkpt>
      <trkpt lat="31.28179195336997509002685546875" lon="121.3987931795418262481689453125">
        <ele>6.80000019073486328125</ele>
        <time>2026-05-09T02:16:34.000Z</time>
        <extensions>
          <ns3:TrackPointExtension>
            <ns3:hr>114</ns3:hr>
          </ns3:TrackPointExtension>
        </extensions>
      </trkpt>
      <trkpt lat="31.281775273382663726806640625" lon="121.39883969910442829132080078125">
        <ele>6.80000019073486328125</ele>
        <time>2026-05-09T02:16:35.000Z</time>
        <extensions>
          <ns3:TrackPointExtension>
            <ns3:hr>113</ns3:hr>
          </ns3:TrackPointExtension>
        </extensions>
      </trkpt>
      <trkpt lat="31.2816617824137210845947265625" lon="121.39917547814548015594482421875">
        <ele>6.80000019073486328125</ele>
        <time>2026-05-09T02:16:42.000Z</time>
        <extensions>
          <ns3:TrackPointExtension>
            <ns3:hr>112</ns3:hr>
          </ns3:TrackPointExtension>
        </extensions>
      </trkpt>
      <trkpt lat="31.28150738775730133056640625" lon="121.3997497223317623138427734375">
        <ele>6.80000019073486328125</ele>
        <time>2026-05-09T02:16:53.000Z</time>
        <extensions>
          <ns3:TrackPointExtension>
            <ns3:hr>114</ns3:hr>
          </ns3:TrackPointExtension>
        </extensions>
      </trkpt>
      <trkpt lat="31.28143069334328174591064453125" lon="121.4001178555190563201904296875">
        <ele>6.80000019073486328125</ele>
        <time>2026-05-09T02:17:01.000Z</time>
        <extensions>
          <ns3:TrackPointExtension>
            <ns3:hr>114</ns3:hr>
          </ns3:TrackPointExtension>
        </extensions>
      </trkpt>
      <trkpt lat="31.28135450184345245361328125" lon="121.40064449049532413482666015625">
        <ele>7</ele>
        <time>2026-05-09T02:17:12.000Z</time>
        <extensions>
          <ns3:TrackPointExtension>
            <ns3:hr>114</ns3:hr>
          </ns3:TrackPointExtension>
        </extensions>
      </trkpt>
      <trkpt lat="31.2812976725399494171142578125" lon="121.4011136256158351898193359375">
        <ele>6.80000019073486328125</ele>
        <time>2026-05-09T02:17:23.000Z</time>
        <extensions>
          <ns3:TrackPointExtension>
            <ns3:hr>114</ns3:hr>
          </ns3:TrackPointExtension>
        </extensions>
      </trkpt>
      <trkpt lat="31.28124947659671306610107421875" lon="121.40155225060880184173583984375">
        <ele>7</ele>
        <time>2026-05-09T02:17:31.000Z</time>
        <extensions>
          <ns3:TrackPointExtension>
            <ns3:hr>114</ns3:hr>
          </ns3:TrackPointExtension>
        </extensions>
      </trkpt>
      <trkpt lat="31.281234137713909149169921875" lon="121.40159499831497669219970703125">
        <ele>7</ele>
        <time>2026-05-09T02:17:32.000Z</time>
        <extensions>
          <ns3:TrackPointExtension>
            <ns3:hr>115</ns3:hr>
          </ns3:TrackPointExtension>
        </extensions>
      </trkpt>
      <trkpt lat="31.281168758869171142578125" lon="121.40177034772932529449462890625">
        <ele>6.80000019073486328125</ele>
        <time>2026-05-09T02:17:37.000Z</time>
        <extensions>
          <ns3:TrackPointExtension>
            <ns3:hr>114</ns3:hr>
          </ns3:TrackPointExtension>
        </extensions>
      </trkpt>
      <trkpt lat="31.2811907194554805755615234375" lon="121.40195609070360660552978515625">
        <ele>7</ele>
        <time>2026-05-09T02:17:41.000Z</time>
        <extensions>
          <ns3:TrackPointExtension>
            <ns3:hr>114</ns3:hr>
          </ns3:TrackPointExtension>
        </extensions>
      </trkpt>
      <trkpt lat="31.281216032803058624267578125" lon="121.402048207819461822509765625">
        <ele>7</ele>
        <time>2026-05-09T02:17:42.000Z</time>
        <extensions>
          <ns3:TrackPointExtension>
            <ns3:hr>114</ns3:hr>
          </ns3:TrackPointExtension>
        </extensions>
      </trkpt>
      <trkpt lat="31.2812547571957111358642578125" lon="121.40241064131259918212890625">
        <ele>6.80000019073486328125</ele>
        <time>2026-05-09T02:17:50.000Z</time>
        <extensions>
          <ns3:TrackPointExtension>
            <ns3:hr>115</ns3:hr>
          </ns3:TrackPointExtension>
        </extensions>
      </trkpt>
      <trkpt lat="31.2812748737633228302001953125" lon="121.402738876640796661376953125">
        <ele>7</ele>
        <time>2026-05-09T02:17:58.000Z</time>
        <extensions>
          <ns3:TrackPointExtension>
            <ns3:hr>116</ns3:hr>
          </ns3:TrackPointExtension>
        </extensions>
      </trkpt>
      <trkpt lat="31.2812996841967105865478515625" lon="121.40315772034227848052978515625">
        <ele>6.599999904632568359375</ele>
        <time>2026-05-09T02:18:07.000Z</time>
        <extensions>
          <ns3:TrackPointExtension>
            <ns3:hr>114</ns3:hr>
          </ns3:TrackPointExtension>
        </extensions>
      </trkpt>
      <trkpt lat="31.281279735267162322998046875" lon="121.40339593403041362762451171875">
        <ele>6.599999904632568359375</ele>
        <time>2026-05-09T02:18:12.000Z</time>
        <extensions>
          <ns3:TrackPointExtension>
            <ns3:hr>115</ns3:hr>
          </ns3:TrackPointExtension>
        </extensions>
      </trkpt>
      <trkpt lat="31.28127110190689563751220703125" lon="121.40349333174526691436767578125">
        <ele>6.80000019073486328125</ele>
        <time>2026-05-09T02:18:14.000Z</time>
        <extensions>
          <ns3:TrackPointExtension>
            <ns3:hr>115</ns3:hr>
          </ns3:TrackPointExtension>
        </extensions>
      </trkpt>
      <trkpt lat="31.28129155375063419342041015625" lon="121.40406078658998012542724609375">
        <ele>6.80000019073486328125</ele>
        <time>2026-05-09T02:18:25.000Z</time>
        <extensions>
          <ns3:TrackPointExtension>
            <ns3:hr>116</ns3:hr>
          </ns3:TrackPointExtension>
        </extensions>
      </trkpt>
      <trkpt lat="31.28129825927317142486572265625" lon="121.40457476489245891571044921875">
        <ele>6.599999904632568359375</ele>
        <time>2026-05-09T02:18:36.000Z</time>
        <extensions>
          <ns3:TrackPointExtension>
            <ns3:hr>116</ns3:hr>
          </ns3:TrackPointExtension>
        </extensions>
      </trkpt>
      <trkpt lat="31.2812839262187480926513671875" lon="121.40495714731514453887939453125">
        <ele>6.599999904632568359375</ele>
        <time>2026-05-09T02:18:45.000Z</time>
        <extensions>
          <ns3:TrackPointExtension>
            <ns3:hr>116</ns3:hr>
          </ns3:TrackPointExtension>
        </extensions>
      </trkpt>
      <trkpt lat="31.2812961637973785400390625" lon="121.4055007137358188629150390625">
        <ele>6.80000019073486328125</ele>
        <time>2026-05-09T02:18:55.000Z</time>
        <extensions>
          <ns3:TrackPointExtension>
            <ns3:hr>116</ns3:hr>
          </ns3:TrackPointExtension>
        </extensions>
      </trkpt>
      <trkpt lat="31.28128954209387302398681640625" lon="121.40592408366501331329345703125">
        <ele>6.80000019073486328125</ele>
        <time>2026-05-09T02:19:04.000Z</time>
        <extensions>
          <ns3:TrackPointExtension>
            <ns3:hr>116</ns3:hr>
          </ns3:TrackPointExtension>
        </extensions>
      </trkpt>
      <trkpt lat="31.2812827527523040771484375" lon="121.40629976056516170501708984375">
        <ele>6.599999904632568359375</ele>
        <time>2026-05-09T02:19:12.000Z</time>
        <extensions>
          <ns3:TrackPointExtension>
            <ns3:hr>117</ns3:hr>
          </ns3:TrackPointExtension>
        </extensions>
      </trkpt>
      <trkpt lat="31.2812742032110691070556640625" lon="121.406351141631603240966796875">
        <ele>6.599999904632568359375</ele>
        <time>2026-05-09T02:19:13.000Z</time>
        <extensions>
          <ns3:TrackPointExtension>
            <ns3:hr>116</ns3:hr>
          </ns3:TrackPointExtension>
        </extensions>
      </trkpt>
      <trkpt lat="31.281238496303558349609375" lon="121.4064418338239192962646484375">
        <ele>6.599999904632568359375</ele>
        <time>2026-05-09T02:19:15.000Z</time>
        <extensions>
          <ns3:TrackPointExtension>
            <ns3:hr>116</ns3:hr>
          </ns3:TrackPointExtension>
        </extensions>
      </trkpt>
      <trkpt lat="31.28117479383945465087890625" lon="121.40651232562959194183349609375">
        <ele>6.80000019073486328125</ele>
        <time>2026-05-09T02:19:17.000Z</time>
        <extensions>
          <ns3:TrackPointExtension>
            <ns3:hr>116</ns3:hr>
          </ns3:TrackPointExtension>
        </extensions>
      </trkpt>
      <trkpt lat="31.2810968421399593353271484375" lon="121.40655205585062503814697265625">
        <ele>6.80000019073486328125</ele>
        <time>2026-05-09T02:19:19.000Z</time>
        <extensions>
          <ns3:TrackPointExtension>
            <ns3:hr>116</ns3:hr>
          </ns3:TrackPointExtension>
        </extensions>
      </trkpt>
      <trkpt lat="31.2810177169740200042724609375" lon="121.40657971613109111785888671875">
        <ele>7</ele>
        <time>2026-05-09T02:19:21.000Z</time>
        <extensions>
          <ns3:TrackPointExtension>
            <ns3:hr>115</ns3:hr>
          </ns3:TrackPointExtension>
        </extensions>
      </trkpt>
      <trkpt lat="31.28077019937336444854736328125" lon="121.406589187681674957275390625">
        <ele>7</ele>
        <time>2026-05-09T02:19:28.000Z</time>
        <extensions>
          <ns3:TrackPointExtension>
            <ns3:hr>116</ns3:hr>
          </ns3:TrackPointExtension>
        </extensions>
      </trkpt>
      <trkpt lat="31.2803552113473415374755859375" lon="121.40660905279219150543212890625">
        <ele>7.19999980926513671875</ele>
        <time>2026-05-09T02:19:37.000Z</time>
        <extensions>
          <ns3:TrackPointExtension>
            <ns3:hr>115</ns3:hr>
          </ns3:TrackPointExtension>
        </extensions>
      </trkpt>
      <trkpt lat="31.27996201626956462860107421875" lon="121.40664392150938510894775390625">
        <ele>7.400000095367431640625</ele>
        <time>2026-05-09T02:19:45.000Z</time>
        <extensions>
          <ns3:TrackPointExtension>
            <ns3:hr>114</ns3:hr>
          </ns3:TrackPointExtension>
        </extensions>
      </trkpt>
      <trkpt lat="31.27955750562250614166259765625" lon="121.40664710663259029388427734375">
        <ele>7.19999980926513671875</ele>
        <time>2026-05-09T02:19:54.000Z</time>
        <extensions>
          <ns3:TrackPointExtension>
            <ns3:hr>112</ns3:hr>
          </ns3:TrackPointExtension>
        </extensions>
      </trkpt>
      <trkpt lat="31.27926908433437347412109375" lon="121.4066523872315883636474609375">
        <ele>7.19999980926513671875</ele>
        <time>2026-05-09T02:20:00.000Z</time>
        <extensions>
          <ns3:TrackPointExtension>
            <ns3:hr>115</ns3:hr>
          </ns3:TrackPointExtension>
        </extensions>
      </trkpt>
      <trkpt lat="31.27903640270233154296875" lon="121.40665112994611263275146484375">
        <ele>6.80000019073486328125</ele>
        <time>2026-05-09T02:20:05.000Z</time>
        <extensions>
          <ns3:TrackPointExtension>
            <ns3:hr>116</ns3:hr>
          </ns3:TrackPointExtension>
        </extensions>
      </trkpt>
      <trkpt lat="31.27855653874576091766357421875" lon="121.4065886847674846649169921875">
        <ele>7.19999980926513671875</ele>
        <time>2026-05-09T02:20:16.000Z</time>
        <extensions>
          <ns3:TrackPointExtension>
            <ns3:hr>118</ns3:hr>
          </ns3:TrackPointExtension>
        </extensions>
      </trkpt>
      <trkpt lat="31.278410442173480987548828125" lon="121.4065675623714923858642578125">
        <ele>7</ele>
        <time>2026-05-09T02:20:21.000Z</time>
        <extensions>
          <ns3:TrackPointExtension>
            <ns3:hr>117</ns3:hr>
          </ns3:TrackPointExtension>
        </extensions>
      </trkpt>
      <trkpt lat="31.2783143855631351470947265625" lon="121.4065732620656490325927734375">
        <ele>7</ele>
        <time>2026-05-09T02:20:24.000Z</time>
        <extensions>
          <ns3:TrackPointExtension>
            <ns3:hr>114</ns3:hr>
          </ns3:TrackPointExtension>
        </extensions>
      </trkpt>
      <trkpt lat="31.27820684574544429779052734375" lon="121.4065652154386043548583984375">
        <ele>7</ele>
        <time>2026-05-09T02:20:27.000Z</time>
        <extensions>
          <ns3:TrackPointExtension>
            <ns3:hr>115</ns3:hr>
          </ns3:TrackPointExtension>
        </extensions>
      </trkpt>
      <trkpt lat="31.2778517045080661773681640625" lon="121.40655725263059139251708984375">
        <ele>7</ele>
        <time>2026-05-09T02:20:35.000Z</time>
        <extensions>
          <ns3:TrackPointExtension>
            <ns3:hr>116</ns3:hr>
          </ns3:TrackPointExtension>
        </extensions>
      </trkpt>
      <trkpt lat="31.2773881852626800537109375" lon="121.406501345336437225341796875">
        <ele>7</ele>
        <time>2026-05-09T02:20:45.000Z</time>
        <extensions>
          <ns3:TrackPointExtension>
            <ns3:hr>116</ns3:hr>
          </ns3:TrackPointExtension>
        </extensions>
      </trkpt>
      <trkpt lat="31.27688803710043430328369140625" lon="121.40644200146198272705078125">
        <ele>7.400000095367431640625</ele>
        <time>2026-05-09T02:20:56.000Z</time>
        <extensions>
          <ns3:TrackPointExtension>
            <ns3:hr>117</ns3:hr>
          </ns3:TrackPointExtension>
        </extensions>
      </trkpt>
      <trkpt lat="31.27658427692949771881103515625" lon="121.40643102116882801055908203125">
        <ele>7.19999980926513671875</ele>
        <time>2026-05-09T02:21:03.000Z</time>
        <extensions>
          <ns3:TrackPointExtension>
            <ns3:hr>116</ns3:hr>
          </ns3:TrackPointExtension>
        </extensions>
      </trkpt>
      <trkpt lat="31.27615395002067089080810546875" lon="121.4063741080462932586669921875">
        <ele>7.19999980926513671875</ele>
        <time>2026-05-09T02:21:13.000Z</time>
        <extensions>
          <ns3:TrackPointExtension>
            <ns3:hr>118</ns3:hr>
          </ns3:TrackPointExtension>
        </extensions>
      </trkpt>
      <trkpt lat="31.27584784291684627532958984375" lon="121.4063476212322711944580078125">
        <ele>7</ele>
        <time>2026-05-09T02:21:20.000Z</time>
        <extensions>
          <ns3:TrackPointExtension>
            <ns3:hr>119</ns3:hr>
          </ns3:TrackPointExtension>
        </extensions>
      </trkpt>
      <trkpt lat="31.2755064480006694793701171875" lon="121.4062731899321079254150390625">
        <ele>6.80000019073486328125</ele>
        <time>2026-05-09T02:21:28.000Z</time>
        <extensions>
          <ns3:TrackPointExtension>
            <ns3:hr>118</ns3:hr>
          </ns3:TrackPointExtension>
        </extensions>
      </trkpt>
      <trkpt lat="31.2752102315425872802734375" lon="121.40623220242559909820556640625">
        <ele>6.80000019073486328125</ele>
        <time>2026-05-09T02:21:36.000Z</time>
        <extensions>
          <ns3:TrackPointExtension>
            <ns3:hr>120</ns3:hr>
          </ns3:TrackPointExtension>
        </extensions>
      </trkpt>
      <trkpt lat="31.2751621194183826446533203125" lon="121.40625684522092342376708984375">
        <ele>6.599999904632568359375</ele>
        <time>2026-05-09T02:21:39.000Z</time>
        <extensions>
          <ns3:TrackPointExtension>
            <ns3:hr>119</ns3:hr>
          </ns3:TrackPointExtension>
        </extensions>
      </trkpt>
      <trkpt lat="31.2751198746263980865478515625" lon="121.40634502284228801727294921875">
        <ele>6.80000019073486328125</ele>
        <time>2026-05-09T02:21:41.000Z</time>
        <extensions>
          <ns3:TrackPointExtension>
            <ns3:hr>119</ns3:hr>
          </ns3:TrackPointExtension>
        </extensions>
      </trkpt>
      <trkpt lat="31.27507804892957210540771484375" lon="121.40645197592675685882568359375">
        <ele>6.599999904632568359375</ele>
        <time>2026-05-09T02:21:46.000Z</time>
        <extensions>
          <ns3:TrackPointExtension>
            <ns3:hr>117</ns3:hr>
          </ns3:TrackPointExtension>
        </extensions>
      </trkpt>
      <trkpt lat="31.27507888711988925933837890625" lon="121.40645214356482028961181640625">
        <ele>6.599999904632568359375</ele>
        <time>2026-05-09T02:21:48.000Z</time>
        <extensions>
          <ns3:TrackPointExtension>
            <ns3:hr>115</ns3:hr>
          </ns3:TrackPointExtension>
        </extensions>
      </trkpt>
      <trkpt lat="31.27500831149518489837646484375" lon="121.4065266586840152740478515625">
        <ele>6.599999904632568359375</ele>
        <time>2026-05-09T02:22:08.000Z</time>
        <extensions>
          <ns3:TrackPointExtension>
            <ns3:hr>108</ns3:hr>
          </ns3:TrackPointExtension>
        </extensions>
      </trkpt>
      <trkpt lat="31.27498735673725605010986328125" lon="121.40655943192541599273681640625">
        <ele>6.599999904632568359375</ele>
        <time>2026-05-09T02:22:09.000Z</time>
        <extensions>
          <ns3:TrackPointExtension>
            <ns3:hr>108</ns3:hr>
          </ns3:TrackPointExtension>
        </extensions>
      </trkpt>
      <trkpt lat="31.2749482132494449615478515625" lon="121.4066827297210693359375">
        <ele>6.400000095367431640625</ele>
        <time>2026-05-09T02:22:13.000Z</time>
        <extensions>
          <ns3:TrackPointExtension>
            <ns3:hr>107</ns3:hr>
          </ns3:TrackPointExtension>
        </extensions>
      </trkpt>
      <trkpt lat="31.27493522129952907562255859375" lon="121.40677870251238346099853515625">
        <ele>6.400000095367431640625</ele>
        <time>2026-05-09T02:22:14.000Z</time>
        <extensions>
          <ns3:TrackPointExtension>
            <ns3:hr>106</ns3:hr>
          </ns3:TrackPointExtension>
        </extensions>
      </trkpt>
      <trkpt lat="31.27489079721271991729736328125" lon="121.407208107411861419677734375">
        <ele>6.400000095367431640625</ele>
        <time>2026-05-09T02:22:23.000Z</time>
        <extensions>
          <ns3:TrackPointExtension>
            <ns3:hr>109</ns3:hr>
          </ns3:TrackPointExtension>
        </extensions>
      </trkpt>
      <trkpt lat="31.27488275058567523956298828125" lon="121.40725932084023952484130859375">
        <ele>6.400000095367431640625</ele>
        <time>2026-05-09T02:22:24.000Z</time>
        <extensions>
          <ns3:TrackPointExtension>
            <ns3:hr>109</ns3:hr>
          </ns3:TrackPointExtension>
        </extensions>
      </trkpt>
      <trkpt lat="31.274825669825077056884765625" lon="121.40770724974572658538818359375">
        <ele>6.19999980926513671875</ele>
        <time>2026-05-09T02:22:33.000Z</time>
        <extensions>
          <ns3:TrackPointExtension>
            <ns3:hr>112</ns3:hr>
          </ns3:TrackPointExtension>
        </extensions>
      </trkpt>
      <trkpt lat="31.27482390962541103363037109375" lon="121.407802216708660125732421875">
        <ele>6.19999980926513671875</ele>
        <time>2026-05-09T02:22:35.000Z</time>
        <extensions>
          <ns3:TrackPointExtension>
            <ns3:hr>111</ns3:hr>
          </ns3:TrackPointExtension>
        </extensions>
      </trkpt>
      <trkpt lat="31.274758279323577880859375" lon="121.40830772928893566131591796875">
        <ele>6.19999980926513671875</ele>
        <time>2026-05-09T02:22:46.000Z</time>
        <extensions>
          <ns3:TrackPointExtension>
            <ns3:hr>113</ns3:hr>
          </ns3:TrackPointExtension>
        </extensions>
      </trkpt>
      <trkpt lat="31.274691559374332427978515625" lon="121.40877594240009784698486328125">
        <ele>6.400000095367431640625</ele>
        <time>2026-05-09T02:22:55.000Z</time>
        <extensions>
          <ns3:TrackPointExtension>
            <ns3:hr>114</ns3:hr>
          </ns3:TrackPointExtension>
        </extensions>
      </trkpt>
      <trkpt lat="31.27464269287884235382080078125" lon="121.4092715643346309661865234375">
        <ele>6.19999980926513671875</ele>
        <time>2026-05-09T02:23:05.000Z</time>
        <extensions>
          <ns3:TrackPointExtension>
            <ns3:hr>113</ns3:hr>
          </ns3:TrackPointExtension>
        </extensions>
      </trkpt>
      <trkpt lat="31.2745995260775089263916015625" lon="121.4096333272755146026611328125">
        <ele>6.400000095367431640625</ele>
        <time>2026-05-09T02:23:13.000Z</time>
        <extensions>
          <ns3:TrackPointExtension>
            <ns3:hr>113</ns3:hr>
          </ns3:TrackPointExtension>
        </extensions>
      </trkpt>
      <trkpt lat="31.27458368428051471710205078125" lon="121.40997053124010562896728515625">
        <ele>6.400000095367431640625</ele>
        <time>2026-05-09T02:23:21.000Z</time>
        <extensions>
          <ns3:TrackPointExtension>
            <ns3:hr>114</ns3:hr>
          </ns3:TrackPointExtension>
        </extensions>
      </trkpt>
      <trkpt lat="31.2744955904781818389892578125" lon="121.41007865779101848602294921875">
        <ele>6.19999980926513671875</ele>
        <time>2026-05-09T02:23:25.000Z</time>
        <extensions>
          <ns3:TrackPointExtension>
            <ns3:hr>113</ns3:hr>
          </ns3:TrackPointExtension>
        </extensions>
      </trkpt>
      <trkpt lat="31.27446801401674747467041015625" lon="121.41008175909519195556640625">
        <ele>6.19999980926513671875</ele>
        <time>2026-05-09T02:23:26.000Z</time>
        <extensions>
          <ns3:TrackPointExtension>
            <ns3:hr>113</ns3:hr>
          </ns3:TrackPointExtension>
        </extensions>
      </trkpt>
      <trkpt lat="31.27445049583911895751953125" lon="121.41006256453692913055419921875">
        <ele>6.19999980926513671875</ele>
        <time>2026-05-09T02:23:28.000Z</time>
        <extensions>
          <ns3:TrackPointExtension>
            <ns3:hr>113</ns3:hr>
          </ns3:TrackPointExtension>
        </extensions>
      </trkpt>
      <trkpt lat="31.27442526631057262420654296875" lon="121.410047225654125213623046875">
        <ele>6.19999980926513671875</ele>
        <time>2026-05-09T02:23:30.000Z</time>
        <extensions>
          <ns3:TrackPointExtension>
            <ns3:hr>112</ns3:hr>
          </ns3:TrackPointExtension>
        </extensions>
      </trkpt>
      <trkpt lat="31.27437849529087543487548828125" lon="121.4100668393075466156005859375">
        <ele>6</ele>
        <time>2026-05-09T02:23:33.000Z</time>
        <extensions>
          <ns3:TrackPointExtension>
            <ns3:hr>111</ns3:hr>
          </ns3:TrackPointExtension>
        </extensions>
      </trkpt>
      <trkpt lat="31.27429199405014514923095703125" lon="121.41008913516998291015625">
        <ele>6</ele>
        <time>2026-05-09T02:23:39.000Z</time>
        <extensions>
          <ns3:TrackPointExtension>
            <ns3:hr>114</ns3:hr>
          </ns3:TrackPointExtension>
        </extensions>
      </trkpt>
      <trkpt lat="31.27430029213428497314453125" lon="121.41009517014026641845703125">
        <ele>6</ele>
        <time>2026-05-09T02:23:41.000Z</time>
        <extensions>
          <ns3:TrackPointExtension>
            <ns3:hr>116</ns3:hr>
          </ns3:TrackPointExtension>
        </extensions>
      </trkpt>
      <trkpt lat="31.2741775810718536376953125" lon="121.40999567694962024688720703125">
        <ele>6.19999980926513671875</ele>
        <time>2026-05-09T02:24:00.000Z</time>
        <extensions>
          <ns3:TrackPointExtension>
            <ns3:hr>112</ns3:hr>
          </ns3:TrackPointExtension>
        </extensions>
      </trkpt>
      <trkpt lat="31.27416349947452545166015625" lon="121.4099538512527942657470703125">
        <ele>6.19999980926513671875</ele>
        <time>2026-05-09T02:24:02.000Z</time>
        <extensions>
          <ns3:TrackPointExtension>
            <ns3:hr>111</ns3:hr>
          </ns3:TrackPointExtension>
        </extensions>
      </trkpt>
      <trkpt lat="31.274156458675861358642578125" lon="121.40993968583643436431884765625">
        <ele>6.400000095367431640625</ele>
        <time>2026-05-09T02:24:03.000Z</time>
        <extensions>
          <ns3:TrackPointExtension>
            <ns3:hr>111</ns3:hr>
          </ns3:TrackPointExtension>
        </extensions>
      </trkpt>
    </trkseg>
  </trk>
</gpx>
