<?xml version="1.0" encoding="UTF-8"?>
<gpx creator="Garmin Connect" version="1.1"
  xsi:schemaLocation="http://www.topografix.com/GPX/1/1 http://www.topografix.com/GPX/11.xsd"
  xmlns:ns3="http://www.garmin.com/xmlschemas/TrackPointExtension/v1"
  xmlns="http://www.topografix.com/GPX/1/1"
  xmlns:xsi="http://www.w3.org/2001/XMLSchema-instance" xmlns:ns2="http://www.garmin.com/xmlschemas/GpxExtensions/v3">
  <metadata>
    <link href="connect.garmin.com">
      <text>Garmin Connect</text>
    </link>
    <time>2026-05-09T02:59:35.000Z</time>
  </metadata>
  <trk>
    <name>宝山区 公路骑行</name>
    <type>road_biking</type>
    <trkseg>
      <trkpt lat="31.2724044732749462127685546875" lon="121.41038325615227222442626953125">
        <ele>8.80000019073486328125</ele>
        <time>2026-05-09T02:59:35.000Z</time>
        <extensions>
          <ns3:TrackPointExtension>
            <ns3:hr>98</ns3:hr>
          </ns3:TrackPointExtension>
        </extensions>
      </trkpt>
      <trkpt lat="31.272382847964763641357421875" lon="121.4103830046951770782470703125">
        <ele>8.6000003814697265625</ele>
        <time>2026-05-09T02:59:36.000Z</time>
        <extensions>
          <ns3:TrackPointExtension>
            <ns3:hr>98</ns3:hr>
          </ns3:TrackPointExtension>
        </extensions>
      </trkpt>
      <trkpt lat="31.27235091291368007659912109375" lon="121.4103846810758113861083984375">
        <ele>8.6000003814697265625</ele>
        <time>2026-05-09T02:59:37.000Z</time>
        <extensions>
          <ns3:TrackPointExtension>
            <ns3:hr>98</ns3:hr>
          </ns3:TrackPointExtension>
        </extensions>
      </trkpt>
      <trkpt lat="31.27220691181719303131103515625" lon="121.4103997685015201568603515625">
        <ele>8.6000003814697265625</ele>
        <time>2026-05-09T02:59:41.000Z</time>
        <extensions>
          <ns3:TrackPointExtension>
            <ns3:hr>100</ns3:hr>
          </ns3:TrackPointExtension>
        </extensions>
      </trkpt>
      <trkpt lat="31.2721060775220394134521484375" lon="121.410412676632404327392578125">
        <ele>8.80000019073486328125</ele>
        <time>2026-05-09T02:59:44.000Z</time>
        <extensions>
          <ns3:TrackPointExtension>
            <ns3:hr>104</ns3:hr>
          </ns3:TrackPointExtension>
        </extensions>
      </trkpt>
      <trkpt lat="31.27193902619183063507080078125" lon="121.410435140132904052734375">
        <ele>8.80000019073486328125</ele>
        <time>2026-05-09T02:59:49.000Z</time>
        <extensions>
          <ns3:TrackPointExtension>
            <ns3:hr>105</ns3:hr>
          </ns3:TrackPointExtension>
        </extensions>
      </trkpt>
      <trkpt lat="31.27171757631003856658935546875" lon="121.4104607887566089630126953125">
        <ele>9</ele>
        <time>2026-05-09T02:59:56.000Z</time>
        <extensions>
          <ns3:TrackPointExtension>
            <ns3:hr>102</ns3:hr>
          </ns3:TrackPointExtension>
        </extensions>
      </trkpt>
      <trkpt lat="31.27168287523090839385986328125" lon="121.41046539880335330963134765625">
        <ele>8.80000019073486328125</ele>
        <time>2026-05-09T02:59:57.000Z</time>
        <extensions>
          <ns3:TrackPointExtension>
            <ns3:hr>102</ns3:hr>
          </ns3:TrackPointExtension>
        </extensions>
      </trkpt>
      <trkpt lat="31.27140258438885211944580078125" lon="121.4105087332427501678466796875">
        <ele>8.80000019073486328125</ele>
        <time>2026-05-09T03:00:06.000Z</time>
        <extensions>
          <ns3:TrackPointExtension>
            <ns3:hr>100</ns3:hr>
          </ns3:TrackPointExtension>
        </extensions>
      </trkpt>
      <trkpt lat="31.27115431241691112518310546875" lon="121.4105142652988433837890625">
        <ele>9</ele>
        <time>2026-05-09T03:00:14.000Z</time>
        <extensions>
          <ns3:TrackPointExtension>
            <ns3:hr>100</ns3:hr>
          </ns3:TrackPointExtension>
        </extensions>
      </trkpt>
      <trkpt lat="31.27111542038619518280029296875" lon="121.41042851842939853668212890625">
        <ele>8.80000019073486328125</ele>
        <time>2026-05-09T03:00:17.000Z</time>
        <extensions>
          <ns3:TrackPointExtension>
            <ns3:hr>101</ns3:hr>
          </ns3:TrackPointExtension>
        </extensions>
      </trkpt>
      <trkpt lat="31.2711129896342754364013671875" lon="121.41041837632656097412109375">
        <ele>8.80000019073486328125</ele>
        <time>2026-05-09T03:00:19.000Z</time>
        <extensions>
          <ns3:TrackPointExtension>
            <ns3:hr>101</ns3:hr>
          </ns3:TrackPointExtension>
        </extensions>
      </trkpt>
      <trkpt lat="31.27107921056449413299560546875" lon="121.41037453897297382354736328125">
        <ele>8.6000003814697265625</ele>
        <time>2026-05-09T03:01:12.000Z</time>
        <extensions>
          <ns3:TrackPointExtension>
            <ns3:hr>86</ns3:hr>
          </ns3:TrackPointExtension>
        </extensions>
      </trkpt>
      <trkpt lat="31.2710868380963802337646484375" lon="121.410350985825061798095703125">
        <ele>8.6000003814697265625</ele>
        <time>2026-05-09T03:01:13.000Z</time>
        <extensions>
          <ns3:TrackPointExtension>
            <ns3:hr>87</ns3:hr>
          </ns3:TrackPointExtension>
        </extensions>
      </trkpt>
      <trkpt lat="31.27111692912876605987548828125" lon="121.4102730341255664825439453125">
        <ele>8.6000003814697265625</ele>
        <time>2026-05-09T03:01:16.000Z</time>
        <extensions>
          <ns3:TrackPointExtension>
            <ns3:hr>87</ns3:hr>
          </ns3:TrackPointExtension>
        </extensions>
      </trkpt>
      <trkpt lat="31.27115716226398944854736328125" lon="121.4101499877870082855224609375">
        <ele>8.80000019073486328125</ele>
        <time>2026-05-09T03:01:19.000Z</time>
        <extensions>
          <ns3:TrackPointExtension>
            <ns3:hr>88</ns3:hr>
          </ns3:TrackPointExtension>
        </extensions>
      </trkpt>
      <trkpt lat="31.27117392607033252716064453125" lon="121.41010531224310398101806640625">
        <ele>8.80000019073486328125</ele>
        <time>2026-05-09T03:01:20.000Z</time>
        <extensions>
          <ns3:TrackPointExtension>
            <ns3:hr>88</ns3:hr>
          </ns3:TrackPointExtension>
        </extensions>
      </trkpt>
      <trkpt lat="31.271269060671329498291015625" lon="121.4097922481596469879150390625">
        <ele>8</ele>
        <time>2026-05-09T03:01:27.000Z</time>
        <extensions>
          <ns3:TrackPointExtension>
            <ns3:hr>90</ns3:hr>
          </ns3:TrackPointExtension>
        </extensions>
      </trkpt>
      <trkpt lat="31.27131256274878978729248046875" lon="121.4096789248287677764892578125">
        <ele>8</ele>
        <time>2026-05-09T03:01:30.000Z</time>
        <extensions>
          <ns3:TrackPointExtension>
            <ns3:hr>93</ns3:hr>
          </ns3:TrackPointExtension>
        </extensions>
      </trkpt>
      <trkpt lat="31.27134491689503192901611328125" lon="121.409589238464832305908203125">
        <ele>8</ele>
        <time>2026-05-09T03:01:32.000Z</time>
        <extensions>
          <ns3:TrackPointExtension>
            <ns3:hr>94</ns3:hr>
          </ns3:TrackPointExtension>
        </extensions>
      </trkpt>
      <trkpt lat="31.2713778577744960784912109375" lon="121.40949628315865993499755859375">
        <ele>8.19999980926513671875</ele>
        <time>2026-05-09T03:01:34.000Z</time>
        <extensions>
          <ns3:TrackPointExtension>
            <ns3:hr>95</ns3:hr>
          </ns3:TrackPointExtension>
        </extensions>
      </trkpt>
      <trkpt lat="31.2715213559567928314208984375" lon="121.4091066084802150726318359375">
        <ele>8.19999980926513671875</ele>
        <time>2026-05-09T03:01:42.000Z</time>
        <extensions>
          <ns3:TrackPointExtension>
            <ns3:hr>96</ns3:hr>
          </ns3:TrackPointExtension>
        </extensions>
      </trkpt>
      <trkpt lat="31.27156049944460391998291015625" lon="121.4090095460414886474609375">
        <ele>8.3999996185302734375</ele>
        <time>2026-05-09T03:01:44.000Z</time>
        <extensions>
          <ns3:TrackPointExtension>
            <ns3:hr>101</ns3:hr>
          </ns3:TrackPointExtension>
        </extensions>
      </trkpt>
      <trkpt lat="31.27158296294510364532470703125" lon="121.40896059572696685791015625">
        <ele>8.3999996185302734375</ele>
        <time>2026-05-09T03:01:45.000Z</time>
        <extensions>
          <ns3:TrackPointExtension>
            <ns3:hr>101</ns3:hr>
          </ns3:TrackPointExtension>
        </extensions>
      </trkpt>
      <trkpt lat="31.27169854938983917236328125" lon="121.40866915695369243621826171875">
        <ele>8.19999980926513671875</ele>
        <time>2026-05-09T03:01:51.000Z</time>
        <extensions>
          <ns3:TrackPointExtension>
            <ns3:hr>101</ns3:hr>
          </ns3:TrackPointExtension>
        </extensions>
      </trkpt>
      <trkpt lat="31.27187029458582401275634765625" lon="121.408230029046535491943359375">
        <ele>8.3999996185302734375</ele>
        <time>2026-05-09T03:02:00.000Z</time>
        <extensions>
          <ns3:TrackPointExtension>
            <ns3:hr>103</ns3:hr>
          </ns3:TrackPointExtension>
        </extensions>
      </trkpt>
      <trkpt lat="31.27197842113673686981201171875" lon="121.40781185589730739593505859375">
        <ele>8.6000003814697265625</ele>
        <time>2026-05-09T03:02:08.000Z</time>
        <extensions>
          <ns3:TrackPointExtension>
            <ns3:hr>105</ns3:hr>
          </ns3:TrackPointExtension>
        </extensions>
      </trkpt>
      <trkpt lat="31.27206844277679920196533203125" lon="121.407360322773456573486328125">
        <ele>9</ele>
        <time>2026-05-09T03:02:17.000Z</time>
        <extensions>
          <ns3:TrackPointExtension>
            <ns3:hr>106</ns3:hr>
          </ns3:TrackPointExtension>
        </extensions>
      </trkpt>
      <trkpt lat="31.2721181474626064300537109375" lon="121.40701272524893283843994140625">
        <ele>9.19999980926513671875</ele>
        <time>2026-05-09T03:02:24.000Z</time>
        <extensions>
          <ns3:TrackPointExtension>
            <ns3:hr>106</ns3:hr>
          </ns3:TrackPointExtension>
        </extensions>
      </trkpt>
      <trkpt lat="31.27215125598013401031494140625" lon="121.4066788740456104278564453125">
        <ele>9.6000003814697265625</ele>
        <time>2026-05-09T03:02:31.000Z</time>
        <extensions>
          <ns3:TrackPointExtension>
            <ns3:hr>107</ns3:hr>
          </ns3:TrackPointExtension>
        </extensions>
      </trkpt>
      <trkpt lat="31.272189728915691375732421875" lon="121.4062252454459667205810546875">
        <ele>9.6000003814697265625</ele>
        <time>2026-05-09T03:02:40.000Z</time>
        <extensions>
          <ns3:TrackPointExtension>
            <ns3:hr>108</ns3:hr>
          </ns3:TrackPointExtension>
        </extensions>
      </trkpt>
      <trkpt lat="31.2721898965537548065185546875" lon="121.40607797540724277496337890625">
        <ele>9.6000003814697265625</ele>
        <time>2026-05-09T03:02:43.000Z</time>
        <extensions>
          <ns3:TrackPointExtension>
            <ns3:hr>109</ns3:hr>
          </ns3:TrackPointExtension>
        </extensions>
      </trkpt>
      <trkpt lat="31.27216399647295475006103515625" lon="121.40599180944263935089111328125">
        <ele>9.6000003814697265625</ele>
        <time>2026-05-09T03:02:45.000Z</time>
        <extensions>
          <ns3:TrackPointExtension>
            <ns3:hr>109</ns3:hr>
          </ns3:TrackPointExtension>
        </extensions>
      </trkpt>
      <trkpt lat="31.27212627790868282318115234375" lon="121.4058738760650157928466796875">
        <ele>9.80000019073486328125</ele>
        <time>2026-05-09T03:02:48.000Z</time>
        <extensions>
          <ns3:TrackPointExtension>
            <ns3:hr>109</ns3:hr>
          </ns3:TrackPointExtension>
        </extensions>
      </trkpt>
      <trkpt lat="31.2720970250666141510009765625" lon="121.4058659970760345458984375">
        <ele>9.6000003814697265625</ele>
        <time>2026-05-09T03:02:49.000Z</time>
        <extensions>
          <ns3:TrackPointExtension>
            <ns3:hr>108</ns3:hr>
          </ns3:TrackPointExtension>
        </extensions>
      </trkpt>
      <trkpt lat="31.27187691628932952880859375" lon="121.40583179891109466552734375">
        <ele>9.80000019073486328125</ele>
        <time>2026-05-09T03:02:55.000Z</time>
        <extensions>
          <ns3:TrackPointExtension>
            <ns3:hr>109</ns3:hr>
          </ns3:TrackPointExtension>
        </extensions>
      </trkpt>
      <trkpt lat="31.27157994545996189117431640625" lon="121.405809335410594940185546875">
        <ele>9.80000019073486328125</ele>
        <time>2026-05-09T03:03:02.000Z</time>
        <extensions>
          <ns3:TrackPointExtension>
            <ns3:hr>110</ns3:hr>
          </ns3:TrackPointExtension>
        </extensions>
      </trkpt>
      <trkpt lat="31.271326057612895965576171875" lon="121.405779160559177398681640625">
        <ele>9.6000003814697265625</ele>
        <time>2026-05-09T03:03:09.000Z</time>
        <extensions>
          <ns3:TrackPointExtension>
            <ns3:hr>109</ns3:hr>
          </ns3:TrackPointExtension>
        </extensions>
      </trkpt>
      <trkpt lat="31.27120577730238437652587890625" lon="121.40573230572044849395751953125">
        <ele>9.19999980926513671875</ele>
        <time>2026-05-09T03:03:15.000Z</time>
        <extensions>
          <ns3:TrackPointExtension>
            <ns3:hr>109</ns3:hr>
          </ns3:TrackPointExtension>
        </extensions>
      </trkpt>
      <trkpt lat="31.271205358207225799560546875" lon="121.40572710894048213958740234375">
        <ele>9.19999980926513671875</ele>
        <time>2026-05-09T03:03:16.000Z</time>
        <extensions>
          <ns3:TrackPointExtension>
            <ns3:hr>107</ns3:hr>
          </ns3:TrackPointExtension>
        </extensions>
      </trkpt>
      <trkpt lat="31.27115347422659397125244140625" lon="121.40573658049106597900390625">
        <ele>9.3999996185302734375</ele>
        <time>2026-05-09T03:03:51.000Z</time>
        <extensions>
          <ns3:TrackPointExtension>
            <ns3:hr>93</ns3:hr>
          </ns3:TrackPointExtension>
        </extensions>
      </trkpt>
      <trkpt lat="31.27112857997417449951171875" lon="121.4057327248156070709228515625">
        <ele>9.3999996185302734375</ele>
        <time>2026-05-09T03:03:52.000Z</time>
        <extensions>
          <ns3:TrackPointExtension>
            <ns3:hr>93</ns3:hr>
          </ns3:TrackPointExtension>
        </extensions>
      </trkpt>
      <trkpt lat="31.2711019255220890045166015625" lon="121.4057310484349727630615234375">
        <ele>9.3999996185302734375</ele>
        <time>2026-05-09T03:03:53.000Z</time>
        <extensions>
          <ns3:TrackPointExtension>
            <ns3:hr>93</ns3:hr>
          </ns3:TrackPointExtension>
        </extensions>
      </trkpt>
      <trkpt lat="31.27095297910273075103759765625" lon="121.4057964272797107696533203125">
        <ele>9.19999980926513671875</ele>
        <time>2026-05-09T03:03:58.000Z</time>
        <extensions>
          <ns3:TrackPointExtension>
            <ns3:hr>92</ns3:hr>
          </ns3:TrackPointExtension>
        </extensions>
      </trkpt>
      <trkpt lat="31.2709052860736846923828125" lon="121.40587739646434783935546875">
        <ele>9.19999980926513671875</ele>
        <time>2026-05-09T03:04:00.000Z</time>
        <extensions>
          <ns3:TrackPointExtension>
            <ns3:hr>93</ns3:hr>
          </ns3:TrackPointExtension>
        </extensions>
      </trkpt>
      <trkpt lat="31.27083730883896350860595703125" lon="121.40597529709339141845703125">
        <ele>9.19999980926513671875</ele>
        <time>2026-05-09T03:04:03.000Z</time>
        <extensions>
          <ns3:TrackPointExtension>
            <ns3:hr>93</ns3:hr>
          </ns3:TrackPointExtension>
        </extensions>
      </trkpt>
      <trkpt lat="31.2708206288516521453857421875" lon="121.405991725623607635498046875">
        <ele>9.19999980926513671875</ele>
        <time>2026-05-09T03:04:06.000Z</time>
        <extensions>
          <ns3:TrackPointExtension>
            <ns3:hr>93</ns3:hr>
          </ns3:TrackPointExtension>
        </extensions>
      </trkpt>
      <trkpt lat="31.27078735269606113433837890625" lon="121.405947469174861907958984375">
        <ele>9.19999980926513671875</ele>
        <time>2026-05-09T03:04:14.000Z</time>
        <extensions>
          <ns3:TrackPointExtension>
            <ns3:hr>99</ns3:hr>
          </ns3:TrackPointExtension>
        </extensions>
      </trkpt>
      <trkpt lat="31.27076656557619571685791015625" lon="121.405919976532459259033203125">
        <ele>9.19999980926513671875</ele>
        <time>2026-05-09T03:04:15.000Z</time>
        <extensions>
          <ns3:TrackPointExtension>
            <ns3:hr>99</ns3:hr>
          </ns3:TrackPointExtension>
        </extensions>
      </trkpt>
      <trkpt lat="31.2707461975514888763427734375" lon="121.405887119472026824951171875">
        <ele>9.19999980926513671875</ele>
        <time>2026-05-09T03:04:16.000Z</time>
        <extensions>
          <ns3:TrackPointExtension>
            <ns3:hr>100</ns3:hr>
          </ns3:TrackPointExtension>
        </extensions>
      </trkpt>
      <trkpt lat="31.27061753533780574798583984375" lon="121.40570975840091705322265625">
        <ele>9.19999980926513671875</ele>
        <time>2026-05-09T03:04:21.000Z</time>
        <extensions>
          <ns3:TrackPointExtension>
            <ns3:hr>100</ns3:hr>
          </ns3:TrackPointExtension>
        </extensions>
      </trkpt>
      <trkpt lat="31.27057914622128009796142578125" lon="121.405683271586894989013671875">
        <ele>9.19999980926513671875</ele>
        <time>2026-05-09T03:04:22.000Z</time>
        <extensions>
          <ns3:TrackPointExtension>
            <ns3:hr>101</ns3:hr>
          </ns3:TrackPointExtension>
        </extensions>
      </trkpt>
      <trkpt lat="31.270493902266025543212890625" lon="121.40564002096652984619140625">
        <ele>9.19999980926513671875</ele>
        <time>2026-05-09T03:04:24.000Z</time>
        <extensions>
          <ns3:TrackPointExtension>
            <ns3:hr>102</ns3:hr>
          </ns3:TrackPointExtension>
        </extensions>
      </trkpt>
      <trkpt lat="31.270403377711772918701171875" lon="121.40561831183731555938720703125">
        <ele>9.19999980926513671875</ele>
        <time>2026-05-09T03:04:26.000Z</time>
        <extensions>
          <ns3:TrackPointExtension>
            <ns3:hr>105</ns3:hr>
          </ns3:TrackPointExtension>
        </extensions>
      </trkpt>
      <trkpt lat="31.27035610377788543701171875" lon="121.4056096784770488739013671875">
        <ele>9.19999980926513671875</ele>
        <time>2026-05-09T03:04:27.000Z</time>
        <extensions>
          <ns3:TrackPointExtension>
            <ns3:hr>106</ns3:hr>
          </ns3:TrackPointExtension>
        </extensions>
      </trkpt>
      <trkpt lat="31.27011981792747974395751953125" lon="121.4055838622152805328369140625">
        <ele>8.80000019073486328125</ele>
        <time>2026-05-09T03:04:32.000Z</time>
        <extensions>
          <ns3:TrackPointExtension>
            <ns3:hr>109</ns3:hr>
          </ns3:TrackPointExtension>
        </extensions>
      </trkpt>
      <trkpt lat="31.26999408937990665435791015625" lon="121.4055707864463329315185546875">
        <ele>8.80000019073486328125</ele>
        <time>2026-05-09T03:04:35.000Z</time>
        <extensions>
          <ns3:TrackPointExtension>
            <ns3:hr>108</ns3:hr>
          </ns3:TrackPointExtension>
        </extensions>
      </trkpt>
      <trkpt lat="31.26986014656722545623779296875" lon="121.405555196106433868408203125">
        <ele>8.6000003814697265625</ele>
        <time>2026-05-09T03:04:38.000Z</time>
        <extensions>
          <ns3:TrackPointExtension>
            <ns3:hr>107</ns3:hr>
          </ns3:TrackPointExtension>
        </extensions>
      </trkpt>
      <trkpt lat="31.269544400274753570556640625" lon="121.40553516335785388946533203125">
        <ele>8.6000003814697265625</ele>
        <time>2026-05-09T03:04:45.000Z</time>
        <extensions>
          <ns3:TrackPointExtension>
            <ns3:hr>108</ns3:hr>
          </ns3:TrackPointExtension>
        </extensions>
      </trkpt>
      <trkpt lat="31.26920082606375217437744140625" lon="121.4055038988590240478515625">
        <ele>8.80000019073486328125</ele>
        <time>2026-05-09T03:04:53.000Z</time>
        <extensions>
          <ns3:TrackPointExtension>
            <ns3:hr>109</ns3:hr>
          </ns3:TrackPointExtension>
        </extensions>
      </trkpt>
      <trkpt lat="31.2687720917165279388427734375" lon="121.40545637346804141998291015625">
        <ele>8.3999996185302734375</ele>
        <time>2026-05-09T03:05:04.000Z</time>
        <extensions>
          <ns3:TrackPointExtension>
            <ns3:hr>108</ns3:hr>
          </ns3:TrackPointExtension>
        </extensions>
      </trkpt>
      <trkpt lat="31.26854024827480316162109375" lon="121.405397616326808929443359375">
        <ele>8.3999996185302734375</ele>
        <time>2026-05-09T03:05:11.000Z</time>
        <extensions>
          <ns3:TrackPointExtension>
            <ns3:hr>110</ns3:hr>
          </ns3:TrackPointExtension>
        </extensions>
      </trkpt>
      <trkpt lat="31.2683114223182201385498046875" lon="121.40537917613983154296875">
        <ele>8.80000019073486328125</ele>
        <time>2026-05-09T03:05:18.000Z</time>
        <extensions>
          <ns3:TrackPointExtension>
            <ns3:hr>109</ns3:hr>
          </ns3:TrackPointExtension>
        </extensions>
      </trkpt>
      <trkpt lat="31.2681667506694793701171875" lon="121.40535813756287097930908203125">
        <ele>8.80000019073486328125</ele>
        <time>2026-05-09T03:05:24.000Z</time>
        <extensions>
          <ns3:TrackPointExtension>
            <ns3:hr>110</ns3:hr>
          </ns3:TrackPointExtension>
        </extensions>
      </trkpt>
      <trkpt lat="31.2681270204484462738037109375" lon="121.40535771846771240234375">
        <ele>8.80000019073486328125</ele>
        <time>2026-05-09T03:05:27.000Z</time>
        <extensions>
          <ns3:TrackPointExtension>
            <ns3:hr>108</ns3:hr>
          </ns3:TrackPointExtension>
        </extensions>
      </trkpt>
      <trkpt lat="31.26810313202440738677978515625" lon="121.4053523540496826171875">
        <ele>9</ele>
        <time>2026-05-09T03:05:30.000Z</time>
        <extensions>
          <ns3:TrackPointExtension>
            <ns3:hr>105</ns3:hr>
          </ns3:TrackPointExtension>
        </extensions>
      </trkpt>
      <trkpt lat="31.26798762939870357513427734375" lon="121.40529627911746501922607421875">
        <ele>9</ele>
        <time>2026-05-09T03:05:35.000Z</time>
        <extensions>
          <ns3:TrackPointExtension>
            <ns3:hr>103</ns3:hr>
          </ns3:TrackPointExtension>
        </extensions>
      </trkpt>
      <trkpt lat="31.26778529025614261627197265625" lon="121.40522235073149204254150390625">
        <ele>9.3999996185302734375</ele>
        <time>2026-05-09T03:05:41.000Z</time>
        <extensions>
          <ns3:TrackPointExtension>
            <ns3:hr>104</ns3:hr>
          </ns3:TrackPointExtension>
        </extensions>
      </trkpt>
      <trkpt lat="31.26770214177668094635009765625" lon="121.40521363355219364166259765625">
        <ele>9.3999996185302734375</ele>
        <time>2026-05-09T03:05:43.000Z</time>
        <extensions>
          <ns3:TrackPointExtension>
            <ns3:hr>107</ns3:hr>
          </ns3:TrackPointExtension>
        </extensions>
      </trkpt>
      <trkpt lat="31.26743978820741176605224609375" lon="121.40519385226070880889892578125">
        <ele>9</ele>
        <time>2026-05-09T03:05:49.000Z</time>
        <extensions>
          <ns3:TrackPointExtension>
            <ns3:hr>109</ns3:hr>
          </ns3:TrackPointExtension>
        </extensions>
      </trkpt>
      <trkpt lat="31.26700334250926971435546875" lon="121.40516820363700389862060546875">
        <ele>9.3999996185302734375</ele>
        <time>2026-05-09T03:05:59.000Z</time>
        <extensions>
          <ns3:TrackPointExtension>
            <ns3:hr>109</ns3:hr>
          </ns3:TrackPointExtension>
        </extensions>
      </trkpt>
      <trkpt lat="31.26673688180744647979736328125" lon="121.40520474873483180999755859375">
        <ele>9.19999980926513671875</ele>
        <time>2026-05-09T03:06:05.000Z</time>
        <extensions>
          <ns3:TrackPointExtension>
            <ns3:hr>111</ns3:hr>
          </ns3:TrackPointExtension>
        </extensions>
      </trkpt>
      <trkpt lat="31.2666917033493518829345703125" lon="121.4051982946693897247314453125">
        <ele>9.19999980926513671875</ele>
        <time>2026-05-09T03:06:06.000Z</time>
        <extensions>
          <ns3:TrackPointExtension>
            <ns3:hr>111</ns3:hr>
          </ns3:TrackPointExtension>
        </extensions>
      </trkpt>
      <trkpt lat="31.26624737866222858428955078125" lon="121.4051498472690582275390625">
        <ele>9.3999996185302734375</ele>
        <time>2026-05-09T03:06:16.000Z</time>
        <extensions>
          <ns3:TrackPointExtension>
            <ns3:hr>110</ns3:hr>
          </ns3:TrackPointExtension>
        </extensions>
      </trkpt>
      <trkpt lat="31.26582576893270015716552734375" lon="121.40511036850512027740478515625">
        <ele>9.3999996185302734375</ele>
        <time>2026-05-09T03:06:25.000Z</time>
        <extensions>
          <ns3:TrackPointExtension>
            <ns3:hr>111</ns3:hr>
          </ns3:TrackPointExtension>
        </extensions>
      </trkpt>
      <trkpt lat="31.2653921730816364288330078125" lon="121.40507214702665805816650390625">
        <ele>7.80000019073486328125</ele>
        <time>2026-05-09T03:06:33.000Z</time>
        <extensions>
          <ns3:TrackPointExtension>
            <ns3:hr>109</ns3:hr>
          </ns3:TrackPointExtension>
        </extensions>
      </trkpt>
      <trkpt lat="31.2653331644833087921142578125" lon="121.40506695024669170379638671875">
        <ele>7.599999904632568359375</ele>
        <time>2026-05-09T03:06:34.000Z</time>
        <extensions>
          <ns3:TrackPointExtension>
            <ns3:hr>108</ns3:hr>
          </ns3:TrackPointExtension>
        </extensions>
      </trkpt>
      <trkpt lat="31.26502462662756443023681640625" lon="121.405032835900783538818359375">
        <ele>6.599999904632568359375</ele>
        <time>2026-05-09T03:06:39.000Z</time>
        <extensions>
          <ns3:TrackPointExtension>
            <ns3:hr>106</ns3:hr>
          </ns3:TrackPointExtension>
        </extensions>
      </trkpt>
      <trkpt lat="31.2648453377187252044677734375" lon="121.40501347370445728302001953125">
        <ele>5.80000019073486328125</ele>
        <time>2026-05-09T03:06:42.000Z</time>
        <extensions>
          <ns3:TrackPointExtension>
            <ns3:hr>102</ns3:hr>
          </ns3:TrackPointExtension>
        </extensions>
      </trkpt>
      <trkpt lat="31.26478222198784351348876953125" lon="121.40500525943934917449951171875">
        <ele>5.599999904632568359375</ele>
        <time>2026-05-09T03:06:43.000Z</time>
        <extensions>
          <ns3:TrackPointExtension>
            <ns3:hr>100</ns3:hr>
          </ns3:TrackPointExtension>
        </extensions>
      </trkpt>
      <trkpt lat="31.26471751369535923004150390625" lon="121.4049967937171459197998046875">
        <ele>5.19999980926513671875</ele>
        <time>2026-05-09T03:06:44.000Z</time>
        <extensions>
          <ns3:TrackPointExtension>
            <ns3:hr>100</ns3:hr>
          </ns3:TrackPointExtension>
        </extensions>
      </trkpt>
      <trkpt lat="31.26452389173209667205810546875" lon="121.40497508458793163299560546875">
        <ele>4.400000095367431640625</ele>
        <time>2026-05-09T03:06:47.000Z</time>
        <extensions>
          <ns3:TrackPointExtension>
            <ns3:hr>99</ns3:hr>
          </ns3:TrackPointExtension>
        </extensions>
      </trkpt>
      <trkpt lat="31.2640574388206005096435546875" lon="121.4049361087381839752197265625">
        <ele>4.19999980926513671875</ele>
        <time>2026-05-09T03:06:54.000Z</time>
        <extensions>
          <ns3:TrackPointExtension>
            <ns3:hr>96</ns3:hr>
          </ns3:TrackPointExtension>
        </extensions>
      </trkpt>
      <trkpt lat="31.263457797467708587646484375" lon="121.4048603363335132598876953125">
        <ele>4.599999904632568359375</ele>
        <time>2026-05-09T03:07:06.000Z</time>
        <extensions>
          <ns3:TrackPointExtension>
            <ns3:hr>96</ns3:hr>
          </ns3:TrackPointExtension>
        </extensions>
      </trkpt>
      <trkpt lat="31.2633870542049407958984375" lon="121.40485069714486598968505859375">
        <ele>4.599999904632568359375</ele>
        <time>2026-05-09T03:07:07.000Z</time>
        <extensions>
          <ns3:TrackPointExtension>
            <ns3:hr>96</ns3:hr>
          </ns3:TrackPointExtension>
        </extensions>
      </trkpt>
      <trkpt lat="31.262705437839031219482421875" lon="121.40474474988877773284912109375">
        <ele>4.80000019073486328125</ele>
        <time>2026-05-09T03:07:19.000Z</time>
        <extensions>
          <ns3:TrackPointExtension>
            <ns3:hr>99</ns3:hr>
          </ns3:TrackPointExtension>
        </extensions>
      </trkpt>
      <trkpt lat="31.262641064822673797607421875" lon="121.40474307350814342498779296875">
        <ele>5</ele>
        <time>2026-05-09T03:07:20.000Z</time>
        <extensions>
          <ns3:TrackPointExtension>
            <ns3:hr>100</ns3:hr>
          </ns3:TrackPointExtension>
        </extensions>
      </trkpt>
      <trkpt lat="31.26243813894689083099365234375" lon="121.4047228731215000152587890625">
        <ele>5.599999904632568359375</ele>
        <time>2026-05-09T03:07:24.000Z</time>
        <extensions>
          <ns3:TrackPointExtension>
            <ns3:hr>102</ns3:hr>
          </ns3:TrackPointExtension>
        </extensions>
      </trkpt>
      <trkpt lat="31.26221098937094211578369140625" lon="121.4047154970467090606689453125">
        <ele>6.19999980926513671875</ele>
        <time>2026-05-09T03:07:29.000Z</time>
        <extensions>
          <ns3:TrackPointExtension>
            <ns3:hr>103</ns3:hr>
          </ns3:TrackPointExtension>
        </extensions>
      </trkpt>
      <trkpt lat="31.2620739452540874481201171875" lon="121.4047198556363582611083984375">
        <ele>6.599999904632568359375</ele>
        <time>2026-05-09T03:07:32.000Z</time>
        <extensions>
          <ns3:TrackPointExtension>
            <ns3:hr>108</ns3:hr>
          </ns3:TrackPointExtension>
        </extensions>
      </trkpt>
      <trkpt lat="31.2620323710143566131591796875" lon="121.40472345985472202301025390625">
        <ele>6.80000019073486328125</ele>
        <time>2026-05-09T03:07:33.000Z</time>
        <extensions>
          <ns3:TrackPointExtension>
            <ns3:hr>111</ns3:hr>
          </ns3:TrackPointExtension>
        </extensions>
      </trkpt>
      <trkpt lat="31.261934302747249603271484375" lon="121.40473133884370326995849609375">
        <ele>7</ele>
        <time>2026-05-09T03:07:35.000Z</time>
        <extensions>
          <ns3:TrackPointExtension>
            <ns3:hr>114</ns3:hr>
          </ns3:TrackPointExtension>
        </extensions>
      </trkpt>
      <trkpt lat="31.26180178485810756683349609375" lon="121.40475220978260040283203125">
        <ele>7</ele>
        <time>2026-05-09T03:07:38.000Z</time>
        <extensions>
          <ns3:TrackPointExtension>
            <ns3:hr>113</ns3:hr>
          </ns3:TrackPointExtension>
        </extensions>
      </trkpt>
      <trkpt lat="31.2615874595940113067626953125" lon="121.40480241738259792327880859375">
        <ele>7.599999904632568359375</ele>
        <time>2026-05-09T03:07:43.000Z</time>
        <extensions>
          <ns3:TrackPointExtension>
            <ns3:hr>113</ns3:hr>
          </ns3:TrackPointExtension>
        </extensions>
      </trkpt>
      <trkpt lat="31.261468268930912017822265625" lon="121.40484181232750415802001953125">
        <ele>8.19999980926513671875</ele>
        <time>2026-05-09T03:07:46.000Z</time>
        <extensions>
          <ns3:TrackPointExtension>
            <ns3:hr>116</ns3:hr>
          </ns3:TrackPointExtension>
        </extensions>
      </trkpt>
      <trkpt lat="31.26142694614827632904052734375" lon="121.40485170297324657440185546875">
        <ele>8.3999996185302734375</ele>
        <time>2026-05-09T03:07:47.000Z</time>
        <extensions>
          <ns3:TrackPointExtension>
            <ns3:hr>117</ns3:hr>
          </ns3:TrackPointExtension>
        </extensions>
      </trkpt>
      <trkpt lat="31.26130926422774791717529296875" lon="121.404882967472076416015625">
        <ele>8.80000019073486328125</ele>
        <time>2026-05-09T03:07:50.000Z</time>
        <extensions>
          <ns3:TrackPointExtension>
            <ns3:hr>117</ns3:hr>
          </ns3:TrackPointExtension>
        </extensions>
      </trkpt>
      <trkpt lat="31.26102528534829616546630859375" lon="121.40496452338993549346923828125">
        <ele>9.19999980926513671875</ele>
        <time>2026-05-09T03:07:57.000Z</time>
        <extensions>
          <ns3:TrackPointExtension>
            <ns3:hr>116</ns3:hr>
          </ns3:TrackPointExtension>
        </extensions>
      </trkpt>
      <trkpt lat="31.26083468087017536163330078125" lon="121.40501749701797962188720703125">
        <ele>9.80000019073486328125</ele>
        <time>2026-05-09T03:08:02.000Z</time>
        <extensions>
          <ns3:TrackPointExtension>
            <ns3:hr>117</ns3:hr>
          </ns3:TrackPointExtension>
        </extensions>
      </trkpt>
      <trkpt lat="31.26067911274731159210205078125" lon="121.40506074763834476470947265625">
        <ele>10</ele>
        <time>2026-05-09T03:08:06.000Z</time>
        <extensions>
          <ns3:TrackPointExtension>
            <ns3:hr>119</ns3:hr>
          </ns3:TrackPointExtension>
        </extensions>
      </trkpt>
      <trkpt lat="31.2603657133877277374267578125" lon="121.4051171578466892242431640625">
        <ele>9.80000019073486328125</ele>
        <time>2026-05-09T03:08:14.000Z</time>
        <extensions>
          <ns3:TrackPointExtension>
            <ns3:hr>122</ns3:hr>
          </ns3:TrackPointExtension>
        </extensions>
      </trkpt>
      <trkpt lat="31.2603207863867282867431640625" lon="121.40511657111346721649169921875">
        <ele>9.80000019073486328125</ele>
        <time>2026-05-09T03:08:15.000Z</time>
        <extensions>
          <ns3:TrackPointExtension>
            <ns3:hr>122</ns3:hr>
          </ns3:TrackPointExtension>
        </extensions>
      </trkpt>
      <trkpt lat="31.2599486298859119415283203125" lon="121.40517172403633594512939453125">
        <ele>9</ele>
        <time>2026-05-09T03:08:24.000Z</time>
        <extensions>
          <ns3:TrackPointExtension>
            <ns3:hr>121</ns3:hr>
          </ns3:TrackPointExtension>
        </extensions>
      </trkpt>
      <trkpt lat="31.25986422412097454071044921875" lon="121.40519938431680202484130859375">
        <ele>9</ele>
        <time>2026-05-09T03:08:26.000Z</time>
        <extensions>
          <ns3:TrackPointExtension>
            <ns3:hr>118</ns3:hr>
          </ns3:TrackPointExtension>
        </extensions>
      </trkpt>
      <trkpt lat="31.2597072310745716094970703125" lon="121.40524037182331085205078125">
        <ele>9.19999980926513671875</ele>
        <time>2026-05-09T03:08:30.000Z</time>
        <extensions>
          <ns3:TrackPointExtension>
            <ns3:hr>115</ns3:hr>
          </ns3:TrackPointExtension>
        </extensions>
      </trkpt>
      <trkpt lat="31.25963338650763034820556640625" lon="121.40525487251579761505126953125">
        <ele>9.19999980926513671875</ele>
        <time>2026-05-09T03:08:32.000Z</time>
        <extensions>
          <ns3:TrackPointExtension>
            <ns3:hr>115</ns3:hr>
          </ns3:TrackPointExtension>
        </extensions>
      </trkpt>
      <trkpt lat="31.25931118614971637725830078125" lon="121.40534422360360622406005859375">
        <ele>9.19999980926513671875</ele>
        <time>2026-05-09T03:08:41.000Z</time>
        <extensions>
          <ns3:TrackPointExtension>
            <ns3:hr>117</ns3:hr>
          </ns3:TrackPointExtension>
        </extensions>
      </trkpt>
      <trkpt lat="31.25900474376976490020751953125" lon="121.405421756207942962646484375">
        <ele>8.80000019073486328125</ele>
        <time>2026-05-09T03:08:49.000Z</time>
        <extensions>
          <ns3:TrackPointExtension>
            <ns3:hr>115</ns3:hr>
          </ns3:TrackPointExtension>
        </extensions>
      </trkpt>
      <trkpt lat="31.2586824595928192138671875" lon="121.405509598553180694580078125">
        <ele>9</ele>
        <time>2026-05-09T03:08:58.000Z</time>
        <extensions>
          <ns3:TrackPointExtension>
            <ns3:hr>115</ns3:hr>
          </ns3:TrackPointExtension>
        </extensions>
      </trkpt>
      <trkpt lat="31.2582524679601192474365234375" lon="121.40561319887638092041015625">
        <ele>9.19999980926513671875</ele>
        <time>2026-05-09T03:09:09.000Z</time>
        <extensions>
          <ns3:TrackPointExtension>
            <ns3:hr>114</ns3:hr>
          </ns3:TrackPointExtension>
        </extensions>
      </trkpt>
      <trkpt lat="31.25785960815846920013427734375" lon="121.4056787453591823577880859375">
        <ele>8.80000019073486328125</ele>
        <time>2026-05-09T03:09:19.000Z</time>
        <extensions>
          <ns3:TrackPointExtension>
            <ns3:hr>113</ns3:hr>
          </ns3:TrackPointExtension>
        </extensions>
      </trkpt>
      <trkpt lat="31.2577431835234165191650390625" lon="121.40572451055049896240234375">
        <ele>9</ele>
        <time>2026-05-09T03:09:22.000Z</time>
        <extensions>
          <ns3:TrackPointExtension>
            <ns3:hr>112</ns3:hr>
          </ns3:TrackPointExtension>
        </extensions>
      </trkpt>
      <trkpt lat="31.2576203048229217529296875" lon="121.40576097182929515838623046875">
        <ele>9</ele>
        <time>2026-05-09T03:09:25.000Z</time>
        <extensions>
          <ns3:TrackPointExtension>
            <ns3:hr>113</ns3:hr>
          </ns3:TrackPointExtension>
        </extensions>
      </trkpt>
      <trkpt lat="31.2573810853064060211181640625" lon="121.40580187551677227020263671875">
        <ele>8.6000003814697265625</ele>
        <time>2026-05-09T03:09:31.000Z</time>
        <extensions>
          <ns3:TrackPointExtension>
            <ns3:hr>112</ns3:hr>
          </ns3:TrackPointExtension>
        </extensions>
      </trkpt>
      <trkpt lat="31.2570334039628505706787109375" lon="121.405866332352161407470703125">
        <ele>9</ele>
        <time>2026-05-09T03:09:39.000Z</time>
        <extensions>
          <ns3:TrackPointExtension>
            <ns3:hr>111</ns3:hr>
          </ns3:TrackPointExtension>
        </extensions>
      </trkpt>
      <trkpt lat="31.256769038736820220947265625" lon="121.40590849332511425018310546875">
        <ele>9.19999980926513671875</ele>
        <time>2026-05-09T03:09:46.000Z</time>
        <extensions>
          <ns3:TrackPointExtension>
            <ns3:hr>112</ns3:hr>
          </ns3:TrackPointExtension>
        </extensions>
      </trkpt>
      <trkpt lat="31.25659544952213764190673828125" lon="121.40595191158354282379150390625">
        <ele>9</ele>
        <time>2026-05-09T03:09:53.000Z</time>
        <extensions>
          <ns3:TrackPointExtension>
            <ns3:hr>110</ns3:hr>
          </ns3:TrackPointExtension>
        </extensions>
      </trkpt>
      <trkpt lat="31.25659293495118618011474609375" lon="121.405950821936130523681640625">
        <ele>9</ele>
        <time>2026-05-09T03:09:55.000Z</time>
        <extensions>
          <ns3:TrackPointExtension>
            <ns3:hr>109</ns3:hr>
          </ns3:TrackPointExtension>
        </extensions>
      </trkpt>
      <trkpt lat="31.25659477896988391876220703125" lon="121.405954174697399139404296875">
        <ele>9</ele>
        <time>2026-05-09T03:09:56.000Z</time>
        <extensions>
          <ns3:TrackPointExtension>
            <ns3:hr>108</ns3:hr>
          </ns3:TrackPointExtension>
        </extensions>
      </trkpt>
      <trkpt lat="31.25660081394016742706298828125" lon="121.4059412665665149688720703125">
        <ele>9</ele>
        <time>2026-05-09T03:09:57.000Z</time>
        <extensions>
          <ns3:TrackPointExtension>
            <ns3:hr>107</ns3:hr>
          </ns3:TrackPointExtension>
        </extensions>
      </trkpt>
      <trkpt lat="31.2565090321004390716552734375" lon="121.40594780445098876953125">
        <ele>9</ele>
        <time>2026-05-09T03:10:13.000Z</time>
        <extensions>
          <ns3:TrackPointExtension>
            <ns3:hr>101</ns3:hr>
          </ns3:TrackPointExtension>
        </extensions>
      </trkpt>
      <trkpt lat="31.25649067573249340057373046875" lon="121.405955515801906585693359375">
        <ele>9.19999980926513671875</ele>
        <time>2026-05-09T03:10:14.000Z</time>
        <extensions>
          <ns3:TrackPointExtension>
            <ns3:hr>101</ns3:hr>
          </ns3:TrackPointExtension>
        </extensions>
      </trkpt>
      <trkpt lat="31.2564664520323276519775390625" lon="121.4059625566005706787109375">
        <ele>9.19999980926513671875</ele>
        <time>2026-05-09T03:10:15.000Z</time>
        <extensions>
          <ns3:TrackPointExtension>
            <ns3:hr>101</ns3:hr>
          </ns3:TrackPointExtension>
        </extensions>
      </trkpt>
      <trkpt lat="31.25627090223133563995361328125" lon="121.40599968843162059783935546875">
        <ele>9.19999980926513671875</ele>
        <time>2026-05-09T03:10:21.000Z</time>
        <extensions>
          <ns3:TrackPointExtension>
            <ns3:hr>104</ns3:hr>
          </ns3:TrackPointExtension>
        </extensions>
      </trkpt>
      <trkpt lat="31.25620066188275814056396484375" lon="121.4060311205685138702392578125">
        <ele>9.19999980926513671875</ele>
        <time>2026-05-09T03:10:23.000Z</time>
        <extensions>
          <ns3:TrackPointExtension>
            <ns3:hr>104</ns3:hr>
          </ns3:TrackPointExtension>
        </extensions>
      </trkpt>
      <trkpt lat="31.25591802410781383514404296875" lon="121.40609658323228359222412109375">
        <ele>8.80000019073486328125</ele>
        <time>2026-05-09T03:10:30.000Z</time>
        <extensions>
          <ns3:TrackPointExtension>
            <ns3:hr>107</ns3:hr>
          </ns3:TrackPointExtension>
        </extensions>
      </trkpt>
      <trkpt lat="31.255799420177936553955078125" lon="121.40612550079822540283203125">
        <ele>8.80000019073486328125</ele>
        <time>2026-05-09T03:10:33.000Z</time>
        <extensions>
          <ns3:TrackPointExtension>
            <ns3:hr>110</ns3:hr>
          </ns3:TrackPointExtension>
        </extensions>
      </trkpt>
      <trkpt lat="31.25558643601834774017333984375" lon="121.40617084689438343048095703125">
        <ele>9</ele>
        <time>2026-05-09T03:10:38.000Z</time>
        <extensions>
          <ns3:TrackPointExtension>
            <ns3:hr>109</ns3:hr>
          </ns3:TrackPointExtension>
        </extensions>
      </trkpt>
      <trkpt lat="31.2550978548824787139892578125" lon="121.4062222279608249664306640625">
        <ele>9.19999980926513671875</ele>
        <time>2026-05-09T03:10:49.000Z</time>
        <extensions>
          <ns3:TrackPointExtension>
            <ns3:hr>109</ns3:hr>
          </ns3:TrackPointExtension>
        </extensions>
      </trkpt>
      <trkpt lat="31.25465855933725833892822265625" lon="121.4062602818012237548828125">
        <ele>9.6000003814697265625</ele>
        <time>2026-05-09T03:10:59.000Z</time>
        <extensions>
          <ns3:TrackPointExtension>
            <ns3:hr>111</ns3:hr>
          </ns3:TrackPointExtension>
        </extensions>
      </trkpt>
      <trkpt lat="31.2545225210487842559814453125" lon="121.40626656822860240936279296875">
        <ele>9.80000019073486328125</ele>
        <time>2026-05-09T03:11:02.000Z</time>
        <extensions>
          <ns3:TrackPointExtension>
            <ns3:hr>112</ns3:hr>
          </ns3:TrackPointExtension>
        </extensions>
      </trkpt>
      <trkpt lat="31.25418866984546184539794921875" lon="121.40627478249371051788330078125">
        <ele>9.6000003814697265625</ele>
        <time>2026-05-09T03:11:10.000Z</time>
        <extensions>
          <ns3:TrackPointExtension>
            <ns3:hr>113</ns3:hr>
          </ns3:TrackPointExtension>
        </extensions>
      </trkpt>
      <trkpt lat="31.25393335707485675811767578125" lon="121.4062872715294361114501953125">
        <ele>10</ele>
        <time>2026-05-09T03:11:17.000Z</time>
        <extensions>
          <ns3:TrackPointExtension>
            <ns3:hr>115</ns3:hr>
          </ns3:TrackPointExtension>
        </extensions>
      </trkpt>
      <trkpt lat="31.25386060215532779693603515625" lon="121.40628450550138950347900390625">
        <ele>10</ele>
        <time>2026-05-09T03:11:21.000Z</time>
        <extensions>
          <ns3:TrackPointExtension>
            <ns3:hr>113</ns3:hr>
          </ns3:TrackPointExtension>
        </extensions>
      </trkpt>
      <trkpt lat="31.2538586743175983428955078125" lon="121.40628718771040439605712890625">
        <ele>10</ele>
        <time>2026-05-09T03:11:22.000Z</time>
        <extensions>
          <ns3:TrackPointExtension>
            <ns3:hr>113</ns3:hr>
          </ns3:TrackPointExtension>
        </extensions>
      </trkpt>
      <trkpt lat="31.25383847393095493316650390625" lon="121.4062963239848613739013671875">
        <ele>10.19999980926513671875</ele>
        <time>2026-05-09T03:11:34.000Z</time>
        <extensions>
          <ns3:TrackPointExtension>
            <ns3:hr>108</ns3:hr>
          </ns3:TrackPointExtension>
        </extensions>
      </trkpt>
      <trkpt lat="31.25382003374397754669189453125" lon="121.40630696900188922882080078125">
        <ele>10.19999980926513671875</ele>
        <time>2026-05-09T03:11:35.000Z</time>
        <extensions>
          <ns3:TrackPointExtension>
            <ns3:hr>108</ns3:hr>
          </ns3:TrackPointExtension>
        </extensions>
      </trkpt>
      <trkpt lat="31.25379941426217555999755859375" lon="121.40632272697985172271728515625">
        <ele>10.19999980926513671875</ele>
        <time>2026-05-09T03:11:36.000Z</time>
        <extensions>
          <ns3:TrackPointExtension>
            <ns3:hr>107</ns3:hr>
          </ns3:TrackPointExtension>
        </extensions>
      </trkpt>
      <trkpt lat="31.25371442176401615142822265625" lon="121.406476199626922607421875">
        <ele>10.80000019073486328125</ele>
        <time>2026-05-09T03:11:41.000Z</time>
        <extensions>
          <ns3:TrackPointExtension>
            <ns3:hr>107</ns3:hr>
          </ns3:TrackPointExtension>
        </extensions>
      </trkpt>
      <trkpt lat="31.253630183637142181396484375" lon="121.4067590050399303436279296875">
        <ele>11.19999980926513671875</ele>
        <time>2026-05-09T03:11:49.000Z</time>
        <extensions>
          <ns3:TrackPointExtension>
            <ns3:hr>110</ns3:hr>
          </ns3:TrackPointExtension>
        </extensions>
      </trkpt>
      <trkpt lat="31.25361383892595767974853515625" lon="121.4068991504609584808349609375">
        <ele>10.6000003814697265625</ele>
        <time>2026-05-09T03:11:54.000Z</time>
        <extensions>
          <ns3:TrackPointExtension>
            <ns3:hr>110</ns3:hr>
          </ns3:TrackPointExtension>
        </extensions>
      </trkpt>
      <trkpt lat="31.25360595993697643280029296875" lon="121.40690962783992290496826171875">
        <ele>10.6000003814697265625</ele>
        <time>2026-05-09T03:11:55.000Z</time>
        <extensions>
          <ns3:TrackPointExtension>
            <ns3:hr>110</ns3:hr>
          </ns3:TrackPointExtension>
        </extensions>
      </trkpt>
      <trkpt lat="31.25359900295734405517578125" lon="121.406915746629238128662109375">
        <ele>10.3999996185302734375</ele>
        <time>2026-05-09T03:11:57.000Z</time>
        <extensions>
          <ns3:TrackPointExtension>
            <ns3:hr>110</ns3:hr>
          </ns3:TrackPointExtension>
        </extensions>
      </trkpt>
      <trkpt lat="31.25358156859874725341796875" lon="121.40689303167164325714111328125">
        <ele>10.6000003814697265625</ele>
        <time>2026-05-09T03:12:02.000Z</time>
        <extensions>
          <ns3:TrackPointExtension>
            <ns3:hr>110</ns3:hr>
          </ns3:TrackPointExtension>
        </extensions>
      </trkpt>
      <trkpt lat="31.25357645563781261444091796875" lon="121.4068639464676380157470703125">
        <ele>10.6000003814697265625</ele>
        <time>2026-05-09T03:12:05.000Z</time>
        <extensions>
          <ns3:TrackPointExtension>
            <ns3:hr>112</ns3:hr>
          </ns3:TrackPointExtension>
        </extensions>
      </trkpt>
      <trkpt lat="31.253561116755008697509765625" lon="121.40684357844293117523193359375">
        <ele>10.6000003814697265625</ele>
        <time>2026-05-09T03:12:07.000Z</time>
        <extensions>
          <ns3:TrackPointExtension>
            <ns3:hr>113</ns3:hr>
          </ns3:TrackPointExtension>
        </extensions>
      </trkpt>
      <trkpt lat="31.253553070127964019775390625" lon="121.4068315923213958740234375">
        <ele>10.6000003814697265625</ele>
        <time>2026-05-09T03:12:08.000Z</time>
        <extensions>
          <ns3:TrackPointExtension>
            <ns3:hr>113</ns3:hr>
          </ns3:TrackPointExtension>
        </extensions>
      </trkpt>
      <trkpt lat="31.25354594551026821136474609375" lon="121.40676478855311870574951171875">
        <ele>11</ele>
        <time>2026-05-09T03:12:14.000Z</time>
        <extensions>
          <ns3:TrackPointExtension>
            <ns3:hr>115</ns3:hr>
          </ns3:TrackPointExtension>
        </extensions>
      </trkpt>
      <trkpt lat="31.25354410149157047271728515625" lon="121.40674299560487270355224609375">
        <ele>11</ele>
        <time>2026-05-09T03:12:15.000Z</time>
        <extensions>
          <ns3:TrackPointExtension>
            <ns3:hr>114</ns3:hr>
          </ns3:TrackPointExtension>
        </extensions>
      </trkpt>
    </trkseg>
  </trk>
</gpx>
