<?xml version="1.0" encoding="UTF-8"?>
<gpx creator="Garmin Connect" version="1.1"
  xsi:schemaLocation="http://www.topografix.com/GPX/1/1 http://www.topografix.com/GPX/11.xsd"
  xmlns:ns3="http://www.garmin.com/xmlschemas/TrackPointExtension/v1"
  xmlns="http://www.topografix.com/GPX/1/1"
  xmlns:xsi="http://www.w3.org/2001/XMLSchema-instance" xmlns:ns2="http://www.garmin.com/xmlschemas/GpxExtensions/v3">
  <metadata>
    <link href="connect.garmin.com">
      <text>Garmin Connect</text>
    </link>
    <time>2026-05-11T00:16:53.000Z</time>
  </metadata>
  <trk>
    <name>徐汇区 跑步</name>
    <type>running</type>
    <trkseg>
      <trkpt lat="31.164766252040863037109375" lon="121.45563195459544658660888671875">
        <ele>3.7999999523162841796875</ele>
        <time>2026-05-11T00:16:53.000Z</time>
        <extensions>
          <ns3:TrackPointExtension>
            <ns3:hr>100</ns3:hr>
            <ns3:cad>64</ns3:cad>
          </ns3:TrackPointExtension>
        </extensions>
      </trkpt>
      <trkpt lat="31.1647392623126506805419921875" lon="121.4556338824331760406494140625">
        <ele>3.7999999523162841796875</ele>
        <time>2026-05-11T00:16:54.000Z</time>
        <extensions>
          <ns3:TrackPointExtension>
            <ns3:hr>100</ns3:hr>
            <ns3:cad>62</ns3:cad>
          </ns3:TrackPointExtension>
        </extensions>
      </trkpt>
      <trkpt lat="31.16475778631865978240966796875" lon="121.4556638896465301513671875">
        <ele>3.7999999523162841796875</ele>
        <time>2026-05-11T00:16:55.000Z</time>
        <extensions>
          <ns3:TrackPointExtension>
            <ns3:hr>100</ns3:hr>
            <ns3:cad>62</ns3:cad>
          </ns3:TrackPointExtension>
        </extensions>
      </trkpt>
      <trkpt lat="31.16480019874870777130126953125" lon="121.4556794799864292144775390625">
        <ele>3.599999904632568359375</ele>
        <time>2026-05-11T00:16:56.000Z</time>
        <extensions>
          <ns3:TrackPointExtension>
            <ns3:hr>101</ns3:hr>
            <ns3:cad>60</ns3:cad>
          </ns3:TrackPointExtension>
        </extensions>
      </trkpt>
      <trkpt lat="31.164808161556720733642578125" lon="121.4556972496211528778076171875">
        <ele>3.599999904632568359375</ele>
        <time>2026-05-11T00:16:57.000Z</time>
        <extensions>
          <ns3:TrackPointExtension>
            <ns3:hr>101</ns3:hr>
            <ns3:cad>60</ns3:cad>
          </ns3:TrackPointExtension>
        </extensions>
      </trkpt>
      <trkpt lat="31.1648220755159854888916015625" lon="121.45572281442582607269287109375">
        <ele>3.599999904632568359375</ele>
        <time>2026-05-11T00:16:58.000Z</time>
        <extensions>
          <ns3:TrackPointExtension>
            <ns3:hr>101</ns3:hr>
            <ns3:cad>60</ns3:cad>
          </ns3:TrackPointExtension>
        </extensions>
      </trkpt>
      <trkpt lat="31.1648333072662353515625" lon="121.4557525701820850372314453125">
        <ele>3.599999904632568359375</ele>
        <time>2026-05-11T00:16:59.000Z</time>
        <extensions>
          <ns3:TrackPointExtension>
            <ns3:hr>101</ns3:hr>
            <ns3:cad>60</ns3:cad>
          </ns3:TrackPointExtension>
        </extensions>
      </trkpt>
      <trkpt lat="31.16484663449227809906005859375" lon="121.45577964372932910919189453125">
        <ele>3.599999904632568359375</ele>
        <time>2026-05-11T00:17:00.000Z</time>
        <extensions>
          <ns3:TrackPointExtension>
            <ns3:hr>100</ns3:hr>
            <ns3:cad>79</ns3:cad>
          </ns3:TrackPointExtension>
        </extensions>
      </trkpt>
      <trkpt lat="31.16486591286957263946533203125" lon="121.4558011852204799652099609375">
        <ele>3.7999999523162841796875</ele>
        <time>2026-05-11T00:17:01.000Z</time>
        <extensions>
          <ns3:TrackPointExtension>
            <ns3:hr>100</ns3:hr>
            <ns3:cad>80</ns3:cad>
          </ns3:TrackPointExtension>
        </extensions>
      </trkpt>
      <trkpt lat="31.16488493978977203369140625" lon="121.455814428627490997314453125">
        <ele>3.7999999523162841796875</ele>
        <time>2026-05-11T00:17:02.000Z</time>
        <extensions>
          <ns3:TrackPointExtension>
            <ns3:hr>100</ns3:hr>
            <ns3:cad>80</ns3:cad>
          </ns3:TrackPointExtension>
        </extensions>
      </trkpt>
      <trkpt lat="31.1649045534431934356689453125" lon="121.45582172088325023651123046875">
        <ele>4</ele>
        <time>2026-05-11T00:17:03.000Z</time>
        <extensions>
          <ns3:TrackPointExtension>
            <ns3:hr>100</ns3:hr>
            <ns3:cad>80</ns3:cad>
          </ns3:TrackPointExtension>
        </extensions>
      </trkpt>
      <trkpt lat="31.164923496544361114501953125" lon="121.45584016107022762298583984375">
        <ele>4</ele>
        <time>2026-05-11T00:17:04.000Z</time>
        <extensions>
          <ns3:TrackPointExtension>
            <ns3:hr>101</ns3:hr>
            <ns3:cad>80</ns3:cad>
          </ns3:TrackPointExtension>
        </extensions>
      </trkpt>
      <trkpt lat="31.164942942559719085693359375" lon="121.45585172809660434722900390625">
        <ele>4</ele>
        <time>2026-05-11T00:17:05.000Z</time>
        <extensions>
          <ns3:TrackPointExtension>
            <ns3:hr>101</ns3:hr>
            <ns3:cad>80</ns3:cad>
          </ns3:TrackPointExtension>
        </extensions>
      </trkpt>
      <trkpt lat="31.16496481932699680328369140625" lon="121.45585591904819011688232421875">
        <ele>4</ele>
        <time>2026-05-11T00:17:06.000Z</time>
        <extensions>
          <ns3:TrackPointExtension>
            <ns3:hr>101</ns3:hr>
            <ns3:cad>81</ns3:cad>
          </ns3:TrackPointExtension>
        </extensions>
      </trkpt>
      <trkpt lat="31.16498577408492565155029296875" lon="121.45586698316037654876708984375">
        <ele>4</ele>
        <time>2026-05-11T00:17:07.000Z</time>
        <extensions>
          <ns3:TrackPointExtension>
            <ns3:hr>102</ns3:hr>
            <ns3:cad>81</ns3:cad>
          </ns3:TrackPointExtension>
        </extensions>
      </trkpt>
      <trkpt lat="31.16500840522348880767822265625" lon="121.4558782987296581268310546875">
        <ele>4</ele>
        <time>2026-05-11T00:17:08.000Z</time>
        <extensions>
          <ns3:TrackPointExtension>
            <ns3:hr>102</ns3:hr>
            <ns3:cad>81</ns3:cad>
          </ns3:TrackPointExtension>
        </extensions>
      </trkpt>
      <trkpt lat="31.16503137163817882537841796875" lon="121.45588542334735393524169921875">
        <ele>4</ele>
        <time>2026-05-11T00:17:09.000Z</time>
        <extensions>
          <ns3:TrackPointExtension>
            <ns3:hr>102</ns3:hr>
            <ns3:cad>82</ns3:cad>
          </ns3:TrackPointExtension>
        </extensions>
      </trkpt>
      <trkpt lat="31.16505065001547336578369140625" lon="121.45590453408658504486083984375">
        <ele>4</ele>
        <time>2026-05-11T00:17:10.000Z</time>
        <extensions>
          <ns3:TrackPointExtension>
            <ns3:hr>103</ns3:hr>
            <ns3:cad>82</ns3:cad>
          </ns3:TrackPointExtension>
        </extensions>
      </trkpt>
      <trkpt lat="31.16507261060178279876708984375" lon="121.4559175260365009307861328125">
        <ele>4</ele>
        <time>2026-05-11T00:17:11.000Z</time>
        <extensions>
          <ns3:TrackPointExtension>
            <ns3:hr>103</ns3:hr>
            <ns3:cad>82</ns3:cad>
          </ns3:TrackPointExtension>
        </extensions>
      </trkpt>
      <trkpt lat="31.16509423591196537017822265625" lon="121.45593185909092426300048828125">
        <ele>4.19999980926513671875</ele>
        <time>2026-05-11T00:17:12.000Z</time>
        <extensions>
          <ns3:TrackPointExtension>
            <ns3:hr>104</ns3:hr>
            <ns3:cad>83</ns3:cad>
          </ns3:TrackPointExtension>
        </extensions>
      </trkpt>
      <trkpt lat="31.16511292755603790283203125" lon="121.4559483714401721954345703125">
        <ele>4.19999980926513671875</ele>
        <time>2026-05-11T00:17:13.000Z</time>
        <extensions>
          <ns3:TrackPointExtension>
            <ns3:hr>105</ns3:hr>
            <ns3:cad>82</ns3:cad>
          </ns3:TrackPointExtension>
        </extensions>
      </trkpt>
      <trkpt lat="31.16513681598007678985595703125" lon="121.45596002228558063507080078125">
        <ele>4.19999980926513671875</ele>
        <time>2026-05-11T00:17:14.000Z</time>
        <extensions>
          <ns3:TrackPointExtension>
            <ns3:hr>106</ns3:hr>
            <ns3:cad>82</ns3:cad>
          </ns3:TrackPointExtension>
        </extensions>
      </trkpt>
      <trkpt lat="31.1651590280234813690185546875" lon="121.455981731414794921875">
        <ele>4.19999980926513671875</ele>
        <time>2026-05-11T00:17:15.000Z</time>
        <extensions>
          <ns3:TrackPointExtension>
            <ns3:hr>107</ns3:hr>
            <ns3:cad>82</ns3:cad>
          </ns3:TrackPointExtension>
        </extensions>
      </trkpt>
      <trkpt lat="31.1651788093149662017822265625" lon="121.4559983275830745697021484375">
        <ele>4.19999980926513671875</ele>
        <time>2026-05-11T00:17:16.000Z</time>
        <extensions>
          <ns3:TrackPointExtension>
            <ns3:hr>109</ns3:hr>
            <ns3:cad>82</ns3:cad>
          </ns3:TrackPointExtension>
        </extensions>
      </trkpt>
      <trkpt lat="31.16519607603549957275390625" lon="121.4560295082628726959228515625">
        <ele>4.19999980926513671875</ele>
        <time>2026-05-11T00:17:17.000Z</time>
        <extensions>
          <ns3:TrackPointExtension>
            <ns3:hr>110</ns3:hr>
            <ns3:cad>81</ns3:cad>
          </ns3:TrackPointExtension>
        </extensions>
      </trkpt>
      <trkpt lat="31.16521627642214298248291015625" lon="121.45605146884918212890625">
        <ele>4.19999980926513671875</ele>
        <time>2026-05-11T00:17:18.000Z</time>
        <extensions>
          <ns3:TrackPointExtension>
            <ns3:hr>111</ns3:hr>
            <ns3:cad>81</ns3:cad>
          </ns3:TrackPointExtension>
        </extensions>
      </trkpt>
      <trkpt lat="31.165237985551357269287109375" lon="121.456075608730316162109375">
        <ele>4</ele>
        <time>2026-05-11T00:17:19.000Z</time>
        <extensions>
          <ns3:TrackPointExtension>
            <ns3:hr>112</ns3:hr>
            <ns3:cad>81</ns3:cad>
          </ns3:TrackPointExtension>
        </extensions>
      </trkpt>
      <trkpt lat="31.1652575992047786712646484375" lon="121.45610301755368709564208984375">
        <ele>4</ele>
        <time>2026-05-11T00:17:20.000Z</time>
        <extensions>
          <ns3:TrackPointExtension>
            <ns3:hr>113</ns3:hr>
            <ns3:cad>81</ns3:cad>
          </ns3:TrackPointExtension>
        </extensions>
      </trkpt>
      <trkpt lat="31.1652750335633754730224609375" lon="121.4561287499964237213134765625">
        <ele>4</ele>
        <time>2026-05-11T00:17:21.000Z</time>
        <extensions>
          <ns3:TrackPointExtension>
            <ns3:hr>113</ns3:hr>
            <ns3:cad>81</ns3:cad>
          </ns3:TrackPointExtension>
        </extensions>
      </trkpt>
      <trkpt lat="31.165292300283908843994140625" lon="121.45615230314433574676513671875">
        <ele>4</ele>
        <time>2026-05-11T00:17:22.000Z</time>
        <extensions>
          <ns3:TrackPointExtension>
            <ns3:hr>114</ns3:hr>
            <ns3:cad>82</ns3:cad>
          </ns3:TrackPointExtension>
        </extensions>
      </trkpt>
      <trkpt lat="31.16530814208090305328369140625" lon="121.4561834000051021575927734375">
        <ele>4</ele>
        <time>2026-05-11T00:17:23.000Z</time>
        <extensions>
          <ns3:TrackPointExtension>
            <ns3:hr>114</ns3:hr>
            <ns3:cad>80</ns3:cad>
          </ns3:TrackPointExtension>
        </extensions>
      </trkpt>
      <trkpt lat="31.16532423533499240875244140625" lon="121.4562149159610271453857421875">
        <ele>4</ele>
        <time>2026-05-11T00:17:24.000Z</time>
        <extensions>
          <ns3:TrackPointExtension>
            <ns3:hr>115</ns3:hr>
            <ns3:cad>80</ns3:cad>
          </ns3:TrackPointExtension>
        </extensions>
      </trkpt>
      <trkpt lat="31.16534091532230377197265625" lon="121.45624282769858837127685546875">
        <ele>4</ele>
        <time>2026-05-11T00:17:25.000Z</time>
        <extensions>
          <ns3:TrackPointExtension>
            <ns3:hr>115</ns3:hr>
            <ns3:cad>80</ns3:cad>
          </ns3:TrackPointExtension>
        </extensions>
      </trkpt>
      <trkpt lat="31.16535508073866367340087890625" lon="121.456271074712276458740234375">
        <ele>4</ele>
        <time>2026-05-11T00:17:26.000Z</time>
        <extensions>
          <ns3:TrackPointExtension>
            <ns3:hr>116</ns3:hr>
            <ns3:cad>80</ns3:cad>
          </ns3:TrackPointExtension>
        </extensions>
      </trkpt>
      <trkpt lat="31.16536698304116725921630859375" lon="121.45629999227821826934814453125">
        <ele>4</ele>
        <time>2026-05-11T00:17:27.000Z</time>
        <extensions>
          <ns3:TrackPointExtension>
            <ns3:hr>117</ns3:hr>
            <ns3:cad>80</ns3:cad>
          </ns3:TrackPointExtension>
        </extensions>
      </trkpt>
      <trkpt lat="31.165379472076892852783203125" lon="121.45632966421544551849365234375">
        <ele>4</ele>
        <time>2026-05-11T00:17:28.000Z</time>
        <extensions>
          <ns3:TrackPointExtension>
            <ns3:hr>117</ns3:hr>
            <ns3:cad>81</ns3:cad>
          </ns3:TrackPointExtension>
        </extensions>
      </trkpt>
      <trkpt lat="31.16539145819842815399169921875" lon="121.45635900087654590606689453125">
        <ele>4</ele>
        <time>2026-05-11T00:17:29.000Z</time>
        <extensions>
          <ns3:TrackPointExtension>
            <ns3:hr>118</ns3:hr>
            <ns3:cad>81</ns3:cad>
          </ns3:TrackPointExtension>
        </extensions>
      </trkpt>
      <trkpt lat="31.16540302522480487823486328125" lon="121.45639185793697834014892578125">
        <ele>3.7999999523162841796875</ele>
        <time>2026-05-11T00:17:30.000Z</time>
        <extensions>
          <ns3:TrackPointExtension>
            <ns3:hr>118</ns3:hr>
            <ns3:cad>81</ns3:cad>
          </ns3:TrackPointExtension>
        </extensions>
      </trkpt>
      <trkpt lat="31.16541090421378612518310546875" lon="121.45642764866352081298828125">
        <ele>3.7999999523162841796875</ele>
        <time>2026-05-11T00:17:31.000Z</time>
        <extensions>
          <ns3:TrackPointExtension>
            <ns3:hr>118</ns3:hr>
            <ns3:cad>81</ns3:cad>
          </ns3:TrackPointExtension>
        </extensions>
      </trkpt>
      <trkpt lat="31.16541274823248386383056640625" lon="121.4564670436084270477294921875">
        <ele>3.7999999523162841796875</ele>
        <time>2026-05-11T00:17:32.000Z</time>
        <extensions>
          <ns3:TrackPointExtension>
            <ns3:hr>118</ns3:hr>
            <ns3:cad>81</ns3:cad>
          </ns3:TrackPointExtension>
        </extensions>
      </trkpt>
      <trkpt lat="31.16540755145251750946044921875" lon="121.456501074135303497314453125">
        <ele>3.7999999523162841796875</ele>
        <time>2026-05-11T00:17:33.000Z</time>
        <extensions>
          <ns3:TrackPointExtension>
            <ns3:hr>119</ns3:hr>
            <ns3:cad>82</ns3:cad>
          </ns3:TrackPointExtension>
        </extensions>
      </trkpt>
      <trkpt lat="31.16539816372096538543701171875" lon="121.4565327577292919158935546875">
        <ele>3.7999999523162841796875</ele>
        <time>2026-05-11T00:17:34.000Z</time>
        <extensions>
          <ns3:TrackPointExtension>
            <ns3:hr>119</ns3:hr>
            <ns3:cad>82</ns3:cad>
          </ns3:TrackPointExtension>
        </extensions>
      </trkpt>
      <trkpt lat="31.16538022644817829132080078125" lon="121.4565629325807094573974609375">
        <ele>3.7999999523162841796875</ele>
        <time>2026-05-11T00:17:35.000Z</time>
        <extensions>
          <ns3:TrackPointExtension>
            <ns3:hr>119</ns3:hr>
            <ns3:cad>81</ns3:cad>
          </ns3:TrackPointExtension>
        </extensions>
      </trkpt>
      <trkpt lat="31.16536195389926433563232421875" lon="121.45659067668020725250244140625">
        <ele>3.7999999523162841796875</ele>
        <time>2026-05-11T00:17:36.000Z</time>
        <extensions>
          <ns3:TrackPointExtension>
            <ns3:hr>120</ns3:hr>
            <ns3:cad>81</ns3:cad>
          </ns3:TrackPointExtension>
        </extensions>
      </trkpt>
      <trkpt lat="31.1653457768261432647705078125" lon="121.45661917515099048614501953125">
        <ele>4</ele>
        <time>2026-05-11T00:17:37.000Z</time>
        <extensions>
          <ns3:TrackPointExtension>
            <ns3:hr>120</ns3:hr>
            <ns3:cad>81</ns3:cad>
          </ns3:TrackPointExtension>
        </extensions>
      </trkpt>
      <trkpt lat="31.16532876156270503997802734375" lon="121.45664867945015430450439453125">
        <ele>4</ele>
        <time>2026-05-11T00:17:38.000Z</time>
        <extensions>
          <ns3:TrackPointExtension>
            <ns3:hr>121</ns3:hr>
            <ns3:cad>81</ns3:cad>
          </ns3:TrackPointExtension>
        </extensions>
      </trkpt>
      <trkpt lat="31.16531752981245517730712890625" lon="121.45667566917836666107177734375">
        <ele>4</ele>
        <time>2026-05-11T00:17:39.000Z</time>
        <extensions>
          <ns3:TrackPointExtension>
            <ns3:hr>122</ns3:hr>
            <ns3:cad>82</ns3:cad>
          </ns3:TrackPointExtension>
        </extensions>
      </trkpt>
      <trkpt lat="31.16530512459576129913330078125" lon="121.45670433528721332550048828125">
        <ele>4</ele>
        <time>2026-05-11T00:17:40.000Z</time>
        <extensions>
          <ns3:TrackPointExtension>
            <ns3:hr>123</ns3:hr>
            <ns3:cad>82</ns3:cad>
          </ns3:TrackPointExtension>
        </extensions>
      </trkpt>
      <trkpt lat="31.16528903134167194366455078125" lon="121.456724368035793304443359375">
        <ele>3.7999999523162841796875</ele>
        <time>2026-05-11T00:17:41.000Z</time>
        <extensions>
          <ns3:TrackPointExtension>
            <ns3:hr>123</ns3:hr>
            <ns3:cad>82</ns3:cad>
          </ns3:TrackPointExtension>
        </extensions>
      </trkpt>
      <trkpt lat="31.16527411155402660369873046875" lon="121.45674775354564189910888671875">
        <ele>3.7999999523162841796875</ele>
        <time>2026-05-11T00:17:42.000Z</time>
        <extensions>
          <ns3:TrackPointExtension>
            <ns3:hr>124</ns3:hr>
            <ns3:cad>82</ns3:cad>
          </ns3:TrackPointExtension>
        </extensions>
      </trkpt>
      <trkpt lat="31.16525835357606410980224609375" lon="121.45677071996033191680908203125">
        <ele>3.7999999523162841796875</ele>
        <time>2026-05-11T00:17:43.000Z</time>
        <extensions>
          <ns3:TrackPointExtension>
            <ns3:hr>124</ns3:hr>
            <ns3:cad>82</ns3:cad>
          </ns3:TrackPointExtension>
        </extensions>
      </trkpt>
      <trkpt lat="31.165239326655864715576171875" lon="121.45678765140473842620849609375">
        <ele>3.7999999523162841796875</ele>
        <time>2026-05-11T00:17:44.000Z</time>
        <extensions>
          <ns3:TrackPointExtension>
            <ns3:hr>125</ns3:hr>
            <ns3:cad>82</ns3:cad>
          </ns3:TrackPointExtension>
        </extensions>
      </trkpt>
      <trkpt lat="31.165223903954029083251953125" lon="121.45680860616266727447509765625">
        <ele>4</ele>
        <time>2026-05-11T00:17:45.000Z</time>
        <extensions>
          <ns3:TrackPointExtension>
            <ns3:hr>125</ns3:hr>
            <ns3:cad>82</ns3:cad>
          </ns3:TrackPointExtension>
        </extensions>
      </trkpt>
      <trkpt lat="31.1652093194425106048583984375" lon="121.45683257840573787689208984375">
        <ele>4</ele>
        <time>2026-05-11T00:17:46.000Z</time>
        <extensions>
          <ns3:TrackPointExtension>
            <ns3:hr>125</ns3:hr>
            <ns3:cad>82</ns3:cad>
          </ns3:TrackPointExtension>
        </extensions>
      </trkpt>
      <trkpt lat="31.1651979200541973114013671875" lon="121.45685487426817417144775390625">
        <ele>4.19999980926513671875</ele>
        <time>2026-05-11T00:17:47.000Z</time>
        <extensions>
          <ns3:TrackPointExtension>
            <ns3:hr>126</ns3:hr>
            <ns3:cad>82</ns3:cad>
          </ns3:TrackPointExtension>
        </extensions>
      </trkpt>
      <trkpt lat="31.165186353027820587158203125" lon="121.45688035525381565093994140625">
        <ele>4.19999980926513671875</ele>
        <time>2026-05-11T00:17:48.000Z</time>
        <extensions>
          <ns3:TrackPointExtension>
            <ns3:hr>126</ns3:hr>
            <ns3:cad>82</ns3:cad>
          </ns3:TrackPointExtension>
        </extensions>
      </trkpt>
      <trkpt lat="31.1651766300201416015625" lon="121.45690633915364742279052734375">
        <ele>4.19999980926513671875</ele>
        <time>2026-05-11T00:17:49.000Z</time>
        <extensions>
          <ns3:TrackPointExtension>
            <ns3:hr>126</ns3:hr>
            <ns3:cad>82</ns3:cad>
          </ns3:TrackPointExtension>
        </extensions>
      </trkpt>
      <trkpt lat="31.16517285816371440887451171875" lon="121.456930898129940032958984375">
        <ele>4.19999980926513671875</ele>
        <time>2026-05-11T00:17:50.000Z</time>
        <extensions>
          <ns3:TrackPointExtension>
            <ns3:hr>126</ns3:hr>
            <ns3:cad>82</ns3:cad>
          </ns3:TrackPointExtension>
        </extensions>
      </trkpt>
      <trkpt lat="31.16517118178308010101318359375" lon="121.45695864222943782806396484375">
        <ele>4.19999980926513671875</ele>
        <time>2026-05-11T00:17:51.000Z</time>
        <extensions>
          <ns3:TrackPointExtension>
            <ns3:hr>126</ns3:hr>
            <ns3:cad>82</ns3:cad>
          </ns3:TrackPointExtension>
        </extensions>
      </trkpt>
      <trkpt lat="31.16517034359276294708251953125" lon="121.4569810219109058380126953125">
        <ele>4</ele>
        <time>2026-05-11T00:17:52.000Z</time>
        <extensions>
          <ns3:TrackPointExtension>
            <ns3:hr>126</ns3:hr>
            <ns3:cad>82</ns3:cad>
          </ns3:TrackPointExtension>
        </extensions>
      </trkpt>
      <trkpt lat="31.16517017595469951629638671875" lon="121.457005999982357025146484375">
        <ele>4</ele>
        <time>2026-05-11T00:17:53.000Z</time>
        <extensions>
          <ns3:TrackPointExtension>
            <ns3:hr>126</ns3:hr>
            <ns3:cad>82</ns3:cad>
          </ns3:TrackPointExtension>
        </extensions>
      </trkpt>
      <trkpt lat="31.16517118178308010101318359375" lon="121.4570309780538082122802734375">
        <ele>4</ele>
        <time>2026-05-11T00:17:54.000Z</time>
        <extensions>
          <ns3:TrackPointExtension>
            <ns3:hr>126</ns3:hr>
            <ns3:cad>82</ns3:cad>
          </ns3:TrackPointExtension>
        </extensions>
      </trkpt>
      <trkpt lat="31.1651766300201416015625" lon="121.4570554532110691070556640625">
        <ele>4.19999980926513671875</ele>
        <time>2026-05-11T00:17:55.000Z</time>
        <extensions>
          <ns3:TrackPointExtension>
            <ns3:hr>126</ns3:hr>
            <ns3:cad>82</ns3:cad>
          </ns3:TrackPointExtension>
        </extensions>
      </trkpt>
      <trkpt lat="31.16517839021980762481689453125" lon="121.4570822753012180328369140625">
        <ele>4.19999980926513671875</ele>
        <time>2026-05-11T00:17:56.000Z</time>
        <extensions>
          <ns3:TrackPointExtension>
            <ns3:hr>126</ns3:hr>
            <ns3:cad>82</ns3:cad>
          </ns3:TrackPointExtension>
        </extensions>
      </trkpt>
      <trkpt lat="31.16517319343984127044677734375" lon="121.457109935581684112548828125">
        <ele>4.19999980926513671875</ele>
        <time>2026-05-11T00:17:57.000Z</time>
        <extensions>
          <ns3:TrackPointExtension>
            <ns3:hr>127</ns3:hr>
            <ns3:cad>82</ns3:cad>
          </ns3:TrackPointExtension>
        </extensions>
      </trkpt>
      <trkpt lat="31.16516112349927425384521484375" lon="121.45713047124445438385009765625">
        <ele>4.400000095367431640625</ele>
        <time>2026-05-11T00:17:58.000Z</time>
        <extensions>
          <ns3:TrackPointExtension>
            <ns3:hr>127</ns3:hr>
            <ns3:cad>82</ns3:cad>
          </ns3:TrackPointExtension>
        </extensions>
      </trkpt>
      <trkpt lat="31.16514788009226322174072265625" lon="121.45715318620204925537109375">
        <ele>4.400000095367431640625</ele>
        <time>2026-05-11T00:17:59.000Z</time>
        <extensions>
          <ns3:TrackPointExtension>
            <ns3:hr>127</ns3:hr>
            <ns3:cad>82</ns3:cad>
          </ns3:TrackPointExtension>
        </extensions>
      </trkpt>
      <trkpt lat="31.16514134220778942108154296875" lon="121.4571774937212467193603515625">
        <ele>4.400000095367431640625</ele>
        <time>2026-05-11T00:18:00.000Z</time>
        <extensions>
          <ns3:TrackPointExtension>
            <ns3:hr>128</ns3:hr>
            <ns3:cad>81</ns3:cad>
          </ns3:TrackPointExtension>
        </extensions>
      </trkpt>
      <trkpt lat="31.1651399172842502593994140625" lon="121.45720624364912509918212890625">
        <ele>4.400000095367431640625</ele>
        <time>2026-05-11T00:18:01.000Z</time>
        <extensions>
          <ns3:TrackPointExtension>
            <ns3:hr>128</ns3:hr>
            <ns3:cad>81</ns3:cad>
          </ns3:TrackPointExtension>
        </extensions>
      </trkpt>
      <trkpt lat="31.16514134220778942108154296875" lon="121.45723289810121059417724609375">
        <ele>4.400000095367431640625</ele>
        <time>2026-05-11T00:18:02.000Z</time>
        <extensions>
          <ns3:TrackPointExtension>
            <ns3:hr>128</ns3:hr>
            <ns3:cad>81</ns3:cad>
          </ns3:TrackPointExtension>
        </extensions>
      </trkpt>
      <trkpt lat="31.16514503024518489837646484375" lon="121.45725737325847148895263671875">
        <ele>4.19999980926513671875</ele>
        <time>2026-05-11T00:18:03.000Z</time>
        <extensions>
          <ns3:TrackPointExtension>
            <ns3:hr>128</ns3:hr>
            <ns3:cad>80</ns3:cad>
          </ns3:TrackPointExtension>
        </extensions>
      </trkpt>
      <trkpt lat="31.16514788009226322174072265625" lon="121.4572857879102230072021484375">
        <ele>4.19999980926513671875</ele>
        <time>2026-05-11T00:18:04.000Z</time>
        <extensions>
          <ns3:TrackPointExtension>
            <ns3:hr>128</ns3:hr>
            <ns3:cad>79</ns3:cad>
          </ns3:TrackPointExtension>
        </extensions>
      </trkpt>
      <trkpt lat="31.16514779627323150634765625" lon="121.4573109336197376251220703125">
        <ele>4.19999980926513671875</ele>
        <time>2026-05-11T00:18:05.000Z</time>
        <extensions>
          <ns3:TrackPointExtension>
            <ns3:hr>128</ns3:hr>
            <ns3:cad>79</ns3:cad>
          </ns3:TrackPointExtension>
        </extensions>
      </trkpt>
      <trkpt lat="31.16514737717807292938232421875" lon="121.45733733661472797393798828125">
        <ele>4.19999980926513671875</ele>
        <time>2026-05-11T00:18:06.000Z</time>
        <extensions>
          <ns3:TrackPointExtension>
            <ns3:hr>128</ns3:hr>
            <ns3:cad>79</ns3:cad>
          </ns3:TrackPointExtension>
        </extensions>
      </trkpt>
      <trkpt lat="31.16514402441680431365966796875" lon="121.45736114121973514556884765625">
        <ele>4.19999980926513671875</ele>
        <time>2026-05-11T00:18:07.000Z</time>
        <extensions>
          <ns3:TrackPointExtension>
            <ns3:hr>129</ns3:hr>
            <ns3:cad>79</ns3:cad>
          </ns3:TrackPointExtension>
        </extensions>
      </trkpt>
      <trkpt lat="31.16514377295970916748046875" lon="121.45738477818667888641357421875">
        <ele>4.400000095367431640625</ele>
        <time>2026-05-11T00:18:08.000Z</time>
        <extensions>
          <ns3:TrackPointExtension>
            <ns3:hr>129</ns3:hr>
            <ns3:cad>79</ns3:cad>
          </ns3:TrackPointExtension>
        </extensions>
      </trkpt>
      <trkpt lat="31.16514301858842372894287109375" lon="121.45741629414260387420654296875">
        <ele>4.400000095367431640625</ele>
        <time>2026-05-11T00:18:09.000Z</time>
        <extensions>
          <ns3:TrackPointExtension>
            <ns3:hr>129</ns3:hr>
            <ns3:cad>80</ns3:cad>
          </ns3:TrackPointExtension>
        </extensions>
      </trkpt>
      <trkpt lat="31.165136396884918212890625" lon="121.45744412206113338470458984375">
        <ele>4.400000095367431640625</ele>
        <time>2026-05-11T00:18:10.000Z</time>
        <extensions>
          <ns3:TrackPointExtension>
            <ns3:hr>129</ns3:hr>
            <ns3:cad>80</ns3:cad>
          </ns3:TrackPointExtension>
        </extensions>
      </trkpt>
      <trkpt lat="31.16513513959944248199462890625" lon="121.4574695192277431488037109375">
        <ele>4.599999904632568359375</ele>
        <time>2026-05-11T00:18:11.000Z</time>
        <extensions>
          <ns3:TrackPointExtension>
            <ns3:hr>130</ns3:hr>
            <ns3:cad>80</ns3:cad>
          </ns3:TrackPointExtension>
        </extensions>
      </trkpt>
      <trkpt lat="31.16513715125620365142822265625" lon="121.45749785006046295166015625">
        <ele>4.599999904632568359375</ele>
        <time>2026-05-11T00:18:12.000Z</time>
        <extensions>
          <ns3:TrackPointExtension>
            <ns3:hr>130</ns3:hr>
            <ns3:cad>78</ns3:cad>
          </ns3:TrackPointExtension>
        </extensions>
      </trkpt>
      <trkpt lat="31.165138743817806243896484375" lon="121.45752274431288242340087890625">
        <ele>4.599999904632568359375</ele>
        <time>2026-05-11T00:18:13.000Z</time>
        <extensions>
          <ns3:TrackPointExtension>
            <ns3:hr>130</ns3:hr>
            <ns3:cad>77</ns3:cad>
          </ns3:TrackPointExtension>
        </extensions>
      </trkpt>
      <trkpt lat="31.1651456169784069061279296875" lon="121.45754839293658733367919921875">
        <ele>4.599999904632568359375</ele>
        <time>2026-05-11T00:18:14.000Z</time>
        <extensions>
          <ns3:TrackPointExtension>
            <ns3:hr>130</ns3:hr>
            <ns3:cad>77</ns3:cad>
          </ns3:TrackPointExtension>
        </extensions>
      </trkpt>
      <trkpt lat="31.16515223868191242218017578125" lon="121.4575741253793239593505859375">
        <ele>4.80000019073486328125</ele>
        <time>2026-05-11T00:18:15.000Z</time>
        <extensions>
          <ns3:TrackPointExtension>
            <ns3:hr>130</ns3:hr>
            <ns3:cad>78</ns3:cad>
          </ns3:TrackPointExtension>
        </extensions>
      </trkpt>
      <trkpt lat="31.16516011767089366912841796875" lon="121.45759918726980686187744140625">
        <ele>4.80000019073486328125</ele>
        <time>2026-05-11T00:18:16.000Z</time>
        <extensions>
          <ns3:TrackPointExtension>
            <ns3:hr>130</ns3:hr>
            <ns3:cad>80</ns3:cad>
          </ns3:TrackPointExtension>
        </extensions>
      </trkpt>
      <trkpt lat="31.165168248116970062255859375" lon="121.45762450061738491058349609375">
        <ele>4.80000019073486328125</ele>
        <time>2026-05-11T00:18:17.000Z</time>
        <extensions>
          <ns3:TrackPointExtension>
            <ns3:hr>130</ns3:hr>
            <ns3:cad>80</ns3:cad>
          </ns3:TrackPointExtension>
        </extensions>
      </trkpt>
      <trkpt lat="31.1651751212775707244873046875" lon="121.45765199325978755950927734375">
        <ele>4.80000019073486328125</ele>
        <time>2026-05-11T00:18:18.000Z</time>
        <extensions>
          <ns3:TrackPointExtension>
            <ns3:hr>131</ns3:hr>
            <ns3:cad>80</ns3:cad>
          </ns3:TrackPointExtension>
        </extensions>
      </trkpt>
      <trkpt lat="31.16518425755202770233154296875" lon="121.4576755464076995849609375">
        <ele>4.80000019073486328125</ele>
        <time>2026-05-11T00:18:19.000Z</time>
        <extensions>
          <ns3:TrackPointExtension>
            <ns3:hr>131</ns3:hr>
            <ns3:cad>80</ns3:cad>
          </ns3:TrackPointExtension>
        </extensions>
      </trkpt>
      <trkpt lat="31.1651955731213092803955078125" lon="121.45770044066011905670166015625">
        <ele>4.80000019073486328125</ele>
        <time>2026-05-11T00:18:20.000Z</time>
        <extensions>
          <ns3:TrackPointExtension>
            <ns3:hr>131</ns3:hr>
            <ns3:cad>80</ns3:cad>
          </ns3:TrackPointExtension>
        </extensions>
      </trkpt>
      <trkpt lat="31.165207140147686004638671875" lon="121.45772592164576053619384765625">
        <ele>4.80000019073486328125</ele>
        <time>2026-05-11T00:18:21.000Z</time>
        <extensions>
          <ns3:TrackPointExtension>
            <ns3:hr>131</ns3:hr>
            <ns3:cad>81</ns3:cad>
          </ns3:TrackPointExtension>
        </extensions>
      </trkpt>
      <trkpt lat="31.16521753370761871337890625" lon="121.45775106735527515411376953125">
        <ele>4.80000019073486328125</ele>
        <time>2026-05-11T00:18:22.000Z</time>
        <extensions>
          <ns3:TrackPointExtension>
            <ns3:hr>131</ns3:hr>
            <ns3:cad>81</ns3:cad>
          </ns3:TrackPointExtension>
        </extensions>
      </trkpt>
      <trkpt lat="31.165230274200439453125" lon="121.45777470432221889495849609375">
        <ele>4.80000019073486328125</ele>
        <time>2026-05-11T00:18:23.000Z</time>
        <extensions>
          <ns3:TrackPointExtension>
            <ns3:hr>131</ns3:hr>
            <ns3:cad>82</ns3:cad>
          </ns3:TrackPointExtension>
        </extensions>
      </trkpt>
      <trkpt lat="31.16524376906454563140869140625" lon="121.457797922194004058837890625">
        <ele>4.80000019073486328125</ele>
        <time>2026-05-11T00:18:24.000Z</time>
        <extensions>
          <ns3:TrackPointExtension>
            <ns3:hr>131</ns3:hr>
            <ns3:cad>82</ns3:cad>
          </ns3:TrackPointExtension>
        </extensions>
      </trkpt>
      <trkpt lat="31.165258772671222686767578125" lon="121.4578205533325672149658203125">
        <ele>4.80000019073486328125</ele>
        <time>2026-05-11T00:18:25.000Z</time>
        <extensions>
          <ns3:TrackPointExtension>
            <ns3:hr>131</ns3:hr>
            <ns3:cad>82</ns3:cad>
          </ns3:TrackPointExtension>
        </extensions>
      </trkpt>
      <trkpt lat="31.16527209989726543426513671875" lon="121.45784360356628894805908203125">
        <ele>4.80000019073486328125</ele>
        <time>2026-05-11T00:18:26.000Z</time>
        <extensions>
          <ns3:TrackPointExtension>
            <ns3:hr>131</ns3:hr>
            <ns3:cad>82</ns3:cad>
          </ns3:TrackPointExtension>
        </extensions>
      </trkpt>
      <trkpt lat="31.1652857623994350433349609375" lon="121.45786757580935955047607421875">
        <ele>4.80000019073486328125</ele>
        <time>2026-05-11T00:18:27.000Z</time>
        <extensions>
          <ns3:TrackPointExtension>
            <ns3:hr>132</ns3:hr>
            <ns3:cad>82</ns3:cad>
          </ns3:TrackPointExtension>
        </extensions>
      </trkpt>
      <trkpt lat="31.16530160419642925262451171875" lon="121.4578983373939990997314453125">
        <ele>4.80000019073486328125</ele>
        <time>2026-05-11T00:18:28.000Z</time>
        <extensions>
          <ns3:TrackPointExtension>
            <ns3:hr>132</ns3:hr>
            <ns3:cad>82</ns3:cad>
          </ns3:TrackPointExtension>
        </extensions>
      </trkpt>
      <trkpt lat="31.1653166078031063079833984375" lon="121.45792105235159397125244140625">
        <ele>5</ele>
        <time>2026-05-11T00:18:29.000Z</time>
        <extensions>
          <ns3:TrackPointExtension>
            <ns3:hr>132</ns3:hr>
            <ns3:cad>81</ns3:cad>
          </ns3:TrackPointExtension>
        </extensions>
      </trkpt>
      <trkpt lat="31.165328510105609893798828125" lon="121.45794301293790340423583984375">
        <ele>5</ele>
        <time>2026-05-11T00:18:30.000Z</time>
        <extensions>
          <ns3:TrackPointExtension>
            <ns3:hr>132</ns3:hr>
            <ns3:cad>81</ns3:cad>
          </ns3:TrackPointExtension>
        </extensions>
      </trkpt>
      <trkpt lat="31.16533814929425716400146484375" lon="121.457965560257434844970703125">
        <ele>5</ele>
        <time>2026-05-11T00:18:31.000Z</time>
        <extensions>
          <ns3:TrackPointExtension>
            <ns3:hr>132</ns3:hr>
            <ns3:cad>81</ns3:cad>
          </ns3:TrackPointExtension>
        </extensions>
      </trkpt>
      <trkpt lat="31.16535030305385589599609375" lon="121.4579888619482517242431640625">
        <ele>5</ele>
        <time>2026-05-11T00:18:32.000Z</time>
        <extensions>
          <ns3:TrackPointExtension>
            <ns3:hr>133</ns3:hr>
            <ns3:cad>81</ns3:cad>
          </ns3:TrackPointExtension>
        </extensions>
      </trkpt>
      <trkpt lat="31.16536279208958148956298828125" lon="121.45801275037229061126708984375">
        <ele>5</ele>
        <time>2026-05-11T00:18:33.000Z</time>
        <extensions>
          <ns3:TrackPointExtension>
            <ns3:hr>133</ns3:hr>
            <ns3:cad>81</ns3:cad>
          </ns3:TrackPointExtension>
        </extensions>
      </trkpt>
      <trkpt lat="31.16537251509726047515869140625" lon="121.458039321005344390869140625">
        <ele>5</ele>
        <time>2026-05-11T00:18:34.000Z</time>
        <extensions>
          <ns3:TrackPointExtension>
            <ns3:hr>133</ns3:hr>
            <ns3:cad>81</ns3:cad>
          </ns3:TrackPointExtension>
        </extensions>
      </trkpt>
      <trkpt lat="31.16538324393332004547119140625" lon="121.4580669812858104705810546875">
        <ele>4.80000019073486328125</ele>
        <time>2026-05-11T00:18:35.000Z</time>
        <extensions>
          <ns3:TrackPointExtension>
            <ns3:hr>134</ns3:hr>
            <ns3:cad>81</ns3:cad>
          </ns3:TrackPointExtension>
        </extensions>
      </trkpt>
      <trkpt lat="31.16539665497839450836181640625" lon="121.45809489302337169647216796875">
        <ele>4.80000019073486328125</ele>
        <time>2026-05-11T00:18:36.000Z</time>
        <extensions>
          <ns3:TrackPointExtension>
            <ns3:hr>134</ns3:hr>
            <ns3:cad>81</ns3:cad>
          </ns3:TrackPointExtension>
        </extensions>
      </trkpt>
      <trkpt lat="31.16540688090026378631591796875" lon="121.45812104456126689910888671875">
        <ele>4.80000019073486328125</ele>
        <time>2026-05-11T00:18:37.000Z</time>
        <extensions>
          <ns3:TrackPointExtension>
            <ns3:hr>134</ns3:hr>
            <ns3:cad>82</ns3:cad>
          </ns3:TrackPointExtension>
        </extensions>
      </trkpt>
      <trkpt lat="31.1654114909470081329345703125" lon="121.45814820192754268646240234375">
        <ele>4.80000019073486328125</ele>
        <time>2026-05-11T00:18:38.000Z</time>
        <extensions>
          <ns3:TrackPointExtension>
            <ns3:hr>134</ns3:hr>
            <ns3:cad>82</ns3:cad>
          </ns3:TrackPointExtension>
        </extensions>
      </trkpt>
      <trkpt lat="31.165419705212116241455078125" lon="121.45817653276026248931884765625">
        <ele>4.80000019073486328125</ele>
        <time>2026-05-11T00:18:39.000Z</time>
        <extensions>
          <ns3:TrackPointExtension>
            <ns3:hr>134</ns3:hr>
            <ns3:cad>82</ns3:cad>
          </ns3:TrackPointExtension>
        </extensions>
      </trkpt>
      <trkpt lat="31.16543269716203212738037109375" lon="121.45820100791752338409423828125">
        <ele>4.80000019073486328125</ele>
        <time>2026-05-11T00:18:40.000Z</time>
        <extensions>
          <ns3:TrackPointExtension>
            <ns3:hr>135</ns3:hr>
            <ns3:cad>82</ns3:cad>
          </ns3:TrackPointExtension>
        </extensions>
      </trkpt>
      <trkpt lat="31.16544149816036224365234375" lon="121.45822699181735515594482421875">
        <ele>4.80000019073486328125</ele>
        <time>2026-05-11T00:18:41.000Z</time>
        <extensions>
          <ns3:TrackPointExtension>
            <ns3:hr>134</ns3:hr>
            <ns3:cad>82</ns3:cad>
          </ns3:TrackPointExtension>
        </extensions>
      </trkpt>
      <trkpt lat="31.16545281372964382171630859375" lon="121.4582554064691066741943359375">
        <ele>4.80000019073486328125</ele>
        <time>2026-05-11T00:18:42.000Z</time>
        <extensions>
          <ns3:TrackPointExtension>
            <ns3:hr>134</ns3:hr>
            <ns3:cad>82</ns3:cad>
          </ns3:TrackPointExtension>
        </extensions>
      </trkpt>
      <trkpt lat="31.1654614470899105072021484375" lon="121.4582785405218601226806640625">
        <ele>4.80000019073486328125</ele>
        <time>2026-05-11T00:18:43.000Z</time>
        <extensions>
          <ns3:TrackPointExtension>
            <ns3:hr>135</ns3:hr>
            <ns3:cad>83</ns3:cad>
          </ns3:TrackPointExtension>
        </extensions>
      </trkpt>
      <trkpt lat="31.1654725112020969390869140625" lon="121.45830142311751842498779296875">
        <ele>4.599999904632568359375</ele>
        <time>2026-05-11T00:18:44.000Z</time>
        <extensions>
          <ns3:TrackPointExtension>
            <ns3:hr>135</ns3:hr>
            <ns3:cad>83</ns3:cad>
          </ns3:TrackPointExtension>
        </extensions>
      </trkpt>
      <trkpt lat="31.16548298858106136322021484375" lon="121.4583291672170162200927734375">
        <ele>4.599999904632568359375</ele>
        <time>2026-05-11T00:18:45.000Z</time>
        <extensions>
          <ns3:TrackPointExtension>
            <ns3:hr>135</ns3:hr>
            <ns3:cad>83</ns3:cad>
          </ns3:TrackPointExtension>
        </extensions>
      </trkpt>
      <trkpt lat="31.1654946394264698028564453125" lon="121.45835573785006999969482421875">
        <ele>4.599999904632568359375</ele>
        <time>2026-05-11T00:18:46.000Z</time>
        <extensions>
          <ns3:TrackPointExtension>
            <ns3:hr>135</ns3:hr>
            <ns3:cad>83</ns3:cad>
          </ns3:TrackPointExtension>
        </extensions>
      </trkpt>
      <trkpt lat="31.16550276987254619598388671875" lon="121.458381302654743194580078125">
        <ele>4.599999904632568359375</ele>
        <time>2026-05-11T00:18:47.000Z</time>
        <extensions>
          <ns3:TrackPointExtension>
            <ns3:hr>135</ns3:hr>
            <ns3:cad>83</ns3:cad>
          </ns3:TrackPointExtension>
        </extensions>
      </trkpt>
      <trkpt lat="31.1655130796134471893310546875" lon="121.45840636454522609710693359375">
        <ele>4.80000019073486328125</ele>
        <time>2026-05-11T00:18:48.000Z</time>
        <extensions>
          <ns3:TrackPointExtension>
            <ns3:hr>134</ns3:hr>
            <ns3:cad>83</ns3:cad>
          </ns3:TrackPointExtension>
        </extensions>
      </trkpt>
      <trkpt lat="31.165526993572711944580078125" lon="121.45843352191150188446044921875">
        <ele>4.80000019073486328125</ele>
        <time>2026-05-11T00:18:49.000Z</time>
        <extensions>
          <ns3:TrackPointExtension>
            <ns3:hr>135</ns3:hr>
            <ns3:cad>83</ns3:cad>
          </ns3:TrackPointExtension>
        </extensions>
      </trkpt>
      <trkpt lat="31.1655372194945812225341796875" lon="121.4584616012871265411376953125">
        <ele>4.80000019073486328125</ele>
        <time>2026-05-11T00:18:50.000Z</time>
        <extensions>
          <ns3:TrackPointExtension>
            <ns3:hr>135</ns3:hr>
            <ns3:cad>82</ns3:cad>
          </ns3:TrackPointExtension>
        </extensions>
      </trkpt>
      <trkpt lat="31.16555389948189258575439453125" lon="121.4584803767502307891845703125">
        <ele>4.80000019073486328125</ele>
        <time>2026-05-11T00:18:51.000Z</time>
        <extensions>
          <ns3:TrackPointExtension>
            <ns3:hr>135</ns3:hr>
            <ns3:cad>82</ns3:cad>
          </ns3:TrackPointExtension>
        </extensions>
      </trkpt>
      <trkpt lat="31.16557971574366092681884765625" lon="121.45849470980465412139892578125">
        <ele>4.599999904632568359375</ele>
        <time>2026-05-11T00:18:52.000Z</time>
        <extensions>
          <ns3:TrackPointExtension>
            <ns3:hr>135</ns3:hr>
            <ns3:cad>82</ns3:cad>
          </ns3:TrackPointExtension>
        </extensions>
      </trkpt>
      <trkpt lat="31.16560653783380985260009765625" lon="121.458502672612667083740234375">
        <ele>4.599999904632568359375</ele>
        <time>2026-05-11T00:18:53.000Z</time>
        <extensions>
          <ns3:TrackPointExtension>
            <ns3:hr>135</ns3:hr>
            <ns3:cad>82</ns3:cad>
          </ns3:TrackPointExtension>
        </extensions>
      </trkpt>
      <trkpt lat="31.16562849842011928558349609375" lon="121.4585008285939693450927734375">
        <ele>4.599999904632568359375</ele>
        <time>2026-05-11T00:18:54.000Z</time>
        <extensions>
          <ns3:TrackPointExtension>
            <ns3:hr>135</ns3:hr>
            <ns3:cad>82</ns3:cad>
          </ns3:TrackPointExtension>
        </extensions>
      </trkpt>
      <trkpt lat="31.165654398500919342041015625" lon="121.458490602672100067138671875">
        <ele>4.599999904632568359375</ele>
        <time>2026-05-11T00:18:55.000Z</time>
        <extensions>
          <ns3:TrackPointExtension>
            <ns3:hr>135</ns3:hr>
            <ns3:cad>82</ns3:cad>
          </ns3:TrackPointExtension>
        </extensions>
      </trkpt>
      <trkpt lat="31.16567560471594333648681640625" lon="121.458481885492801666259765625">
        <ele>4.599999904632568359375</ele>
        <time>2026-05-11T00:18:56.000Z</time>
        <extensions>
          <ns3:TrackPointExtension>
            <ns3:hr>135</ns3:hr>
            <ns3:cad>82</ns3:cad>
          </ns3:TrackPointExtension>
        </extensions>
      </trkpt>
      <trkpt lat="31.1656974814832210540771484375" lon="121.45847124047577381134033203125">
        <ele>4.599999904632568359375</ele>
        <time>2026-05-11T00:18:57.000Z</time>
        <extensions>
          <ns3:TrackPointExtension>
            <ns3:hr>135</ns3:hr>
            <ns3:cad>82</ns3:cad>
          </ns3:TrackPointExtension>
        </extensions>
      </trkpt>
      <trkpt lat="31.1657182686030864715576171875" lon="121.458449698984622955322265625">
        <ele>4.599999904632568359375</ele>
        <time>2026-05-11T00:18:58.000Z</time>
        <extensions>
          <ns3:TrackPointExtension>
            <ns3:hr>135</ns3:hr>
            <ns3:cad>82</ns3:cad>
          </ns3:TrackPointExtension>
        </extensions>
      </trkpt>
      <trkpt lat="31.165737211704254150390625" lon="121.45843536593019962310791015625">
        <ele>4.400000095367431640625</ele>
        <time>2026-05-11T00:18:59.000Z</time>
        <extensions>
          <ns3:TrackPointExtension>
            <ns3:hr>135</ns3:hr>
            <ns3:cad>81</ns3:cad>
          </ns3:TrackPointExtension>
        </extensions>
      </trkpt>
      <trkpt lat="31.1657615192234516143798828125" lon="121.45842061378061771392822265625">
        <ele>4.400000095367431640625</ele>
        <time>2026-05-11T00:19:00.000Z</time>
        <extensions>
          <ns3:TrackPointExtension>
            <ns3:hr>135</ns3:hr>
            <ns3:cad>81</ns3:cad>
          </ns3:TrackPointExtension>
        </extensions>
      </trkpt>
      <trkpt lat="31.165788173675537109375" lon="121.4584056101739406585693359375">
        <ele>4.400000095367431640625</ele>
        <time>2026-05-11T00:19:01.000Z</time>
        <extensions>
          <ns3:TrackPointExtension>
            <ns3:hr>135</ns3:hr>
            <ns3:cad>82</ns3:cad>
          </ns3:TrackPointExtension>
        </extensions>
      </trkpt>
      <trkpt lat="31.1658082902431488037109375" lon="121.45839077420532703399658203125">
        <ele>4.400000095367431640625</ele>
        <time>2026-05-11T00:19:02.000Z</time>
        <extensions>
          <ns3:TrackPointExtension>
            <ns3:hr>135</ns3:hr>
            <ns3:cad>82</ns3:cad>
          </ns3:TrackPointExtension>
        </extensions>
      </trkpt>
      <trkpt lat="31.16583167575299739837646484375" lon="121.4583754353225231170654296875">
        <ele>4.400000095367431640625</ele>
        <time>2026-05-11T00:19:03.000Z</time>
        <extensions>
          <ns3:TrackPointExtension>
            <ns3:hr>135</ns3:hr>
            <ns3:cad>82</ns3:cad>
          </ns3:TrackPointExtension>
        </extensions>
      </trkpt>
      <trkpt lat="31.16585330106317996978759765625" lon="121.458361186087131500244140625">
        <ele>4.400000095367431640625</ele>
        <time>2026-05-11T00:19:04.000Z</time>
        <extensions>
          <ns3:TrackPointExtension>
            <ns3:hr>135</ns3:hr>
            <ns3:cad>82</ns3:cad>
          </ns3:TrackPointExtension>
        </extensions>
      </trkpt>
      <trkpt lat="31.16587358526885509490966796875" lon="121.4583469368517398834228515625">
        <ele>4.400000095367431640625</ele>
        <time>2026-05-11T00:19:05.000Z</time>
        <extensions>
          <ns3:TrackPointExtension>
            <ns3:hr>135</ns3:hr>
            <ns3:cad>82</ns3:cad>
          </ns3:TrackPointExtension>
        </extensions>
      </trkpt>
      <trkpt lat="31.16589772514998912811279296875" lon="121.45832690410315990447998046875">
        <ele>4.19999980926513671875</ele>
        <time>2026-05-11T00:19:06.000Z</time>
        <extensions>
          <ns3:TrackPointExtension>
            <ns3:hr>135</ns3:hr>
            <ns3:cad>83</ns3:cad>
          </ns3:TrackPointExtension>
        </extensions>
      </trkpt>
      <trkpt lat="31.1659177578985691070556640625" lon="121.45830930210649967193603515625">
        <ele>4.19999980926513671875</ele>
        <time>2026-05-11T00:19:07.000Z</time>
        <extensions>
          <ns3:TrackPointExtension>
            <ns3:hr>135</ns3:hr>
            <ns3:cad>83</ns3:cad>
          </ns3:TrackPointExtension>
        </extensions>
      </trkpt>
      <trkpt lat="31.1659397184848785400390625" lon="121.45829471759498119354248046875">
        <ele>4.19999980926513671875</ele>
        <time>2026-05-11T00:19:08.000Z</time>
        <extensions>
          <ns3:TrackPointExtension>
            <ns3:hr>135</ns3:hr>
            <ns3:cad>82</ns3:cad>
          </ns3:TrackPointExtension>
        </extensions>
      </trkpt>
      <trkpt lat="31.16596142761409282684326171875" lon="121.45828197710216045379638671875">
        <ele>4.19999980926513671875</ele>
        <time>2026-05-11T00:19:09.000Z</time>
        <extensions>
          <ns3:TrackPointExtension>
            <ns3:hr>135</ns3:hr>
            <ns3:cad>82</ns3:cad>
          </ns3:TrackPointExtension>
        </extensions>
      </trkpt>
      <trkpt lat="31.165980286896228790283203125" lon="121.4582681469619274139404296875">
        <ele>4.19999980926513671875</ele>
        <time>2026-05-11T00:19:10.000Z</time>
        <extensions>
          <ns3:TrackPointExtension>
            <ns3:hr>135</ns3:hr>
            <ns3:cad>82</ns3:cad>
          </ns3:TrackPointExtension>
        </extensions>
      </trkpt>
      <trkpt lat="31.16600015200674533843994140625" lon="121.45825549028813838958740234375">
        <ele>4.19999980926513671875</ele>
        <time>2026-05-11T00:19:11.000Z</time>
        <extensions>
          <ns3:TrackPointExtension>
            <ns3:hr>135</ns3:hr>
            <ns3:cad>82</ns3:cad>
          </ns3:TrackPointExtension>
        </extensions>
      </trkpt>
      <trkpt lat="31.1660186760127544403076171875" lon="121.4582455158233642578125">
        <ele>4.19999980926513671875</ele>
        <time>2026-05-11T00:19:12.000Z</time>
        <extensions>
          <ns3:TrackPointExtension>
            <ns3:hr>135</ns3:hr>
            <ns3:cad>83</ns3:cad>
          </ns3:TrackPointExtension>
        </extensions>
      </trkpt>
      <trkpt lat="31.16603602655231952667236328125" lon="121.4582275785505771636962890625">
        <ele>4.19999980926513671875</ele>
        <time>2026-05-11T00:19:13.000Z</time>
        <extensions>
          <ns3:TrackPointExtension>
            <ns3:hr>135</ns3:hr>
            <ns3:cad>83</ns3:cad>
          </ns3:TrackPointExtension>
        </extensions>
      </trkpt>
      <trkpt lat="31.1660572327673435211181640625" lon="121.45821643061935901641845703125">
        <ele>4.19999980926513671875</ele>
        <time>2026-05-11T00:19:14.000Z</time>
        <extensions>
          <ns3:TrackPointExtension>
            <ns3:hr>135</ns3:hr>
            <ns3:cad>82</ns3:cad>
          </ns3:TrackPointExtension>
        </extensions>
      </trkpt>
      <trkpt lat="31.1660778522491455078125" lon="121.45820486359298229217529296875">
        <ele>4.19999980926513671875</ele>
        <time>2026-05-11T00:19:15.000Z</time>
        <extensions>
          <ns3:TrackPointExtension>
            <ns3:hr>135</ns3:hr>
            <ns3:cad>82</ns3:cad>
          </ns3:TrackPointExtension>
        </extensions>
      </trkpt>
      <trkpt lat="31.1660941131412982940673828125" lon="121.4581913687288761138916015625">
        <ele>4</ele>
        <time>2026-05-11T00:19:16.000Z</time>
        <extensions>
          <ns3:TrackPointExtension>
            <ns3:hr>135</ns3:hr>
            <ns3:cad>82</ns3:cad>
          </ns3:TrackPointExtension>
        </extensions>
      </trkpt>
      <trkpt lat="31.16611481644213199615478515625" lon="121.458178795874118804931640625">
        <ele>4.19999980926513671875</ele>
        <time>2026-05-11T00:19:17.000Z</time>
        <extensions>
          <ns3:TrackPointExtension>
            <ns3:hr>135</ns3:hr>
            <ns3:cad>82</ns3:cad>
          </ns3:TrackPointExtension>
        </extensions>
      </trkpt>
      <trkpt lat="31.166137196123600006103515625" lon="121.458164043724536895751953125">
        <ele>4.19999980926513671875</ele>
        <time>2026-05-11T00:19:18.000Z</time>
        <extensions>
          <ns3:TrackPointExtension>
            <ns3:hr>135</ns3:hr>
            <ns3:cad>82</ns3:cad>
          </ns3:TrackPointExtension>
        </extensions>
      </trkpt>
      <trkpt lat="31.16615974344313144683837890625" lon="121.45815088413655757904052734375">
        <ele>4.400000095367431640625</ele>
        <time>2026-05-11T00:19:19.000Z</time>
        <extensions>
          <ns3:TrackPointExtension>
            <ns3:hr>135</ns3:hr>
            <ns3:cad>82</ns3:cad>
          </ns3:TrackPointExtension>
        </extensions>
      </trkpt>
      <trkpt lat="31.16618438623845577239990234375" lon="121.4581383951008319854736328125">
        <ele>4.400000095367431640625</ele>
        <time>2026-05-11T00:19:20.000Z</time>
        <extensions>
          <ns3:TrackPointExtension>
            <ns3:hr>135</ns3:hr>
            <ns3:cad>82</ns3:cad>
          </ns3:TrackPointExtension>
        </extensions>
      </trkpt>
      <trkpt lat="31.16621238179504871368408203125" lon="121.45812414586544036865234375">
        <ele>4.400000095367431640625</ele>
        <time>2026-05-11T00:19:21.000Z</time>
        <extensions>
          <ns3:TrackPointExtension>
            <ns3:hr>135</ns3:hr>
            <ns3:cad>82</ns3:cad>
          </ns3:TrackPointExtension>
        </extensions>
      </trkpt>
      <trkpt lat="31.16623870097100734710693359375" lon="121.45811568014323711395263671875">
        <ele>4.400000095367431640625</ele>
        <time>2026-05-11T00:19:22.000Z</time>
        <extensions>
          <ns3:TrackPointExtension>
            <ns3:hr>135</ns3:hr>
            <ns3:cad>82</ns3:cad>
          </ns3:TrackPointExtension>
        </extensions>
      </trkpt>
      <trkpt lat="31.166265271604061126708984375" lon="121.45810478366911411285400390625">
        <ele>4.400000095367431640625</ele>
        <time>2026-05-11T00:19:23.000Z</time>
        <extensions>
          <ns3:TrackPointExtension>
            <ns3:hr>135</ns3:hr>
            <ns3:cad>82</ns3:cad>
          </ns3:TrackPointExtension>
        </extensions>
      </trkpt>
      <trkpt lat="31.16629167459905147552490234375" lon="121.45809371955692768096923828125">
        <ele>4.19999980926513671875</ele>
        <time>2026-05-11T00:19:24.000Z</time>
        <extensions>
          <ns3:TrackPointExtension>
            <ns3:hr>135</ns3:hr>
            <ns3:cad>82</ns3:cad>
          </ns3:TrackPointExtension>
        </extensions>
      </trkpt>
      <trkpt lat="31.1663167364895343780517578125" lon="121.45808718167245388031005859375">
        <ele>4.19999980926513671875</ele>
        <time>2026-05-11T00:19:25.000Z</time>
        <extensions>
          <ns3:TrackPointExtension>
            <ns3:hr>135</ns3:hr>
            <ns3:cad>82</ns3:cad>
          </ns3:TrackPointExtension>
        </extensions>
      </trkpt>
      <trkpt lat="31.16634196601808071136474609375" lon="121.45807997323572635650634765625">
        <ele>4.19999980926513671875</ele>
        <time>2026-05-11T00:19:26.000Z</time>
        <extensions>
          <ns3:TrackPointExtension>
            <ns3:hr>136</ns3:hr>
            <ns3:cad>82</ns3:cad>
          </ns3:TrackPointExtension>
        </extensions>
      </trkpt>
      <trkpt lat="31.16636660881340503692626953125" lon="121.458073519170284271240234375">
        <ele>4.400000095367431640625</ele>
        <time>2026-05-11T00:19:27.000Z</time>
        <extensions>
          <ns3:TrackPointExtension>
            <ns3:hr>136</ns3:hr>
            <ns3:cad>83</ns3:cad>
          </ns3:TrackPointExtension>
        </extensions>
      </trkpt>
      <trkpt lat="31.16638806648552417755126953125" lon="121.45806890912353992462158203125">
        <ele>4.400000095367431640625</ele>
        <time>2026-05-11T00:19:28.000Z</time>
        <extensions>
          <ns3:TrackPointExtension>
            <ns3:hr>136</ns3:hr>
            <ns3:cad>83</ns3:cad>
          </ns3:TrackPointExtension>
        </extensions>
      </trkpt>
      <trkpt lat="31.166411451995372772216796875" lon="121.45806379616260528564453125">
        <ele>4.400000095367431640625</ele>
        <time>2026-05-11T00:19:29.000Z</time>
        <extensions>
          <ns3:TrackPointExtension>
            <ns3:hr>136</ns3:hr>
            <ns3:cad>83</ns3:cad>
          </ns3:TrackPointExtension>
        </extensions>
      </trkpt>
      <trkpt lat="31.1664374358952045440673828125" lon="121.4580572582781314849853515625">
        <ele>4.19999980926513671875</ele>
        <time>2026-05-11T00:19:30.000Z</time>
        <extensions>
          <ns3:TrackPointExtension>
            <ns3:hr>136</ns3:hr>
            <ns3:cad>83</ns3:cad>
          </ns3:TrackPointExtension>
        </extensions>
      </trkpt>
      <trkpt lat="31.16646015085279941558837890625" lon="121.4580508880317211151123046875">
        <ele>4.19999980926513671875</ele>
        <time>2026-05-11T00:19:31.000Z</time>
        <extensions>
          <ns3:TrackPointExtension>
            <ns3:hr>136</ns3:hr>
            <ns3:cad>83</ns3:cad>
          </ns3:TrackPointExtension>
        </extensions>
      </trkpt>
      <trkpt lat="31.16647875867784023284912109375" lon="121.45804694853723049163818359375">
        <ele>4.19999980926513671875</ele>
        <time>2026-05-11T00:19:32.000Z</time>
        <extensions>
          <ns3:TrackPointExtension>
            <ns3:hr>137</ns3:hr>
            <ns3:cad>83</ns3:cad>
          </ns3:TrackPointExtension>
        </extensions>
      </trkpt>
      <trkpt lat="31.16650507785379886627197265625" lon="121.45803890191018581390380859375">
        <ele>4.400000095367431640625</ele>
        <time>2026-05-11T00:19:33.000Z</time>
        <extensions>
          <ns3:TrackPointExtension>
            <ns3:hr>136</ns3:hr>
            <ns3:cad>83</ns3:cad>
          </ns3:TrackPointExtension>
        </extensions>
      </trkpt>
      <trkpt lat="31.16652837954461574554443359375" lon="121.45802750252187252044677734375">
        <ele>4.400000095367431640625</ele>
        <time>2026-05-11T00:19:34.000Z</time>
        <extensions>
          <ns3:TrackPointExtension>
            <ns3:hr>136</ns3:hr>
            <ns3:cad>83</ns3:cad>
          </ns3:TrackPointExtension>
        </extensions>
      </trkpt>
      <trkpt lat="31.1665437184274196624755859375" lon="121.45801149308681488037109375">
        <ele>4.400000095367431640625</ele>
        <time>2026-05-11T00:19:35.000Z</time>
        <extensions>
          <ns3:TrackPointExtension>
            <ns3:hr>136</ns3:hr>
            <ns3:cad>83</ns3:cad>
          </ns3:TrackPointExtension>
        </extensions>
      </trkpt>
      <trkpt lat="31.166556291282176971435546875" lon="121.45799179561436176300048828125">
        <ele>4.19999980926513671875</ele>
        <time>2026-05-11T00:19:36.000Z</time>
        <extensions>
          <ns3:TrackPointExtension>
            <ns3:hr>137</ns3:hr>
            <ns3:cad>83</ns3:cad>
          </ns3:TrackPointExtension>
        </extensions>
      </trkpt>
      <trkpt lat="31.16656643338501453399658203125" lon="121.45797251723706722259521484375">
        <ele>4.19999980926513671875</ele>
        <time>2026-05-11T00:19:37.000Z</time>
        <extensions>
          <ns3:TrackPointExtension>
            <ns3:hr>136</ns3:hr>
            <ns3:cad>82</ns3:cad>
          </ns3:TrackPointExtension>
        </extensions>
      </trkpt>
      <trkpt lat="31.16657070815563201904296875" lon="121.457955837249755859375">
        <ele>4.19999980926513671875</ele>
        <time>2026-05-11T00:19:38.000Z</time>
        <extensions>
          <ns3:TrackPointExtension>
            <ns3:hr>136</ns3:hr>
            <ns3:cad>82</ns3:cad>
          </ns3:TrackPointExtension>
        </extensions>
      </trkpt>
      <trkpt lat="31.16656995378434658050537109375" lon="121.45793597213923931121826171875">
        <ele>4.19999980926513671875</ele>
        <time>2026-05-11T00:19:39.000Z</time>
        <extensions>
          <ns3:TrackPointExtension>
            <ns3:hr>136</ns3:hr>
            <ns3:cad>82</ns3:cad>
          </ns3:TrackPointExtension>
        </extensions>
      </trkpt>
      <trkpt lat="31.166565008461475372314453125" lon="121.457919962704181671142578125">
        <ele>4.19999980926513671875</ele>
        <time>2026-05-11T00:19:40.000Z</time>
        <extensions>
          <ns3:TrackPointExtension>
            <ns3:hr>137</ns3:hr>
            <ns3:cad>82</ns3:cad>
          </ns3:TrackPointExtension>
        </extensions>
      </trkpt>
      <trkpt lat="31.16656006313860416412353515625" lon="121.4579033665359020233154296875">
        <ele>4.19999980926513671875</ele>
        <time>2026-05-11T00:19:41.000Z</time>
        <extensions>
          <ns3:TrackPointExtension>
            <ns3:hr>136</ns3:hr>
            <ns3:cad>81</ns3:cad>
          </ns3:TrackPointExtension>
        </extensions>
      </trkpt>
      <trkpt lat="31.16655386053025722503662109375" lon="121.45788333378732204437255859375">
        <ele>4.19999980926513671875</ele>
        <time>2026-05-11T00:19:42.000Z</time>
        <extensions>
          <ns3:TrackPointExtension>
            <ns3:hr>136</ns3:hr>
            <ns3:cad>80</ns3:cad>
          </ns3:TrackPointExtension>
        </extensions>
      </trkpt>
      <trkpt lat="31.1665507592260837554931640625" lon="121.4578581042587757110595703125">
        <ele>4.19999980926513671875</ele>
        <time>2026-05-11T00:19:43.000Z</time>
        <extensions>
          <ns3:TrackPointExtension>
            <ns3:hr>136</ns3:hr>
            <ns3:cad>80</ns3:cad>
          </ns3:TrackPointExtension>
        </extensions>
      </trkpt>
      <trkpt lat="31.16654547862708568572998046875" lon="121.4578319527208805084228515625">
        <ele>4.19999980926513671875</ele>
        <time>2026-05-11T00:19:44.000Z</time>
        <extensions>
          <ns3:TrackPointExtension>
            <ns3:hr>136</ns3:hr>
            <ns3:cad>80</ns3:cad>
          </ns3:TrackPointExtension>
        </extensions>
      </trkpt>
      <trkpt lat="31.1665420420467853546142578125" lon="121.4578074775636196136474609375">
        <ele>4.19999980926513671875</ele>
        <time>2026-05-11T00:19:45.000Z</time>
        <extensions>
          <ns3:TrackPointExtension>
            <ns3:hr>136</ns3:hr>
            <ns3:cad>80</ns3:cad>
          </ns3:TrackPointExtension>
        </extensions>
      </trkpt>
      <trkpt lat="31.16653944365680217742919921875" lon="121.4577833376824855804443359375">
        <ele>4.19999980926513671875</ele>
        <time>2026-05-11T00:19:46.000Z</time>
        <extensions>
          <ns3:TrackPointExtension>
            <ns3:hr>136</ns3:hr>
            <ns3:cad>80</ns3:cad>
          </ns3:TrackPointExtension>
        </extensions>
      </trkpt>
      <trkpt lat="31.166536174714565277099609375" lon="121.45775240845978260040283203125">
        <ele>4.19999980926513671875</ele>
        <time>2026-05-11T00:19:47.000Z</time>
        <extensions>
          <ns3:TrackPointExtension>
            <ns3:hr>136</ns3:hr>
            <ns3:cad>80</ns3:cad>
          </ns3:TrackPointExtension>
        </extensions>
      </trkpt>
      <trkpt lat="31.16653424687683582305908203125" lon="121.457727514207363128662109375">
        <ele>4.19999980926513671875</ele>
        <time>2026-05-11T00:19:48.000Z</time>
        <extensions>
          <ns3:TrackPointExtension>
            <ns3:hr>136</ns3:hr>
            <ns3:cad>80</ns3:cad>
          </ns3:TrackPointExtension>
        </extensions>
      </trkpt>
      <trkpt lat="31.16653407923877239227294921875" lon="121.457696668803691864013671875">
        <ele>4.19999980926513671875</ele>
        <time>2026-05-11T00:19:49.000Z</time>
        <extensions>
          <ns3:TrackPointExtension>
            <ns3:hr>136</ns3:hr>
            <ns3:cad>81</ns3:cad>
          </ns3:TrackPointExtension>
        </extensions>
      </trkpt>
      <trkpt lat="31.1665366776287555694580078125" lon="121.45766724832355976104736328125">
        <ele>4.19999980926513671875</ele>
        <time>2026-05-11T00:19:50.000Z</time>
        <extensions>
          <ns3:TrackPointExtension>
            <ns3:hr>136</ns3:hr>
            <ns3:cad>81</ns3:cad>
          </ns3:TrackPointExtension>
        </extensions>
      </trkpt>
      <trkpt lat="31.16652913391590118408203125" lon="121.4576411806046962738037109375">
        <ele>4.19999980926513671875</ele>
        <time>2026-05-11T00:19:51.000Z</time>
        <extensions>
          <ns3:TrackPointExtension>
            <ns3:hr>136</ns3:hr>
            <ns3:cad>81</ns3:cad>
          </ns3:TrackPointExtension>
        </extensions>
      </trkpt>
      <trkpt lat="31.16651974618434906005859375" lon="121.45761092193424701690673828125">
        <ele>4</ele>
        <time>2026-05-11T00:19:52.000Z</time>
        <extensions>
          <ns3:TrackPointExtension>
            <ns3:hr>137</ns3:hr>
            <ns3:cad>82</ns3:cad>
          </ns3:TrackPointExtension>
        </extensions>
      </trkpt>
      <trkpt lat="31.1665162257850170135498046875" lon="121.457584686577320098876953125">
        <ele>4</ele>
        <time>2026-05-11T00:19:53.000Z</time>
        <extensions>
          <ns3:TrackPointExtension>
            <ns3:hr>136</ns3:hr>
            <ns3:cad>82</ns3:cad>
          </ns3:TrackPointExtension>
        </extensions>
      </trkpt>
      <trkpt lat="31.1665108613669872283935546875" lon="121.45756163634359836578369140625">
        <ele>4</ele>
        <time>2026-05-11T00:19:54.000Z</time>
        <extensions>
          <ns3:TrackPointExtension>
            <ns3:hr>136</ns3:hr>
            <ns3:cad>82</ns3:cad>
          </ns3:TrackPointExtension>
        </extensions>
      </trkpt>
      <trkpt lat="31.16650474257767200469970703125" lon="121.45753405988216400146484375">
        <ele>4</ele>
        <time>2026-05-11T00:19:55.000Z</time>
        <extensions>
          <ns3:TrackPointExtension>
            <ns3:hr>137</ns3:hr>
            <ns3:cad>82</ns3:cad>
          </ns3:TrackPointExtension>
        </extensions>
      </trkpt>
      <trkpt lat="31.1665008030831813812255859375" lon="121.45750396884977817535400390625">
        <ele>4</ele>
        <time>2026-05-11T00:19:56.000Z</time>
        <extensions>
          <ns3:TrackPointExtension>
            <ns3:hr>136</ns3:hr>
            <ns3:cad>82</ns3:cad>
          </ns3:TrackPointExtension>
        </extensions>
      </trkpt>
      <trkpt lat="31.16649485193192958831787109375" lon="121.45747479982674121856689453125">
        <ele>4.19999980926513671875</ele>
        <time>2026-05-11T00:19:57.000Z</time>
        <extensions>
          <ns3:TrackPointExtension>
            <ns3:hr>136</ns3:hr>
            <ns3:cad>83</ns3:cad>
          </ns3:TrackPointExtension>
        </extensions>
      </trkpt>
      <trkpt lat="31.166487894952297210693359375" lon="121.45744781009852886199951171875">
        <ele>4.19999980926513671875</ele>
        <time>2026-05-11T00:19:58.000Z</time>
        <extensions>
          <ns3:TrackPointExtension>
            <ns3:hr>137</ns3:hr>
            <ns3:cad>83</ns3:cad>
          </ns3:TrackPointExtension>
        </extensions>
      </trkpt>
      <trkpt lat="31.1664826981723308563232421875" lon="121.45742299966514110565185546875">
        <ele>4.19999980926513671875</ele>
        <time>2026-05-11T00:19:59.000Z</time>
        <extensions>
          <ns3:TrackPointExtension>
            <ns3:hr>136</ns3:hr>
            <ns3:cad>82</ns3:cad>
          </ns3:TrackPointExtension>
        </extensions>
      </trkpt>
      <trkpt lat="31.166477836668491363525390625" lon="121.4573984406888484954833984375">
        <ele>4</ele>
        <time>2026-05-11T00:20:00.000Z</time>
        <extensions>
          <ns3:TrackPointExtension>
            <ns3:hr>137</ns3:hr>
            <ns3:cad>82</ns3:cad>
          </ns3:TrackPointExtension>
        </extensions>
      </trkpt>
      <trkpt lat="31.166470460593700408935546875" lon="121.45737187005579471588134765625">
        <ele>4</ele>
        <time>2026-05-11T00:20:01.000Z</time>
        <extensions>
          <ns3:TrackPointExtension>
            <ns3:hr>137</ns3:hr>
            <ns3:cad>82</ns3:cad>
          </ns3:TrackPointExtension>
        </extensions>
      </trkpt>
      <trkpt lat="31.16646618582308292388916015625" lon="121.45734253339469432830810546875">
        <ele>3.7999999523162841796875</ele>
        <time>2026-05-11T00:20:02.000Z</time>
        <extensions>
          <ns3:TrackPointExtension>
            <ns3:hr>137</ns3:hr>
            <ns3:cad>81</ns3:cad>
          </ns3:TrackPointExtension>
        </extensions>
      </trkpt>
      <trkpt lat="31.16646207869052886962890625" lon="121.457316465675830841064453125">
        <ele>3.7999999523162841796875</ele>
        <time>2026-05-11T00:20:03.000Z</time>
        <extensions>
          <ns3:TrackPointExtension>
            <ns3:hr>137</ns3:hr>
            <ns3:cad>81</ns3:cad>
          </ns3:TrackPointExtension>
        </extensions>
      </trkpt>
      <trkpt lat="31.16645805537700653076171875" lon="121.45729190669953823089599609375">
        <ele>3.7999999523162841796875</ele>
        <time>2026-05-11T00:20:04.000Z</time>
        <extensions>
          <ns3:TrackPointExtension>
            <ns3:hr>136</ns3:hr>
            <ns3:cad>81</ns3:cad>
          </ns3:TrackPointExtension>
        </extensions>
      </trkpt>
      <trkpt lat="31.16645478643476963043212890625" lon="121.45726743154227733612060546875">
        <ele>4</ele>
        <time>2026-05-11T00:20:05.000Z</time>
        <extensions>
          <ns3:TrackPointExtension>
            <ns3:hr>137</ns3:hr>
            <ns3:cad>81</ns3:cad>
          </ns3:TrackPointExtension>
        </extensions>
      </trkpt>
      <trkpt lat="31.1664511822164058685302734375" lon="121.45723524503409862518310546875">
        <ele>4</ele>
        <time>2026-05-11T00:20:06.000Z</time>
        <extensions>
          <ns3:TrackPointExtension>
            <ns3:hr>137</ns3:hr>
            <ns3:cad>81</ns3:cad>
          </ns3:TrackPointExtension>
        </extensions>
      </trkpt>
      <trkpt lat="31.16644925437867641448974609375" lon="121.45720875822007656097412109375">
        <ele>4</ele>
        <time>2026-05-11T00:20:07.000Z</time>
        <extensions>
          <ns3:TrackPointExtension>
            <ns3:hr>137</ns3:hr>
            <ns3:cad>81</ns3:cad>
          </ns3:TrackPointExtension>
        </extensions>
      </trkpt>
      <trkpt lat="31.16644556634128093719482421875" lon="121.4571831934154033660888671875">
        <ele>4</ele>
        <time>2026-05-11T00:20:08.000Z</time>
        <extensions>
          <ns3:TrackPointExtension>
            <ns3:hr>137</ns3:hr>
            <ns3:cad>81</ns3:cad>
          </ns3:TrackPointExtension>
        </extensions>
      </trkpt>
      <trkpt lat="31.16644523106515407562255859375" lon="121.457154192030429840087890625">
        <ele>4</ele>
        <time>2026-05-11T00:20:09.000Z</time>
        <extensions>
          <ns3:TrackPointExtension>
            <ns3:hr>138</ns3:hr>
            <ns3:cad>81</ns3:cad>
          </ns3:TrackPointExtension>
        </extensions>
      </trkpt>
      <trkpt lat="31.1664438061416149139404296875" lon="121.45712762139737606048583984375">
        <ele>4</ele>
        <time>2026-05-11T00:20:10.000Z</time>
        <extensions>
          <ns3:TrackPointExtension>
            <ns3:hr>138</ns3:hr>
            <ns3:cad>81</ns3:cad>
          </ns3:TrackPointExtension>
        </extensions>
      </trkpt>
      <trkpt lat="31.1664444766938686370849609375" lon="121.45709845237433910369873046875">
        <ele>4</ele>
        <time>2026-05-11T00:20:11.000Z</time>
        <extensions>
          <ns3:TrackPointExtension>
            <ns3:hr>138</ns3:hr>
            <ns3:cad>81</ns3:cad>
          </ns3:TrackPointExtension>
        </extensions>
      </trkpt>
      <trkpt lat="31.1664488352835178375244140625" lon="121.45706911571323871612548828125">
        <ele>4.19999980926513671875</ele>
        <time>2026-05-11T00:20:12.000Z</time>
        <extensions>
          <ns3:TrackPointExtension>
            <ns3:hr>138</ns3:hr>
            <ns3:cad>82</ns3:cad>
          </ns3:TrackPointExtension>
        </extensions>
      </trkpt>
      <trkpt lat="31.1664511822164058685302734375" lon="121.4570457302033901214599609375">
        <ele>4.19999980926513671875</ele>
        <time>2026-05-11T00:20:13.000Z</time>
        <extensions>
          <ns3:TrackPointExtension>
            <ns3:hr>138</ns3:hr>
            <ns3:cad>82</ns3:cad>
          </ns3:TrackPointExtension>
        </extensions>
      </trkpt>
      <trkpt lat="31.16645336151123046875" lon="121.45702368579804897308349609375">
        <ele>4.19999980926513671875</ele>
        <time>2026-05-11T00:20:14.000Z</time>
        <extensions>
          <ns3:TrackPointExtension>
            <ns3:hr>138</ns3:hr>
            <ns3:cad>82</ns3:cad>
          </ns3:TrackPointExtension>
        </extensions>
      </trkpt>
      <trkpt lat="31.1664552055299282073974609375" lon="121.4569867216050624847412109375">
        <ele>4.19999980926513671875</ele>
        <time>2026-05-11T00:20:15.000Z</time>
        <extensions>
          <ns3:TrackPointExtension>
            <ns3:hr>138</ns3:hr>
            <ns3:cad>82</ns3:cad>
          </ns3:TrackPointExtension>
        </extensions>
      </trkpt>
      <trkpt lat="31.166457049548625946044921875" lon="121.4569592289626598358154296875">
        <ele>4.19999980926513671875</ele>
        <time>2026-05-11T00:20:16.000Z</time>
        <extensions>
          <ns3:TrackPointExtension>
            <ns3:hr>138</ns3:hr>
            <ns3:cad>82</ns3:cad>
          </ns3:TrackPointExtension>
        </extensions>
      </trkpt>
      <trkpt lat="31.16645260713994503021240234375" lon="121.456934921443462371826171875">
        <ele>4.19999980926513671875</ele>
        <time>2026-05-11T00:20:17.000Z</time>
        <extensions>
          <ns3:TrackPointExtension>
            <ns3:hr>138</ns3:hr>
            <ns3:cad>82</ns3:cad>
          </ns3:TrackPointExtension>
        </extensions>
      </trkpt>
      <trkpt lat="31.1664572171866893768310546875" lon="121.45690910518169403076171875">
        <ele>4.400000095367431640625</ele>
        <time>2026-05-11T00:20:18.000Z</time>
        <extensions>
          <ns3:TrackPointExtension>
            <ns3:hr>138</ns3:hr>
            <ns3:cad>82</ns3:cad>
          </ns3:TrackPointExtension>
        </extensions>
      </trkpt>
      <trkpt lat="31.16645679809153079986572265625" lon="121.45689510740339756011962890625">
        <ele>4.400000095367431640625</ele>
        <time>2026-05-11T00:20:19.000Z</time>
        <extensions>
          <ns3:TrackPointExtension>
            <ns3:hr>138</ns3:hr>
            <ns3:cad>82</ns3:cad>
          </ns3:TrackPointExtension>
        </extensions>
      </trkpt>
      <trkpt lat="31.16645378060638904571533203125" lon="121.456874571740627288818359375">
        <ele>4.400000095367431640625</ele>
        <time>2026-05-11T00:20:20.000Z</time>
        <extensions>
          <ns3:TrackPointExtension>
            <ns3:hr>138</ns3:hr>
            <ns3:cad>82</ns3:cad>
          </ns3:TrackPointExtension>
        </extensions>
      </trkpt>
      <trkpt lat="31.1664547026157379150390625" lon="121.45685948431491851806640625">
        <ele>4.400000095367431640625</ele>
        <time>2026-05-11T00:20:21.000Z</time>
        <extensions>
          <ns3:TrackPointExtension>
            <ns3:hr>139</ns3:hr>
            <ns3:cad>82</ns3:cad>
          </ns3:TrackPointExtension>
        </extensions>
      </trkpt>
    </trkseg>
  </trk>
</gpx>
