<?xml version="1.0" encoding="UTF-8"?>
<gpx creator="Garmin Connect" version="1.1"
  xsi:schemaLocation="http://www.topografix.com/GPX/1/1 http://www.topografix.com/GPX/11.xsd"
  xmlns:ns3="http://www.garmin.com/xmlschemas/TrackPointExtension/v1"
  xmlns="http://www.topografix.com/GPX/1/1"
  xmlns:xsi="http://www.w3.org/2001/XMLSchema-instance" xmlns:ns2="http://www.garmin.com/xmlschemas/GpxExtensions/v3">
  <metadata>
    <link href="connect.garmin.com">
      <text>Garmin Connect</text>
    </link>
    <time>2026-05-13T13:05:18.000Z</time>
  </metadata>
  <trk>
    <name>普陀区 跑步</name>
    <type>running</type>
    <trkseg>
      <trkpt lat="31.285067684948444366455078125" lon="121.3711587153375148773193359375">
        <ele>6.80000019073486328125</ele>
        <time>2026-05-13T13:05:49.000Z</time>
        <extensions>
          <ns3:TrackPointExtension>
            <ns3:hr>103</ns3:hr>
            <ns3:cad>0</ns3:cad>
          </ns3:TrackPointExtension>
        </extensions>
      </trkpt>
      <trkpt lat="31.28507045097649097442626953125" lon="121.3711788319051265716552734375">
        <ele>6.80000019073486328125</ele>
        <time>2026-05-13T13:05:50.000Z</time>
        <extensions>
          <ns3:TrackPointExtension>
            <ns3:hr>104</ns3:hr>
            <ns3:cad>0</ns3:cad>
          </ns3:TrackPointExtension>
        </extensions>
      </trkpt>
      <trkpt lat="31.28507900051772594451904296875" lon="121.3712024688720703125">
        <ele>6.599999904632568359375</ele>
        <time>2026-05-13T13:05:51.000Z</time>
        <extensions>
          <ns3:TrackPointExtension>
            <ns3:hr>104</ns3:hr>
            <ns3:cad>75</ns3:cad>
          </ns3:TrackPointExtension>
        </extensions>
      </trkpt>
      <trkpt lat="31.285095512866973876953125" lon="121.37122283689677715301513671875">
        <ele>6.400000095367431640625</ele>
        <time>2026-05-13T13:05:52.000Z</time>
        <extensions>
          <ns3:TrackPointExtension>
            <ns3:hr>104</ns3:hr>
            <ns3:cad>79</ns3:cad>
          </ns3:TrackPointExtension>
        </extensions>
      </trkpt>
      <trkpt lat="31.285117305815219879150390625" lon="121.371236331760883331298828125">
        <ele>6.400000095367431640625</ele>
        <time>2026-05-13T13:05:53.000Z</time>
        <extensions>
          <ns3:TrackPointExtension>
            <ns3:hr>104</ns3:hr>
            <ns3:cad>79</ns3:cad>
          </ns3:TrackPointExtension>
        </extensions>
      </trkpt>
      <trkpt lat="31.28514437936246395111083984375" lon="121.37124462984502315521240234375">
        <ele>6.19999980926513671875</ele>
        <time>2026-05-13T13:05:54.000Z</time>
        <extensions>
          <ns3:TrackPointExtension>
            <ns3:hr>103</ns3:hr>
            <ns3:cad>79</ns3:cad>
          </ns3:TrackPointExtension>
        </extensions>
      </trkpt>
      <trkpt lat="31.28518176265060901641845703125" lon="121.37124865315854549407958984375">
        <ele>6.19999980926513671875</ele>
        <time>2026-05-13T13:05:55.000Z</time>
        <extensions>
          <ns3:TrackPointExtension>
            <ns3:hr>104</ns3:hr>
            <ns3:cad>80</ns3:cad>
          </ns3:TrackPointExtension>
        </extensions>
      </trkpt>
      <trkpt lat="31.2852217443287372589111328125" lon="121.3712522573769092559814453125">
        <ele>6.19999980926513671875</ele>
        <time>2026-05-13T13:05:56.000Z</time>
        <extensions>
          <ns3:TrackPointExtension>
            <ns3:hr>103</ns3:hr>
            <ns3:cad>80</ns3:cad>
          </ns3:TrackPointExtension>
        </extensions>
      </trkpt>
      <trkpt lat="31.28526306711137294769287109375" lon="121.37125669978559017181396484375">
        <ele>6.19999980926513671875</ele>
        <time>2026-05-13T13:05:57.000Z</time>
        <extensions>
          <ns3:TrackPointExtension>
            <ns3:hr>104</ns3:hr>
            <ns3:cad>80</ns3:cad>
          </ns3:TrackPointExtension>
        </extensions>
      </trkpt>
      <trkpt lat="31.28530464135110378265380859375" lon="121.37126139365136623382568359375">
        <ele>6.19999980926513671875</ele>
        <time>2026-05-13T13:05:58.000Z</time>
        <extensions>
          <ns3:TrackPointExtension>
            <ns3:hr>104</ns3:hr>
            <ns3:cad>80</ns3:cad>
          </ns3:TrackPointExtension>
        </extensions>
      </trkpt>
      <trkpt lat="31.28534269519150257110595703125" lon="121.37127178721129894256591796875">
        <ele>6</ele>
        <time>2026-05-13T13:05:59.000Z</time>
        <extensions>
          <ns3:TrackPointExtension>
            <ns3:hr>104</ns3:hr>
            <ns3:cad>80</ns3:cad>
          </ns3:TrackPointExtension>
        </extensions>
      </trkpt>
      <trkpt lat="31.28537538461387157440185546875" lon="121.37128637172281742095947265625">
        <ele>6</ele>
        <time>2026-05-13T13:06:00.000Z</time>
        <extensions>
          <ns3:TrackPointExtension>
            <ns3:hr>103</ns3:hr>
            <ns3:cad>81</ns3:cad>
          </ns3:TrackPointExtension>
        </extensions>
      </trkpt>
      <trkpt lat="31.28540086559951305389404296875" lon="121.3713065721094608306884765625">
        <ele>6</ele>
        <time>2026-05-13T13:06:01.000Z</time>
        <extensions>
          <ns3:TrackPointExtension>
            <ns3:hr>104</ns3:hr>
            <ns3:cad>83</ns3:cad>
          </ns3:TrackPointExtension>
        </extensions>
      </trkpt>
      <trkpt lat="31.28541829995810985565185546875" lon="121.371332220733165740966796875">
        <ele>6</ele>
        <time>2026-05-13T13:06:02.000Z</time>
        <extensions>
          <ns3:TrackPointExtension>
            <ns3:hr>105</ns3:hr>
            <ns3:cad>85</ns3:cad>
          </ns3:TrackPointExtension>
        </extensions>
      </trkpt>
      <trkpt lat="31.28543011844158172607421875" lon="121.371359042823314666748046875">
        <ele>5.80000019073486328125</ele>
        <time>2026-05-13T13:06:03.000Z</time>
        <extensions>
          <ns3:TrackPointExtension>
            <ns3:hr>106</ns3:hr>
            <ns3:cad>86</ns3:cad>
          </ns3:TrackPointExtension>
        </extensions>
      </trkpt>
      <trkpt lat="31.28543925471603870391845703125" lon="121.37139198370277881622314453125">
        <ele>6</ele>
        <time>2026-05-13T13:06:04.000Z</time>
        <extensions>
          <ns3:TrackPointExtension>
            <ns3:hr>108</ns3:hr>
            <ns3:cad>87</ns3:cad>
          </ns3:TrackPointExtension>
        </extensions>
      </trkpt>
      <trkpt lat="31.28544679842889308929443359375" lon="121.37142400257289409637451171875">
        <ele>6</ele>
        <time>2026-05-13T13:06:05.000Z</time>
        <extensions>
          <ns3:TrackPointExtension>
            <ns3:hr>109</ns3:hr>
            <ns3:cad>87</ns3:cad>
          </ns3:TrackPointExtension>
        </extensions>
      </trkpt>
      <trkpt lat="31.28545333631336688995361328125" lon="121.37145685963332653045654296875">
        <ele>5.80000019073486328125</ele>
        <time>2026-05-13T13:06:06.000Z</time>
        <extensions>
          <ns3:TrackPointExtension>
            <ns3:hr>109</ns3:hr>
            <ns3:cad>86</ns3:cad>
          </ns3:TrackPointExtension>
        </extensions>
      </trkpt>
      <trkpt lat="31.2854584492743015289306640625" lon="121.37149223126471042633056640625">
        <ele>5.80000019073486328125</ele>
        <time>2026-05-13T13:06:07.000Z</time>
        <extensions>
          <ns3:TrackPointExtension>
            <ns3:hr>110</ns3:hr>
            <ns3:cad>85</ns3:cad>
          </ns3:TrackPointExtension>
        </extensions>
      </trkpt>
      <trkpt lat="31.28546691499650478363037109375" lon="121.371528692543506622314453125">
        <ele>6</ele>
        <time>2026-05-13T13:06:08.000Z</time>
        <extensions>
          <ns3:TrackPointExtension>
            <ns3:hr>111</ns3:hr>
            <ns3:cad>85</ns3:cad>
          </ns3:TrackPointExtension>
        </extensions>
      </trkpt>
      <trkpt lat="31.28547747619450092315673828125" lon="121.37156565673649311065673828125">
        <ele>6</ele>
        <time>2026-05-13T13:06:09.000Z</time>
        <extensions>
          <ns3:TrackPointExtension>
            <ns3:hr>112</ns3:hr>
            <ns3:cad>85</ns3:cad>
          </ns3:TrackPointExtension>
        </extensions>
      </trkpt>
      <trkpt lat="31.2854879535734653472900390625" lon="121.37159599922597408294677734375">
        <ele>6</ele>
        <time>2026-05-13T13:06:10.000Z</time>
        <extensions>
          <ns3:TrackPointExtension>
            <ns3:hr>113</ns3:hr>
            <ns3:cad>85</ns3:cad>
          </ns3:TrackPointExtension>
        </extensions>
      </trkpt>
      <trkpt lat="31.28550128079950809478759765625" lon="121.37162181548774242401123046875">
        <ele>6</ele>
        <time>2026-05-13T13:06:11.000Z</time>
        <extensions>
          <ns3:TrackPointExtension>
            <ns3:hr>114</ns3:hr>
            <ns3:cad>85</ns3:cad>
          </ns3:TrackPointExtension>
        </extensions>
      </trkpt>
      <trkpt lat="31.28551871515810489654541015625" lon="121.37164436280727386474609375">
        <ele>6</ele>
        <time>2026-05-13T13:06:12.000Z</time>
        <extensions>
          <ns3:TrackPointExtension>
            <ns3:hr>115</ns3:hr>
            <ns3:cad>85</ns3:cad>
          </ns3:TrackPointExtension>
        </extensions>
      </trkpt>
      <trkpt lat="31.2855342216789722442626953125" lon="121.37166724540293216705322265625">
        <ele>6</ele>
        <time>2026-05-13T13:06:13.000Z</time>
        <extensions>
          <ns3:TrackPointExtension>
            <ns3:hr>116</ns3:hr>
            <ns3:cad>86</ns3:cad>
          </ns3:TrackPointExtension>
        </extensions>
      </trkpt>
      <trkpt lat="31.2855462916195392608642578125" lon="121.37169188819825649261474609375">
        <ele>6</ele>
        <time>2026-05-13T13:06:14.000Z</time>
        <extensions>
          <ns3:TrackPointExtension>
            <ns3:hr>117</ns3:hr>
            <ns3:cad>86</ns3:cad>
          </ns3:TrackPointExtension>
        </extensions>
      </trkpt>
      <trkpt lat="31.2855536676943302154541015625" lon="121.3717241585254669189453125">
        <ele>6</ele>
        <time>2026-05-13T13:06:15.000Z</time>
        <extensions>
          <ns3:TrackPointExtension>
            <ns3:hr>118</ns3:hr>
            <ns3:cad>86</ns3:cad>
          </ns3:TrackPointExtension>
        </extensions>
      </trkpt>
      <trkpt lat="31.2855555117130279541015625" lon="121.3717598654329776763916015625">
        <ele>6</ele>
        <time>2026-05-13T13:06:16.000Z</time>
        <extensions>
          <ns3:TrackPointExtension>
            <ns3:hr>119</ns3:hr>
            <ns3:cad>86</ns3:cad>
          </ns3:TrackPointExtension>
        </extensions>
      </trkpt>
      <trkpt lat="31.28555173985660076141357421875" lon="121.3717997632920742034912109375">
        <ele>6</ele>
        <time>2026-05-13T13:06:17.000Z</time>
        <extensions>
          <ns3:TrackPointExtension>
            <ns3:hr>120</ns3:hr>
            <ns3:cad>84</ns3:cad>
          </ns3:TrackPointExtension>
        </extensions>
      </trkpt>
      <trkpt lat="31.28554520197212696075439453125" lon="121.37184443883597850799560546875">
        <ele>6</ele>
        <time>2026-05-13T13:06:18.000Z</time>
        <extensions>
          <ns3:TrackPointExtension>
            <ns3:hr>121</ns3:hr>
            <ns3:cad>84</ns3:cad>
          </ns3:TrackPointExtension>
        </extensions>
      </trkpt>
      <trkpt lat="31.2855358980596065521240234375" lon="121.3718865998089313507080078125">
        <ele>6</ele>
        <time>2026-05-13T13:06:19.000Z</time>
        <extensions>
          <ns3:TrackPointExtension>
            <ns3:hr>122</ns3:hr>
            <ns3:cad>84</ns3:cad>
          </ns3:TrackPointExtension>
        </extensions>
      </trkpt>
      <trkpt lat="31.285525001585483551025390625" lon="121.371929012238979339599609375">
        <ele>6</ele>
        <time>2026-05-13T13:06:20.000Z</time>
        <extensions>
          <ns3:TrackPointExtension>
            <ns3:hr>123</ns3:hr>
            <ns3:cad>83</ns3:cad>
          </ns3:TrackPointExtension>
        </extensions>
      </trkpt>
      <trkpt lat="31.285508573055267333984375" lon="121.37197117321193218231201171875">
        <ele>6</ele>
        <time>2026-05-13T13:06:21.000Z</time>
        <extensions>
          <ns3:TrackPointExtension>
            <ns3:hr>124</ns3:hr>
            <ns3:cad>83</ns3:cad>
          </ns3:TrackPointExtension>
        </extensions>
      </trkpt>
      <trkpt lat="31.28548786975443363189697265625" lon="121.37200235389173030853271484375">
        <ele>6</ele>
        <time>2026-05-13T13:06:22.000Z</time>
        <extensions>
          <ns3:TrackPointExtension>
            <ns3:hr>125</ns3:hr>
            <ns3:cad>83</ns3:cad>
          </ns3:TrackPointExtension>
        </extensions>
      </trkpt>
      <trkpt lat="31.28546339459717273712158203125" lon="121.3720207102596759796142578125">
        <ele>6</ele>
        <time>2026-05-13T13:06:23.000Z</time>
        <extensions>
          <ns3:TrackPointExtension>
            <ns3:hr>126</ns3:hr>
            <ns3:cad>84</ns3:cad>
          </ns3:TrackPointExtension>
        </extensions>
      </trkpt>
      <trkpt lat="31.28543556667864322662353515625" lon="121.372026912868022918701171875">
        <ele>6</ele>
        <time>2026-05-13T13:06:24.000Z</time>
        <extensions>
          <ns3:TrackPointExtension>
            <ns3:hr>127</ns3:hr>
            <ns3:cad>84</ns3:cad>
          </ns3:TrackPointExtension>
        </extensions>
      </trkpt>
      <trkpt lat="31.28540706820785999298095703125" lon="121.372024230659008026123046875">
        <ele>6</ele>
        <time>2026-05-13T13:06:25.000Z</time>
        <extensions>
          <ns3:TrackPointExtension>
            <ns3:hr>128</ns3:hr>
            <ns3:cad>84</ns3:cad>
          </ns3:TrackPointExtension>
        </extensions>
      </trkpt>
      <trkpt lat="31.28537706099450588226318359375" lon="121.372018195688724517822265625">
        <ele>6</ele>
        <time>2026-05-13T13:06:26.000Z</time>
        <extensions>
          <ns3:TrackPointExtension>
            <ns3:hr>129</ns3:hr>
            <ns3:cad>85</ns3:cad>
          </ns3:TrackPointExtension>
        </extensions>
      </trkpt>
      <trkpt lat="31.28534588031470775604248046875" lon="121.37201450765132904052734375">
        <ele>6</ele>
        <time>2026-05-13T13:06:27.000Z</time>
        <extensions>
          <ns3:TrackPointExtension>
            <ns3:hr>129</ns3:hr>
            <ns3:cad>85</ns3:cad>
          </ns3:TrackPointExtension>
        </extensions>
      </trkpt>
      <trkpt lat="31.28531687892973423004150390625" lon="121.3720138370990753173828125">
        <ele>6</ele>
        <time>2026-05-13T13:06:28.000Z</time>
        <extensions>
          <ns3:TrackPointExtension>
            <ns3:hr>129</ns3:hr>
            <ns3:cad>85</ns3:cad>
          </ns3:TrackPointExtension>
        </extensions>
      </trkpt>
      <trkpt lat="31.28528670407831668853759765625" lon="121.3720138370990753173828125">
        <ele>6</ele>
        <time>2026-05-13T13:06:29.000Z</time>
        <extensions>
          <ns3:TrackPointExtension>
            <ns3:hr>130</ns3:hr>
            <ns3:cad>84</ns3:cad>
          </ns3:TrackPointExtension>
        </extensions>
      </trkpt>
      <trkpt lat="31.2852549366652965545654296875" lon="121.37201593257486820220947265625">
        <ele>6.19999980926513671875</ele>
        <time>2026-05-13T13:06:30.000Z</time>
        <extensions>
          <ns3:TrackPointExtension>
            <ns3:hr>129</ns3:hr>
            <ns3:cad>83</ns3:cad>
          </ns3:TrackPointExtension>
        </extensions>
      </trkpt>
      <trkpt lat="31.28521822392940521240234375" lon="121.37202481739223003387451171875">
        <ele>6.19999980926513671875</ele>
        <time>2026-05-13T13:06:31.000Z</time>
        <extensions>
          <ns3:TrackPointExtension>
            <ns3:hr>129</ns3:hr>
            <ns3:cad>83</ns3:cad>
          </ns3:TrackPointExtension>
        </extensions>
      </trkpt>
      <trkpt lat="31.28518360666930675506591796875" lon="121.37202850542962551116943359375">
        <ele>6.19999980926513671875</ele>
        <time>2026-05-13T13:06:32.000Z</time>
        <extensions>
          <ns3:TrackPointExtension>
            <ns3:hr>130</ns3:hr>
            <ns3:cad>84</ns3:cad>
          </ns3:TrackPointExtension>
        </extensions>
      </trkpt>
      <trkpt lat="31.28514714539051055908203125" lon="121.372026912868022918701171875">
        <ele>6.19999980926513671875</ele>
        <time>2026-05-13T13:06:33.000Z</time>
        <extensions>
          <ns3:TrackPointExtension>
            <ns3:hr>130</ns3:hr>
            <ns3:cad>84</ns3:cad>
          </ns3:TrackPointExtension>
        </extensions>
      </trkpt>
      <trkpt lat="31.28511085174977779388427734375" lon="121.3720218837261199951171875">
        <ele>6.19999980926513671875</ele>
        <time>2026-05-13T13:06:34.000Z</time>
        <extensions>
          <ns3:TrackPointExtension>
            <ns3:hr>132</ns3:hr>
            <ns3:cad>83</ns3:cad>
          </ns3:TrackPointExtension>
        </extensions>
      </trkpt>
      <trkpt lat="31.28507514484226703643798828125" lon="121.37201576493680477142333984375">
        <ele>6.19999980926513671875</ele>
        <time>2026-05-13T13:06:35.000Z</time>
        <extensions>
          <ns3:TrackPointExtension>
            <ns3:hr>133</ns3:hr>
            <ns3:cad>83</ns3:cad>
          </ns3:TrackPointExtension>
        </extensions>
      </trkpt>
      <trkpt lat="31.28504144959151744842529296875" lon="121.37200587429106235504150390625">
        <ele>6.19999980926513671875</ele>
        <time>2026-05-13T13:06:36.000Z</time>
        <extensions>
          <ns3:TrackPointExtension>
            <ns3:hr>134</ns3:hr>
            <ns3:cad>83</ns3:cad>
          </ns3:TrackPointExtension>
        </extensions>
      </trkpt>
      <trkpt lat="31.285006999969482421875" lon="121.3719935528934001922607421875">
        <ele>6.19999980926513671875</ele>
        <time>2026-05-13T13:06:37.000Z</time>
        <extensions>
          <ns3:TrackPointExtension>
            <ns3:hr>135</ns3:hr>
            <ns3:cad>83</ns3:cad>
          </ns3:TrackPointExtension>
        </extensions>
      </trkpt>
      <trkpt lat="31.284974478185176849365234375" lon="121.3719816505908966064453125">
        <ele>6.19999980926513671875</ele>
        <time>2026-05-13T13:06:38.000Z</time>
        <extensions>
          <ns3:TrackPointExtension>
            <ns3:hr>135</ns3:hr>
            <ns3:cad>83</ns3:cad>
          </ns3:TrackPointExtension>
        </extensions>
      </trkpt>
      <trkpt lat="31.284946314990520477294921875" lon="121.37197167612612247467041015625">
        <ele>6.19999980926513671875</ele>
        <time>2026-05-13T13:06:39.000Z</time>
        <extensions>
          <ns3:TrackPointExtension>
            <ns3:hr>136</ns3:hr>
            <ns3:cad>83</ns3:cad>
          </ns3:TrackPointExtension>
        </extensions>
      </trkpt>
      <trkpt lat="31.28491957671940326690673828125" lon="121.371965892612934112548828125">
        <ele>6.19999980926513671875</ele>
        <time>2026-05-13T13:06:40.000Z</time>
        <extensions>
          <ns3:TrackPointExtension>
            <ns3:hr>136</ns3:hr>
            <ns3:cad>83</ns3:cad>
          </ns3:TrackPointExtension>
        </extensions>
      </trkpt>
      <trkpt lat="31.28489191643893718719482421875" lon="121.37196262367069721221923828125">
        <ele>6.19999980926513671875</ele>
        <time>2026-05-13T13:06:41.000Z</time>
        <extensions>
          <ns3:TrackPointExtension>
            <ns3:hr>136</ns3:hr>
            <ns3:cad>83</ns3:cad>
          </ns3:TrackPointExtension>
        </extensions>
      </trkpt>
      <trkpt lat="31.28486442379653453826904296875" lon="121.3719620369374752044677734375">
        <ele>6.19999980926513671875</ele>
        <time>2026-05-13T13:06:42.000Z</time>
        <extensions>
          <ns3:TrackPointExtension>
            <ns3:hr>137</ns3:hr>
            <ns3:cad>84</ns3:cad>
          </ns3:TrackPointExtension>
        </extensions>
      </trkpt>
      <trkpt lat="31.2848341651260852813720703125" lon="121.37195893563330173492431640625">
        <ele>6.19999980926513671875</ele>
        <time>2026-05-13T13:06:43.000Z</time>
        <extensions>
          <ns3:TrackPointExtension>
            <ns3:hr>136</ns3:hr>
            <ns3:cad>84</ns3:cad>
          </ns3:TrackPointExtension>
        </extensions>
      </trkpt>
      <trkpt lat="31.2848046608269214630126953125" lon="121.37195013463497161865234375">
        <ele>6.400000095367431640625</ele>
        <time>2026-05-13T13:06:44.000Z</time>
        <extensions>
          <ns3:TrackPointExtension>
            <ns3:hr>136</ns3:hr>
            <ns3:cad>84</ns3:cad>
          </ns3:TrackPointExtension>
        </extensions>
      </trkpt>
      <trkpt lat="31.28477842546999454498291015625" lon="121.371934376657009124755859375">
        <ele>6.400000095367431640625</ele>
        <time>2026-05-13T13:06:45.000Z</time>
        <extensions>
          <ns3:TrackPointExtension>
            <ns3:hr>135</ns3:hr>
            <ns3:cad>83</ns3:cad>
          </ns3:TrackPointExtension>
        </extensions>
      </trkpt>
      <trkpt lat="31.28475562669336795806884765625" lon="121.37191367335617542266845703125">
        <ele>6.400000095367431640625</ele>
        <time>2026-05-13T13:06:46.000Z</time>
        <extensions>
          <ns3:TrackPointExtension>
            <ns3:hr>135</ns3:hr>
            <ns3:cad>83</ns3:cad>
          </ns3:TrackPointExtension>
        </extensions>
      </trkpt>
      <trkpt lat="31.28473483957350254058837890625" lon="121.3718865998089313507080078125">
        <ele>6.19999980926513671875</ele>
        <time>2026-05-13T13:06:47.000Z</time>
        <extensions>
          <ns3:TrackPointExtension>
            <ns3:hr>135</ns3:hr>
            <ns3:cad>83</ns3:cad>
          </ns3:TrackPointExtension>
        </extensions>
      </trkpt>
      <trkpt lat="31.284719668328762054443359375" lon="121.37185097672045230865478515625">
        <ele>6.19999980926513671875</ele>
        <time>2026-05-13T13:06:48.000Z</time>
        <extensions>
          <ns3:TrackPointExtension>
            <ns3:hr>135</ns3:hr>
            <ns3:cad>83</ns3:cad>
          </ns3:TrackPointExtension>
        </extensions>
      </trkpt>
      <trkpt lat="31.28471321426331996917724609375" lon="121.3718161918222904205322265625">
        <ele>6.19999980926513671875</ele>
        <time>2026-05-13T13:06:49.000Z</time>
        <extensions>
          <ns3:TrackPointExtension>
            <ns3:hr>135</ns3:hr>
            <ns3:cad>83</ns3:cad>
          </ns3:TrackPointExtension>
        </extensions>
      </trkpt>
      <trkpt lat="31.2847158126533031463623046875" lon="121.37177989818155765533447265625">
        <ele>6.400000095367431640625</ele>
        <time>2026-05-13T13:06:50.000Z</time>
        <extensions>
          <ns3:TrackPointExtension>
            <ns3:hr>136</ns3:hr>
            <ns3:cad>83</ns3:cad>
          </ns3:TrackPointExtension>
        </extensions>
      </trkpt>
      <trkpt lat="31.284723691642284393310546875" lon="121.37174368835985660552978515625">
        <ele>6.400000095367431640625</ele>
        <time>2026-05-13T13:06:51.000Z</time>
        <extensions>
          <ns3:TrackPointExtension>
            <ns3:hr>136</ns3:hr>
            <ns3:cad>83</ns3:cad>
          </ns3:TrackPointExtension>
        </extensions>
      </trkpt>
      <trkpt lat="31.2847372703254222869873046875" lon="121.3717080652713775634765625">
        <ele>6.400000095367431640625</ele>
        <time>2026-05-13T13:06:52.000Z</time>
        <extensions>
          <ns3:TrackPointExtension>
            <ns3:hr>137</ns3:hr>
            <ns3:cad>83</ns3:cad>
          </ns3:TrackPointExtension>
        </extensions>
      </trkpt>
      <trkpt lat="31.28475227393209934234619140625" lon="121.37167328037321567535400390625">
        <ele>6.400000095367431640625</ele>
        <time>2026-05-13T13:06:53.000Z</time>
        <extensions>
          <ns3:TrackPointExtension>
            <ns3:hr>137</ns3:hr>
            <ns3:cad>84</ns3:cad>
          </ns3:TrackPointExtension>
        </extensions>
      </trkpt>
      <trkpt lat="31.2847661040723323822021484375" lon="121.371638663113117218017578125">
        <ele>6.19999980926513671875</ele>
        <time>2026-05-13T13:06:54.000Z</time>
        <extensions>
          <ns3:TrackPointExtension>
            <ns3:hr>137</ns3:hr>
            <ns3:cad>84</ns3:cad>
          </ns3:TrackPointExtension>
        </extensions>
      </trkpt>
      <trkpt lat="31.28477758727967739105224609375" lon="121.37160412967205047607421875">
        <ele>6.19999980926513671875</ele>
        <time>2026-05-13T13:06:55.000Z</time>
        <extensions>
          <ns3:TrackPointExtension>
            <ns3:hr>138</ns3:hr>
            <ns3:cad>84</ns3:cad>
          </ns3:TrackPointExtension>
        </extensions>
      </trkpt>
      <trkpt lat="31.284787394106388092041015625" lon="121.371570266783237457275390625">
        <ele>6.400000095367431640625</ele>
        <time>2026-05-13T13:06:56.000Z</time>
        <extensions>
          <ns3:TrackPointExtension>
            <ns3:hr>138</ns3:hr>
            <ns3:cad>84</ns3:cad>
          </ns3:TrackPointExtension>
        </extensions>
      </trkpt>
      <trkpt lat="31.28479518927633762359619140625" lon="121.37153581716120243072509765625">
        <ele>6.400000095367431640625</ele>
        <time>2026-05-13T13:06:57.000Z</time>
        <extensions>
          <ns3:TrackPointExtension>
            <ns3:hr>138</ns3:hr>
            <ns3:cad>84</ns3:cad>
          </ns3:TrackPointExtension>
        </extensions>
      </trkpt>
      <trkpt lat="31.28480223007500171661376953125" lon="121.371499858796596527099609375">
        <ele>6.400000095367431640625</ele>
        <time>2026-05-13T13:06:58.000Z</time>
        <extensions>
          <ns3:TrackPointExtension>
            <ns3:hr>139</ns3:hr>
            <ns3:cad>84</ns3:cad>
          </ns3:TrackPointExtension>
        </extensions>
      </trkpt>
      <trkpt lat="31.28480784595012664794921875" lon="121.37146532535552978515625">
        <ele>6.599999904632568359375</ele>
        <time>2026-05-13T13:06:59.000Z</time>
        <extensions>
          <ns3:TrackPointExtension>
            <ns3:hr>139</ns3:hr>
            <ns3:cad>84</ns3:cad>
          </ns3:TrackPointExtension>
        </extensions>
      </trkpt>
      <trkpt lat="31.284809522330760955810546875" lon="121.37143246829509735107421875">
        <ele>6.599999904632568359375</ele>
        <time>2026-05-13T13:07:00.000Z</time>
        <extensions>
          <ns3:TrackPointExtension>
            <ns3:hr>139</ns3:hr>
            <ns3:cad>84</ns3:cad>
          </ns3:TrackPointExtension>
        </extensions>
      </trkpt>
      <trkpt lat="31.28480927087366580963134765625" lon="121.371397934854030609130859375">
        <ele>6.599999904632568359375</ele>
        <time>2026-05-13T13:07:01.000Z</time>
        <extensions>
          <ns3:TrackPointExtension>
            <ns3:hr>140</ns3:hr>
            <ns3:cad>84</ns3:cad>
          </ns3:TrackPointExtension>
        </extensions>
      </trkpt>
      <trkpt lat="31.28481010906398296356201171875" lon="121.37136113829910755157470703125">
        <ele>6.599999904632568359375</ele>
        <time>2026-05-13T13:07:02.000Z</time>
        <extensions>
          <ns3:TrackPointExtension>
            <ns3:hr>140</ns3:hr>
            <ns3:cad>84</ns3:cad>
          </ns3:TrackPointExtension>
        </extensions>
      </trkpt>
      <trkpt lat="31.28480809740722179412841796875" lon="121.371328197419643402099609375">
        <ele>6.599999904632568359375</ele>
        <time>2026-05-13T13:07:03.000Z</time>
        <extensions>
          <ns3:TrackPointExtension>
            <ns3:hr>141</ns3:hr>
            <ns3:cad>84</ns3:cad>
          </ns3:TrackPointExtension>
        </extensions>
      </trkpt>
      <trkpt lat="31.28480340354144573211669921875" lon="121.37129492126405239105224609375">
        <ele>6.599999904632568359375</ele>
        <time>2026-05-13T13:07:04.000Z</time>
        <extensions>
          <ns3:TrackPointExtension>
            <ns3:hr>141</ns3:hr>
            <ns3:cad>84</ns3:cad>
          </ns3:TrackPointExtension>
        </extensions>
      </trkpt>
      <trkpt lat="31.284796111285686492919921875" lon="121.3712606392800807952880859375">
        <ele>6.599999904632568359375</ele>
        <time>2026-05-13T13:07:05.000Z</time>
        <extensions>
          <ns3:TrackPointExtension>
            <ns3:hr>142</ns3:hr>
            <ns3:cad>84</ns3:cad>
          </ns3:TrackPointExtension>
        </extensions>
      </trkpt>
      <trkpt lat="31.28478881902992725372314453125" lon="121.37122727930545806884765625">
        <ele>6.599999904632568359375</ele>
        <time>2026-05-13T13:07:06.000Z</time>
        <extensions>
          <ns3:TrackPointExtension>
            <ns3:hr>142</ns3:hr>
            <ns3:cad>84</ns3:cad>
          </ns3:TrackPointExtension>
        </extensions>
      </trkpt>
      <trkpt lat="31.28478127531707286834716796875" lon="121.37119333259761333465576171875">
        <ele>6.599999904632568359375</ele>
        <time>2026-05-13T13:07:07.000Z</time>
        <extensions>
          <ns3:TrackPointExtension>
            <ns3:hr>142</ns3:hr>
            <ns3:cad>84</ns3:cad>
          </ns3:TrackPointExtension>
        </extensions>
      </trkpt>
      <trkpt lat="31.28477373160421848297119140625" lon="121.371159888803958892822265625">
        <ele>6.400000095367431640625</ele>
        <time>2026-05-13T13:07:08.000Z</time>
        <extensions>
          <ns3:TrackPointExtension>
            <ns3:hr>143</ns3:hr>
            <ns3:cad>84</ns3:cad>
          </ns3:TrackPointExtension>
        </extensions>
      </trkpt>
      <trkpt lat="31.28476786427199840545654296875" lon="121.3711248524487018585205078125">
        <ele>6.400000095367431640625</ele>
        <time>2026-05-13T13:07:09.000Z</time>
        <extensions>
          <ns3:TrackPointExtension>
            <ns3:hr>143</ns3:hr>
            <ns3:cad>84</ns3:cad>
          </ns3:TrackPointExtension>
        </extensions>
      </trkpt>
      <trkpt lat="31.28476937301456928253173828125" lon="121.3710876367986202239990234375">
        <ele>6.400000095367431640625</ele>
        <time>2026-05-13T13:07:10.000Z</time>
        <extensions>
          <ns3:TrackPointExtension>
            <ns3:hr>144</ns3:hr>
            <ns3:cad>84</ns3:cad>
          </ns3:TrackPointExtension>
        </extensions>
      </trkpt>
      <trkpt lat="31.28477725200355052947998046875" lon="121.3710514269769191741943359375">
        <ele>6.400000095367431640625</ele>
        <time>2026-05-13T13:07:11.000Z</time>
        <extensions>
          <ns3:TrackPointExtension>
            <ns3:hr>144</ns3:hr>
            <ns3:cad>83</ns3:cad>
          </ns3:TrackPointExtension>
        </extensions>
      </trkpt>
      <trkpt lat="31.28479166887700557708740234375" lon="121.37101463042199611663818359375">
        <ele>6.19999980926513671875</ele>
        <time>2026-05-13T13:07:12.000Z</time>
        <extensions>
          <ns3:TrackPointExtension>
            <ns3:hr>144</ns3:hr>
            <ns3:cad>83</ns3:cad>
          </ns3:TrackPointExtension>
        </extensions>
      </trkpt>
      <trkpt lat="31.28480977378785610198974609375" lon="121.370976828038692474365234375">
        <ele>6.19999980926513671875</ele>
        <time>2026-05-13T13:07:13.000Z</time>
        <extensions>
          <ns3:TrackPointExtension>
            <ns3:hr>144</ns3:hr>
            <ns3:cad>82</ns3:cad>
          </ns3:TrackPointExtension>
        </extensions>
      </trkpt>
      <trkpt lat="31.28482921980321407318115234375" lon="121.37094204314053058624267578125">
        <ele>6.19999980926513671875</ele>
        <time>2026-05-13T13:07:14.000Z</time>
        <extensions>
          <ns3:TrackPointExtension>
            <ns3:hr>145</ns3:hr>
            <ns3:cad>82</ns3:cad>
          </ns3:TrackPointExtension>
        </extensions>
      </trkpt>
      <trkpt lat="31.28484967164695262908935546875" lon="121.370910108089447021484375">
        <ele>6.19999980926513671875</ele>
        <time>2026-05-13T13:07:15.000Z</time>
        <extensions>
          <ns3:TrackPointExtension>
            <ns3:hr>145</ns3:hr>
            <ns3:cad>82</ns3:cad>
          </ns3:TrackPointExtension>
        </extensions>
      </trkpt>
      <trkpt lat="31.2848730571568012237548828125" lon="121.370884291827678680419921875">
        <ele>6.400000095367431640625</ele>
        <time>2026-05-13T13:07:16.000Z</time>
        <extensions>
          <ns3:TrackPointExtension>
            <ns3:hr>146</ns3:hr>
            <ns3:cad>81</ns3:cad>
          </ns3:TrackPointExtension>
        </extensions>
      </trkpt>
      <trkpt lat="31.28489904105663299560546875" lon="121.37086107395589351654052734375">
        <ele>6.400000095367431640625</ele>
        <time>2026-05-13T13:07:17.000Z</time>
        <extensions>
          <ns3:TrackPointExtension>
            <ns3:hr>146</ns3:hr>
            <ns3:cad>81</ns3:cad>
          </ns3:TrackPointExtension>
        </extensions>
      </trkpt>
      <trkpt lat="31.28492644988000392913818359375" lon="121.37085353024303913116455078125">
        <ele>6.400000095367431640625</ele>
        <time>2026-05-13T13:07:18.000Z</time>
        <extensions>
          <ns3:TrackPointExtension>
            <ns3:hr>147</ns3:hr>
            <ns3:cad>82</ns3:cad>
          </ns3:TrackPointExtension>
        </extensions>
      </trkpt>
      <trkpt lat="31.28495511598885059356689453125" lon="121.3708539493381977081298828125">
        <ele>6.599999904632568359375</ele>
        <time>2026-05-13T13:07:19.000Z</time>
        <extensions>
          <ns3:TrackPointExtension>
            <ns3:hr>148</ns3:hr>
            <ns3:cad>83</ns3:cad>
          </ns3:TrackPointExtension>
        </extensions>
      </trkpt>
      <trkpt lat="31.2849840335547924041748046875" lon="121.3708643428981304168701171875">
        <ele>6.599999904632568359375</ele>
        <time>2026-05-13T13:07:20.000Z</time>
        <extensions>
          <ns3:TrackPointExtension>
            <ns3:hr>148</ns3:hr>
            <ns3:cad>83</ns3:cad>
          </ns3:TrackPointExtension>
        </extensions>
      </trkpt>
      <trkpt lat="31.285014040768146514892578125" lon="121.3708807714283466339111328125">
        <ele>6.599999904632568359375</ele>
        <time>2026-05-13T13:07:21.000Z</time>
        <extensions>
          <ns3:TrackPointExtension>
            <ns3:hr>148</ns3:hr>
            <ns3:cad>84</ns3:cad>
          </ns3:TrackPointExtension>
        </extensions>
      </trkpt>
      <trkpt lat="31.285042874515056610107421875" lon="121.3709028996527194976806640625">
        <ele>6.80000019073486328125</ele>
        <time>2026-05-13T13:07:22.000Z</time>
        <extensions>
          <ns3:TrackPointExtension>
            <ns3:hr>148</ns3:hr>
            <ns3:cad>84</ns3:cad>
          </ns3:TrackPointExtension>
        </extensions>
      </trkpt>
      <trkpt lat="31.28506860695779323577880859375" lon="121.3709320686757564544677734375">
        <ele>6.80000019073486328125</ele>
        <time>2026-05-13T13:07:23.000Z</time>
        <extensions>
          <ns3:TrackPointExtension>
            <ns3:hr>148</ns3:hr>
            <ns3:cad>84</ns3:cad>
          </ns3:TrackPointExtension>
        </extensions>
      </trkpt>
      <trkpt lat="31.28508671186864376068115234375" lon="121.37096651829779148101806640625">
        <ele>6.80000019073486328125</ele>
        <time>2026-05-13T13:07:24.000Z</time>
        <extensions>
          <ns3:TrackPointExtension>
            <ns3:hr>148</ns3:hr>
            <ns3:cad>83</ns3:cad>
          </ns3:TrackPointExtension>
        </extensions>
      </trkpt>
      <trkpt lat="31.2850966863334178924560546875" lon="121.37100624851882457733154296875">
        <ele>6.80000019073486328125</ele>
        <time>2026-05-13T13:07:25.000Z</time>
        <extensions>
          <ns3:TrackPointExtension>
            <ns3:hr>149</ns3:hr>
            <ns3:cad>83</ns3:cad>
          </ns3:TrackPointExtension>
        </extensions>
      </trkpt>
      <trkpt lat="31.28510154783725738525390625" lon="121.37104488909244537353515625">
        <ele>6.80000019073486328125</ele>
        <time>2026-05-13T13:07:26.000Z</time>
        <extensions>
          <ns3:TrackPointExtension>
            <ns3:hr>149</ns3:hr>
            <ns3:cad>83</ns3:cad>
          </ns3:TrackPointExtension>
        </extensions>
      </trkpt>
      <trkpt lat="31.2851035594940185546875" lon="121.37108403258025646209716796875">
        <ele>6.80000019073486328125</ele>
        <time>2026-05-13T13:07:27.000Z</time>
        <extensions>
          <ns3:TrackPointExtension>
            <ns3:hr>149</ns3:hr>
            <ns3:cad>82</ns3:cad>
          </ns3:TrackPointExtension>
        </extensions>
      </trkpt>
      <trkpt lat="31.28510431386530399322509765625" lon="121.37112074531614780426025390625">
        <ele>7</ele>
        <time>2026-05-13T13:07:28.000Z</time>
        <extensions>
          <ns3:TrackPointExtension>
            <ns3:hr>149</ns3:hr>
            <ns3:cad>82</ns3:cad>
          </ns3:TrackPointExtension>
        </extensions>
      </trkpt>
      <trkpt lat="31.28510682843625545501708984375" lon="121.3711577095091342926025390625">
        <ele>7.19999980926513671875</ele>
        <time>2026-05-13T13:07:29.000Z</time>
        <extensions>
          <ns3:TrackPointExtension>
            <ns3:hr>150</ns3:hr>
            <ns3:cad>82</ns3:cad>
          </ns3:TrackPointExtension>
        </extensions>
      </trkpt>
      <trkpt lat="31.28511101938784122467041015625" lon="121.3711912371218204498291015625">
        <ele>7.19999980926513671875</ele>
        <time>2026-05-13T13:07:30.000Z</time>
        <extensions>
          <ns3:TrackPointExtension>
            <ns3:hr>151</ns3:hr>
            <ns3:cad>82</ns3:cad>
          </ns3:TrackPointExtension>
        </extensions>
      </trkpt>
      <trkpt lat="31.28512258641421794891357421875" lon="121.37121881358325481414794921875">
        <ele>7.19999980926513671875</ele>
        <time>2026-05-13T13:07:31.000Z</time>
        <extensions>
          <ns3:TrackPointExtension>
            <ns3:hr>151</ns3:hr>
            <ns3:cad>82</ns3:cad>
          </ns3:TrackPointExtension>
        </extensions>
      </trkpt>
      <trkpt lat="31.28514043986797332763671875" lon="121.37124069035053253173828125">
        <ele>7.19999980926513671875</ele>
        <time>2026-05-13T13:07:32.000Z</time>
        <extensions>
          <ns3:TrackPointExtension>
            <ns3:hr>151</ns3:hr>
            <ns3:cad>82</ns3:cad>
          </ns3:TrackPointExtension>
        </extensions>
      </trkpt>
      <trkpt lat="31.28516265191137790679931640625" lon="121.37125753797590732574462890625">
        <ele>7.19999980926513671875</ele>
        <time>2026-05-13T13:07:33.000Z</time>
        <extensions>
          <ns3:TrackPointExtension>
            <ns3:hr>151</ns3:hr>
            <ns3:cad>82</ns3:cad>
          </ns3:TrackPointExtension>
        </extensions>
      </trkpt>
      <trkpt lat="31.28518846817314624786376953125" lon="121.37127019464969635009765625">
        <ele>7.19999980926513671875</ele>
        <time>2026-05-13T13:07:34.000Z</time>
        <extensions>
          <ns3:TrackPointExtension>
            <ns3:hr>150</ns3:hr>
            <ns3:cad>82</ns3:cad>
          </ns3:TrackPointExtension>
        </extensions>
      </trkpt>
      <trkpt lat="31.2852183915674686431884765625" lon="121.3712787441909313201904296875">
        <ele>7</ele>
        <time>2026-05-13T13:07:35.000Z</time>
        <extensions>
          <ns3:TrackPointExtension>
            <ns3:hr>151</ns3:hr>
            <ns3:cad>82</ns3:cad>
          </ns3:TrackPointExtension>
        </extensions>
      </trkpt>
      <trkpt lat="31.2852497398853302001953125" lon="121.37128788046538829803466796875">
        <ele>7</ele>
        <time>2026-05-13T13:07:36.000Z</time>
        <extensions>
          <ns3:TrackPointExtension>
            <ns3:hr>151</ns3:hr>
            <ns3:cad>82</ns3:cad>
          </ns3:TrackPointExtension>
        </extensions>
      </trkpt>
      <trkpt lat="31.2852834351360797882080078125" lon="121.37129575945436954498291015625">
        <ele>7</ele>
        <time>2026-05-13T13:07:37.000Z</time>
        <extensions>
          <ns3:TrackPointExtension>
            <ns3:hr>151</ns3:hr>
            <ns3:cad>82</ns3:cad>
          </ns3:TrackPointExtension>
        </extensions>
      </trkpt>
      <trkpt lat="31.28531604073941707611083984375" lon="121.37130347080528736114501953125">
        <ele>7</ele>
        <time>2026-05-13T13:07:38.000Z</time>
        <extensions>
          <ns3:TrackPointExtension>
            <ns3:hr>151</ns3:hr>
            <ns3:cad>83</ns3:cad>
          </ns3:TrackPointExtension>
        </extensions>
      </trkpt>
      <trkpt lat="31.28534856252372264862060546875" lon="121.37130984105169773101806640625">
        <ele>7</ele>
        <time>2026-05-13T13:07:39.000Z</time>
        <extensions>
          <ns3:TrackPointExtension>
            <ns3:hr>151</ns3:hr>
            <ns3:cad>83</ns3:cad>
          </ns3:TrackPointExtension>
        </extensions>
      </trkpt>
      <trkpt lat="31.285379827022552490234375" lon="121.3713193126022815704345703125">
        <ele>7</ele>
        <time>2026-05-13T13:07:40.000Z</time>
        <extensions>
          <ns3:TrackPointExtension>
            <ns3:hr>151</ns3:hr>
            <ns3:cad>83</ns3:cad>
          </ns3:TrackPointExtension>
        </extensions>
      </trkpt>
      <trkpt lat="31.28540505655109882354736328125" lon="121.3713352382183074951171875">
        <ele>6.80000019073486328125</ele>
        <time>2026-05-13T13:07:41.000Z</time>
        <extensions>
          <ns3:TrackPointExtension>
            <ns3:hr>152</ns3:hr>
            <ns3:cad>83</ns3:cad>
          </ns3:TrackPointExtension>
        </extensions>
      </trkpt>
      <trkpt lat="31.2854215689003467559814453125" lon="121.37135996483266353607177734375">
        <ele>6.599999904632568359375</ele>
        <time>2026-05-13T13:07:42.000Z</time>
        <extensions>
          <ns3:TrackPointExtension>
            <ns3:hr>152</ns3:hr>
            <ns3:cad>83</ns3:cad>
          </ns3:TrackPointExtension>
        </extensions>
      </trkpt>
      <trkpt lat="31.2854333035647869110107421875" lon="121.37138779275119304656982421875">
        <ele>6.400000095367431640625</ele>
        <time>2026-05-13T13:07:43.000Z</time>
        <extensions>
          <ns3:TrackPointExtension>
            <ns3:hr>152</ns3:hr>
            <ns3:cad>84</ns3:cad>
          </ns3:TrackPointExtension>
        </extensions>
      </trkpt>
      <trkpt lat="31.2854423560202121734619140625" lon="121.37141863815486431121826171875">
        <ele>6.400000095367431640625</ele>
        <time>2026-05-13T13:07:44.000Z</time>
        <extensions>
          <ns3:TrackPointExtension>
            <ns3:hr>152</ns3:hr>
            <ns3:cad>84</ns3:cad>
          </ns3:TrackPointExtension>
        </extensions>
      </trkpt>
      <trkpt lat="31.28544964827597141265869140625" lon="121.3714478909969329833984375">
        <ele>6.19999980926513671875</ele>
        <time>2026-05-13T13:07:45.000Z</time>
        <extensions>
          <ns3:TrackPointExtension>
            <ns3:hr>153</ns3:hr>
            <ns3:cad>84</ns3:cad>
          </ns3:TrackPointExtension>
        </extensions>
      </trkpt>
      <trkpt lat="31.2854571081697940826416015625" lon="121.3714802451431751251220703125">
        <ele>6.400000095367431640625</ele>
        <time>2026-05-13T13:07:46.000Z</time>
        <extensions>
          <ns3:TrackPointExtension>
            <ns3:hr>154</ns3:hr>
            <ns3:cad>83</ns3:cad>
          </ns3:TrackPointExtension>
        </extensions>
      </trkpt>
      <trkpt lat="31.28546272404491901397705078125" lon="121.3715122640132904052734375">
        <ele>6.400000095367431640625</ele>
        <time>2026-05-13T13:07:47.000Z</time>
        <extensions>
          <ns3:TrackPointExtension>
            <ns3:hr>154</ns3:hr>
            <ns3:cad>83</ns3:cad>
          </ns3:TrackPointExtension>
        </extensions>
      </trkpt>
      <trkpt lat="31.285470016300678253173828125" lon="121.3715442828834056854248046875">
        <ele>6.400000095367431640625</ele>
        <time>2026-05-13T13:07:48.000Z</time>
        <extensions>
          <ns3:TrackPointExtension>
            <ns3:hr>154</ns3:hr>
            <ns3:cad>83</ns3:cad>
          </ns3:TrackPointExtension>
        </extensions>
      </trkpt>
      <trkpt lat="31.28547932021319866180419921875" lon="121.371574290096759796142578125">
        <ele>6.599999904632568359375</ele>
        <time>2026-05-13T13:07:49.000Z</time>
        <extensions>
          <ns3:TrackPointExtension>
            <ns3:hr>155</ns3:hr>
            <ns3:cad>83</ns3:cad>
          </ns3:TrackPointExtension>
        </extensions>
      </trkpt>
      <trkpt lat="31.28549055196344852447509765625" lon="121.37160136364400386810302734375">
        <ele>6.599999904632568359375</ele>
        <time>2026-05-13T13:07:50.000Z</time>
        <extensions>
          <ns3:TrackPointExtension>
            <ns3:hr>155</ns3:hr>
            <ns3:cad>83</ns3:cad>
          </ns3:TrackPointExtension>
        </extensions>
      </trkpt>
      <trkpt lat="31.28550664521753787994384765625" lon="121.371624581515789031982421875">
        <ele>6.599999904632568359375</ele>
        <time>2026-05-13T13:07:51.000Z</time>
        <extensions>
          <ns3:TrackPointExtension>
            <ns3:hr>155</ns3:hr>
            <ns3:cad>83</ns3:cad>
          </ns3:TrackPointExtension>
        </extensions>
      </trkpt>
      <trkpt lat="31.2855260074138641357421875" lon="121.37164846993982791900634765625">
        <ele>6.80000019073486328125</ele>
        <time>2026-05-13T13:07:52.000Z</time>
        <extensions>
          <ns3:TrackPointExtension>
            <ns3:hr>155</ns3:hr>
            <ns3:cad>83</ns3:cad>
          </ns3:TrackPointExtension>
        </extensions>
      </trkpt>
      <trkpt lat="31.28554486669600009918212890625" lon="121.37167093344032764434814453125">
        <ele>6.80000019073486328125</ele>
        <time>2026-05-13T13:07:53.000Z</time>
        <extensions>
          <ns3:TrackPointExtension>
            <ns3:hr>155</ns3:hr>
            <ns3:cad>83</ns3:cad>
          </ns3:TrackPointExtension>
        </extensions>
      </trkpt>
      <trkpt lat="31.2855620495975017547607421875" lon="121.371695995330810546875">
        <ele>6.80000019073486328125</ele>
        <time>2026-05-13T13:07:54.000Z</time>
        <extensions>
          <ns3:TrackPointExtension>
            <ns3:hr>155</ns3:hr>
            <ns3:cad>83</ns3:cad>
          </ns3:TrackPointExtension>
        </extensions>
      </trkpt>
      <trkpt lat="31.2855764664709568023681640625" lon="121.371725499629974365234375">
        <ele>6.80000019073486328125</ele>
        <time>2026-05-13T13:07:55.000Z</time>
        <extensions>
          <ns3:TrackPointExtension>
            <ns3:hr>155</ns3:hr>
            <ns3:cad>83</ns3:cad>
          </ns3:TrackPointExtension>
        </extensions>
      </trkpt>
      <trkpt lat="31.2855865247547626495361328125" lon="121.37176078744232654571533203125">
        <ele>6.599999904632568359375</ele>
        <time>2026-05-13T13:07:56.000Z</time>
        <extensions>
          <ns3:TrackPointExtension>
            <ns3:hr>155</ns3:hr>
            <ns3:cad>83</ns3:cad>
          </ns3:TrackPointExtension>
        </extensions>
      </trkpt>
      <trkpt lat="31.28558828495442867279052734375" lon="121.37180135585367679595947265625">
        <ele>6.599999904632568359375</ele>
        <time>2026-05-13T13:07:57.000Z</time>
        <extensions>
          <ns3:TrackPointExtension>
            <ns3:hr>155</ns3:hr>
            <ns3:cad>83</ns3:cad>
          </ns3:TrackPointExtension>
        </extensions>
      </trkpt>
      <trkpt lat="31.2855855189263820648193359375" lon="121.3718423433601856231689453125">
        <ele>6.400000095367431640625</ele>
        <time>2026-05-13T13:07:58.000Z</time>
        <extensions>
          <ns3:TrackPointExtension>
            <ns3:hr>155</ns3:hr>
            <ns3:cad>83</ns3:cad>
          </ns3:TrackPointExtension>
        </extensions>
      </trkpt>
      <trkpt lat="31.285578310489654541015625" lon="121.37188433669507503509521484375">
        <ele>6.19999980926513671875</ele>
        <time>2026-05-13T13:07:59.000Z</time>
        <extensions>
          <ns3:TrackPointExtension>
            <ns3:hr>155</ns3:hr>
            <ns3:cad>84</ns3:cad>
          </ns3:TrackPointExtension>
        </extensions>
      </trkpt>
      <trkpt lat="31.2855662405490875244140625" lon="121.371927000582218170166015625">
        <ele>6.400000095367431640625</ele>
        <time>2026-05-13T13:08:00.000Z</time>
        <extensions>
          <ns3:TrackPointExtension>
            <ns3:hr>155</ns3:hr>
            <ns3:cad>84</ns3:cad>
          </ns3:TrackPointExtension>
        </extensions>
      </trkpt>
      <trkpt lat="31.285551488399505615234375" lon="121.3719630427658557891845703125">
        <ele>6.400000095367431640625</ele>
        <time>2026-05-13T13:08:01.000Z</time>
        <extensions>
          <ns3:TrackPointExtension>
            <ns3:hr>155</ns3:hr>
            <ns3:cad>84</ns3:cad>
          </ns3:TrackPointExtension>
        </extensions>
      </trkpt>
      <trkpt lat="31.28552810288965702056884765625" lon="121.37199313379824161529541015625">
        <ele>6.400000095367431640625</ele>
        <time>2026-05-13T13:08:02.000Z</time>
        <extensions>
          <ns3:TrackPointExtension>
            <ns3:hr>155</ns3:hr>
            <ns3:cad>83</ns3:cad>
          </ns3:TrackPointExtension>
        </extensions>
      </trkpt>
      <trkpt lat="31.28550387918949127197265625" lon="121.372012160718441009521484375">
        <ele>6.599999904632568359375</ele>
        <time>2026-05-13T13:08:03.000Z</time>
        <extensions>
          <ns3:TrackPointExtension>
            <ns3:hr>155</ns3:hr>
            <ns3:cad>83</ns3:cad>
          </ns3:TrackPointExtension>
        </extensions>
      </trkpt>
      <trkpt lat="31.28547630272805690765380859375" lon="121.3720227219164371490478515625">
        <ele>6.80000019073486328125</ele>
        <time>2026-05-13T13:08:04.000Z</time>
        <extensions>
          <ns3:TrackPointExtension>
            <ns3:hr>155</ns3:hr>
            <ns3:cad>83</ns3:cad>
          </ns3:TrackPointExtension>
        </extensions>
      </trkpt>
      <trkpt lat="31.2854497320950031280517578125" lon="121.372026242315769195556640625">
        <ele>7</ele>
        <time>2026-05-13T13:08:05.000Z</time>
        <extensions>
          <ns3:TrackPointExtension>
            <ns3:hr>156</ns3:hr>
            <ns3:cad>84</ns3:cad>
          </ns3:TrackPointExtension>
        </extensions>
      </trkpt>
      <trkpt lat="31.285419054329395294189453125" lon="121.37202381156384944915771484375">
        <ele>7</ele>
        <time>2026-05-13T13:08:06.000Z</time>
        <extensions>
          <ns3:TrackPointExtension>
            <ns3:hr>156</ns3:hr>
            <ns3:cad>84</ns3:cad>
          </ns3:TrackPointExtension>
        </extensions>
      </trkpt>
      <trkpt lat="31.2853860296308994293212890625" lon="121.37201987206935882568359375">
        <ele>7</ele>
        <time>2026-05-13T13:08:07.000Z</time>
        <extensions>
          <ns3:TrackPointExtension>
            <ns3:hr>156</ns3:hr>
            <ns3:cad>84</ns3:cad>
          </ns3:TrackPointExtension>
        </extensions>
      </trkpt>
      <trkpt lat="31.28535174764692783355712890625" lon="121.37201584875583648681640625">
        <ele>7</ele>
        <time>2026-05-13T13:08:08.000Z</time>
        <extensions>
          <ns3:TrackPointExtension>
            <ns3:hr>155</ns3:hr>
            <ns3:cad>84</ns3:cad>
          </ns3:TrackPointExtension>
        </extensions>
      </trkpt>
      <trkpt lat="31.2853169627487659454345703125" lon="121.3720093108713626861572265625">
        <ele>7</ele>
        <time>2026-05-13T13:08:09.000Z</time>
        <extensions>
          <ns3:TrackPointExtension>
            <ns3:hr>155</ns3:hr>
            <ns3:cad>84</ns3:cad>
          </ns3:TrackPointExtension>
        </extensions>
      </trkpt>
      <trkpt lat="31.28528050146996974945068359375" lon="121.37200470082461833953857421875">
        <ele>6.80000019073486328125</ele>
        <time>2026-05-13T13:08:10.000Z</time>
        <extensions>
          <ns3:TrackPointExtension>
            <ns3:hr>155</ns3:hr>
            <ns3:cad>84</ns3:cad>
          </ns3:TrackPointExtension>
        </extensions>
      </trkpt>
      <trkpt lat="31.2852418608963489532470703125" lon="121.3720019347965717315673828125">
        <ele>7</ele>
        <time>2026-05-13T13:08:11.000Z</time>
        <extensions>
          <ns3:TrackPointExtension>
            <ns3:hr>155</ns3:hr>
            <ns3:cad>85</ns3:cad>
          </ns3:TrackPointExtension>
        </extensions>
      </trkpt>
      <trkpt lat="31.285201795399188995361328125" lon="121.3720002584159374237060546875">
        <ele>7</ele>
        <time>2026-05-13T13:08:12.000Z</time>
        <extensions>
          <ns3:TrackPointExtension>
            <ns3:hr>155</ns3:hr>
            <ns3:cad>85</ns3:cad>
          </ns3:TrackPointExtension>
        </extensions>
      </trkpt>
      <trkpt lat="31.285162903368473052978515625" lon="121.37199749238789081573486328125">
        <ele>7</ele>
        <time>2026-05-13T13:08:13.000Z</time>
        <extensions>
          <ns3:TrackPointExtension>
            <ns3:hr>156</ns3:hr>
            <ns3:cad>85</ns3:cad>
          </ns3:TrackPointExtension>
        </extensions>
      </trkpt>
      <trkpt lat="31.28512392751872539520263671875" lon="121.37199413962662220001220703125">
        <ele>7</ele>
        <time>2026-05-13T13:08:14.000Z</time>
        <extensions>
          <ns3:TrackPointExtension>
            <ns3:hr>157</ns3:hr>
            <ns3:cad>85</ns3:cad>
          </ns3:TrackPointExtension>
        </extensions>
      </trkpt>
      <trkpt lat="31.2850846163928508758544921875" lon="121.37199028395116329193115234375">
        <ele>7</ele>
        <time>2026-05-13T13:08:15.000Z</time>
        <extensions>
          <ns3:TrackPointExtension>
            <ns3:hr>157</ns3:hr>
            <ns3:cad>84</ns3:cad>
          </ns3:TrackPointExtension>
        </extensions>
      </trkpt>
      <trkpt lat="31.285047568380832672119140625" lon="121.3719875179231166839599609375">
        <ele>7</ele>
        <time>2026-05-13T13:08:16.000Z</time>
        <extensions>
          <ns3:TrackPointExtension>
            <ns3:hr>157</ns3:hr>
            <ns3:cad>84</ns3:cad>
          </ns3:TrackPointExtension>
        </extensions>
      </trkpt>
      <trkpt lat="31.2850128673017024993896484375" lon="121.371981985867023468017578125">
        <ele>6.80000019073486328125</ele>
        <time>2026-05-13T13:08:17.000Z</time>
        <extensions>
          <ns3:TrackPointExtension>
            <ns3:hr>157</ns3:hr>
            <ns3:cad>84</ns3:cad>
          </ns3:TrackPointExtension>
        </extensions>
      </trkpt>
      <trkpt lat="31.28498160280287265777587890625" lon="121.37197502888739109039306640625">
        <ele>7</ele>
        <time>2026-05-13T13:08:18.000Z</time>
        <extensions>
          <ns3:TrackPointExtension>
            <ns3:hr>157</ns3:hr>
            <ns3:cad>84</ns3:cad>
          </ns3:TrackPointExtension>
        </extensions>
      </trkpt>
      <trkpt lat="31.28495209850370883941650390625" lon="121.37196748517453670501708984375">
        <ele>7</ele>
        <time>2026-05-13T13:08:19.000Z</time>
        <extensions>
          <ns3:TrackPointExtension>
            <ns3:hr>157</ns3:hr>
            <ns3:cad>84</ns3:cad>
          </ns3:TrackPointExtension>
        </extensions>
      </trkpt>
      <trkpt lat="31.28492443822324275970458984375" lon="121.3719623722136020660400390625">
        <ele>7</ele>
        <time>2026-05-13T13:08:20.000Z</time>
        <extensions>
          <ns3:TrackPointExtension>
            <ns3:hr>157</ns3:hr>
            <ns3:cad>83</ns3:cad>
          </ns3:TrackPointExtension>
        </extensions>
      </trkpt>
      <trkpt lat="31.2848982028663158416748046875" lon="121.37196010909974575042724609375">
        <ele>7</ele>
        <time>2026-05-13T13:08:21.000Z</time>
        <extensions>
          <ns3:TrackPointExtension>
            <ns3:hr>157</ns3:hr>
            <ns3:cad>83</ns3:cad>
          </ns3:TrackPointExtension>
        </extensions>
      </trkpt>
      <trkpt lat="31.2848717160522937774658203125" lon="121.3719583489000797271728515625">
        <ele>7</ele>
        <time>2026-05-13T13:08:22.000Z</time>
        <extensions>
          <ns3:TrackPointExtension>
            <ns3:hr>158</ns3:hr>
            <ns3:cad>83</ns3:cad>
          </ns3:TrackPointExtension>
        </extensions>
      </trkpt>
      <trkpt lat="31.28484128974378108978271484375" lon="121.37195415794849395751953125">
        <ele>6.80000019073486328125</ele>
        <time>2026-05-13T13:08:23.000Z</time>
        <extensions>
          <ns3:TrackPointExtension>
            <ns3:hr>158</ns3:hr>
            <ns3:cad>83</ns3:cad>
          </ns3:TrackPointExtension>
        </extensions>
      </trkpt>
      <trkpt lat="31.284810863435268402099609375" lon="121.3719469495117664337158203125">
        <ele>6.80000019073486328125</ele>
        <time>2026-05-13T13:08:24.000Z</time>
        <extensions>
          <ns3:TrackPointExtension>
            <ns3:hr>158</ns3:hr>
            <ns3:cad>83</ns3:cad>
          </ns3:TrackPointExtension>
        </extensions>
      </trkpt>
      <trkpt lat="31.2847815267741680145263671875" lon="121.37193563394248485565185546875">
        <ele>6.80000019073486328125</ele>
        <time>2026-05-13T13:08:25.000Z</time>
        <extensions>
          <ns3:TrackPointExtension>
            <ns3:hr>157</ns3:hr>
            <ns3:cad>83</ns3:cad>
          </ns3:TrackPointExtension>
        </extensions>
      </trkpt>
      <trkpt lat="31.28475428558886051177978515625" lon="121.3719187863171100616455078125">
        <ele>6.80000019073486328125</ele>
        <time>2026-05-13T13:08:26.000Z</time>
        <extensions>
          <ns3:TrackPointExtension>
            <ns3:hr>158</ns3:hr>
            <ns3:cad>83</ns3:cad>
          </ns3:TrackPointExtension>
        </extensions>
      </trkpt>
      <trkpt lat="31.28473266027867794036865234375" lon="121.37189447879791259765625">
        <ele>6.80000019073486328125</ele>
        <time>2026-05-13T13:08:27.000Z</time>
        <extensions>
          <ns3:TrackPointExtension>
            <ns3:hr>158</ns3:hr>
            <ns3:cad>84</ns3:cad>
          </ns3:TrackPointExtension>
        </extensions>
      </trkpt>
      <trkpt lat="31.28471572883427143096923828125" lon="121.37186455540359020233154296875">
        <ele>6.80000019073486328125</ele>
        <time>2026-05-13T13:08:28.000Z</time>
        <extensions>
          <ns3:TrackPointExtension>
            <ns3:hr>157</ns3:hr>
            <ns3:cad>84</ns3:cad>
          </ns3:TrackPointExtension>
        </extensions>
      </trkpt>
      <trkpt lat="31.284705586731433868408203125" lon="121.371831111609935760498046875">
        <ele>6.80000019073486328125</ele>
        <time>2026-05-13T13:08:29.000Z</time>
        <extensions>
          <ns3:TrackPointExtension>
            <ns3:hr>158</ns3:hr>
            <ns3:cad>84</ns3:cad>
          </ns3:TrackPointExtension>
        </extensions>
      </trkpt>
      <trkpt lat="31.2847057543694972991943359375" lon="121.3717960752546787261962890625">
        <ele>7</ele>
        <time>2026-05-13T13:08:30.000Z</time>
        <extensions>
          <ns3:TrackPointExtension>
            <ns3:hr>158</ns3:hr>
            <ns3:cad>84</ns3:cad>
          </ns3:TrackPointExtension>
        </extensions>
      </trkpt>
      <trkpt lat="31.28471271134912967681884765625" lon="121.3717591948807239532470703125">
        <ele>7</ele>
        <time>2026-05-13T13:08:31.000Z</time>
        <extensions>
          <ns3:TrackPointExtension>
            <ns3:hr>158</ns3:hr>
            <ns3:cad>84</ns3:cad>
          </ns3:TrackPointExtension>
        </extensions>
      </trkpt>
      <trkpt lat="31.28472193144261837005615234375" lon="121.3717243261635303497314453125">
        <ele>7</ele>
        <time>2026-05-13T13:08:32.000Z</time>
        <extensions>
          <ns3:TrackPointExtension>
            <ns3:hr>157</ns3:hr>
            <ns3:cad>84</ns3:cad>
          </ns3:TrackPointExtension>
        </extensions>
      </trkpt>
      <trkpt lat="31.2847342528402805328369140625" lon="121.371686942875385284423828125">
        <ele>7</ele>
        <time>2026-05-13T13:08:33.000Z</time>
        <extensions>
          <ns3:TrackPointExtension>
            <ns3:hr>158</ns3:hr>
            <ns3:cad>84</ns3:cad>
          </ns3:TrackPointExtension>
        </extensions>
      </trkpt>
      <trkpt lat="31.28474657423794269561767578125" lon="121.371650733053684234619140625">
        <ele>7</ele>
        <time>2026-05-13T13:08:34.000Z</time>
        <extensions>
          <ns3:TrackPointExtension>
            <ns3:hr>158</ns3:hr>
            <ns3:cad>84</ns3:cad>
          </ns3:TrackPointExtension>
        </extensions>
      </trkpt>
      <trkpt lat="31.2847587279975414276123046875" lon="121.37161393649876117706298828125">
        <ele>7</ele>
        <time>2026-05-13T13:08:35.000Z</time>
        <extensions>
          <ns3:TrackPointExtension>
            <ns3:hr>158</ns3:hr>
            <ns3:cad>85</ns3:cad>
          </ns3:TrackPointExtension>
        </extensions>
      </trkpt>
      <trkpt lat="31.28476752899587154388427734375" lon="121.37157621793448925018310546875">
        <ele>7.19999980926513671875</ele>
        <time>2026-05-13T13:08:36.000Z</time>
        <extensions>
          <ns3:TrackPointExtension>
            <ns3:hr>158</ns3:hr>
            <ns3:cad>85</ns3:cad>
          </ns3:TrackPointExtension>
        </extensions>
      </trkpt>
      <trkpt lat="31.28477356396615505218505859375" lon="121.37153766117990016937255859375">
        <ele>7.19999980926513671875</ele>
        <time>2026-05-13T13:08:37.000Z</time>
        <extensions>
          <ns3:TrackPointExtension>
            <ns3:hr>158</ns3:hr>
            <ns3:cad>84</ns3:cad>
          </ns3:TrackPointExtension>
        </extensions>
      </trkpt>
      <trkpt lat="31.2847795151174068450927734375" lon="121.371496506035327911376953125">
        <ele>7.19999980926513671875</ele>
        <time>2026-05-13T13:08:38.000Z</time>
        <extensions>
          <ns3:TrackPointExtension>
            <ns3:hr>158</ns3:hr>
            <ns3:cad>83</ns3:cad>
          </ns3:TrackPointExtension>
        </extensions>
      </trkpt>
      <trkpt lat="31.284784376621246337890625" lon="121.37145660817623138427734375">
        <ele>7.19999980926513671875</ele>
        <time>2026-05-13T13:08:39.000Z</time>
        <extensions>
          <ns3:TrackPointExtension>
            <ns3:hr>158</ns3:hr>
            <ns3:cad>83</ns3:cad>
          </ns3:TrackPointExtension>
        </extensions>
      </trkpt>
      <trkpt lat="31.28478731028735637664794921875" lon="121.3714162074029445648193359375">
        <ele>7.19999980926513671875</ele>
        <time>2026-05-13T13:08:40.000Z</time>
        <extensions>
          <ns3:TrackPointExtension>
            <ns3:hr>159</ns3:hr>
            <ns3:cad>84</ns3:cad>
          </ns3:TrackPointExtension>
        </extensions>
      </trkpt>
      <trkpt lat="31.28478764556348323822021484375" lon="121.3713781535625457763671875">
        <ele>7.19999980926513671875</ele>
        <time>2026-05-13T13:08:41.000Z</time>
        <extensions>
          <ns3:TrackPointExtension>
            <ns3:hr>159</ns3:hr>
            <ns3:cad>84</ns3:cad>
          </ns3:TrackPointExtension>
        </extensions>
      </trkpt>
      <trkpt lat="31.2847875617444515228271484375" lon="121.37134286575019359588623046875">
        <ele>7.19999980926513671875</ele>
        <time>2026-05-13T13:08:42.000Z</time>
        <extensions>
          <ns3:TrackPointExtension>
            <ns3:hr>159</ns3:hr>
            <ns3:cad>84</ns3:cad>
          </ns3:TrackPointExtension>
        </extensions>
      </trkpt>
      <trkpt lat="31.28478479571640491485595703125" lon="121.37130950577557086944580078125">
        <ele>7.19999980926513671875</ele>
        <time>2026-05-13T13:08:43.000Z</time>
        <extensions>
          <ns3:TrackPointExtension>
            <ns3:hr>160</ns3:hr>
            <ns3:cad>84</ns3:cad>
          </ns3:TrackPointExtension>
        </extensions>
      </trkpt>
      <trkpt lat="31.28478177823126316070556640625" lon="121.3712777383625507354736328125">
        <ele>7.19999980926513671875</ele>
        <time>2026-05-13T13:08:44.000Z</time>
        <extensions>
          <ns3:TrackPointExtension>
            <ns3:hr>160</ns3:hr>
            <ns3:cad>84</ns3:cad>
          </ns3:TrackPointExtension>
        </extensions>
      </trkpt>
      <trkpt lat="31.2847776710987091064453125" lon="121.37124295346438884735107421875">
        <ele>7.19999980926513671875</ele>
        <time>2026-05-13T13:08:45.000Z</time>
        <extensions>
          <ns3:TrackPointExtension>
            <ns3:hr>161</ns3:hr>
            <ns3:cad>84</ns3:cad>
          </ns3:TrackPointExtension>
        </extensions>
      </trkpt>
      <trkpt lat="31.28477322869002819061279296875" lon="121.37120892293751239776611328125">
        <ele>7.19999980926513671875</ele>
        <time>2026-05-13T13:08:46.000Z</time>
        <extensions>
          <ns3:TrackPointExtension>
            <ns3:hr>161</ns3:hr>
            <ns3:cad>84</ns3:cad>
          </ns3:TrackPointExtension>
        </extensions>
      </trkpt>
      <trkpt lat="31.284770630300045013427734375" lon="121.3711738027632236480712890625">
        <ele>7.19999980926513671875</ele>
        <time>2026-05-13T13:08:47.000Z</time>
        <extensions>
          <ns3:TrackPointExtension>
            <ns3:hr>162</ns3:hr>
            <ns3:cad>84</ns3:cad>
          </ns3:TrackPointExtension>
        </extensions>
      </trkpt>
      <trkpt lat="31.28476627171039581298828125" lon="121.3711406104266643524169921875">
        <ele>7.19999980926513671875</ele>
        <time>2026-05-13T13:08:48.000Z</time>
        <extensions>
          <ns3:TrackPointExtension>
            <ns3:hr>162</ns3:hr>
            <ns3:cad>84</ns3:cad>
          </ns3:TrackPointExtension>
        </extensions>
      </trkpt>
      <trkpt lat="31.2847634218633174896240234375" lon="121.37110113166272640228271484375">
        <ele>7.19999980926513671875</ele>
        <time>2026-05-13T13:08:49.000Z</time>
        <extensions>
          <ns3:TrackPointExtension>
            <ns3:hr>162</ns3:hr>
            <ns3:cad>84</ns3:cad>
          </ns3:TrackPointExtension>
        </extensions>
      </trkpt>
      <trkpt lat="31.28476333804428577423095703125" lon="121.37106307782232761383056640625">
        <ele>7.19999980926513671875</ele>
        <time>2026-05-13T13:08:50.000Z</time>
        <extensions>
          <ns3:TrackPointExtension>
            <ns3:hr>162</ns3:hr>
            <ns3:cad>84</ns3:cad>
          </ns3:TrackPointExtension>
        </extensions>
      </trkpt>
      <trkpt lat="31.284768618643283843994140625" lon="121.371021084487438201904296875">
        <ele>7.19999980926513671875</ele>
        <time>2026-05-13T13:08:51.000Z</time>
        <extensions>
          <ns3:TrackPointExtension>
            <ns3:hr>161</ns3:hr>
            <ns3:cad>84</ns3:cad>
          </ns3:TrackPointExtension>
        </extensions>
      </trkpt>
      <trkpt lat="31.28477792255580425262451171875" lon="121.37098194099962711334228515625">
        <ele>7</ele>
        <time>2026-05-13T13:08:52.000Z</time>
        <extensions>
          <ns3:TrackPointExtension>
            <ns3:hr>162</ns3:hr>
            <ns3:cad>84</ns3:cad>
          </ns3:TrackPointExtension>
        </extensions>
      </trkpt>
      <trkpt lat="31.284792423248291015625" lon="121.37094455771148204803466796875">
        <ele>7</ele>
        <time>2026-05-13T13:08:53.000Z</time>
        <extensions>
          <ns3:TrackPointExtension>
            <ns3:hr>162</ns3:hr>
            <ns3:cad>84</ns3:cad>
          </ns3:TrackPointExtension>
        </extensions>
      </trkpt>
      <trkpt lat="31.28481111489236354827880859375" lon="121.37090952135622501373291015625">
        <ele>7.19999980926513671875</ele>
        <time>2026-05-13T13:08:54.000Z</time>
        <extensions>
          <ns3:TrackPointExtension>
            <ns3:hr>162</ns3:hr>
            <ns3:cad>84</ns3:cad>
          </ns3:TrackPointExtension>
        </extensions>
      </trkpt>
      <trkpt lat="31.284835338592529296875" lon="121.3708814419806003570556640625">
        <ele>7.19999980926513671875</ele>
        <time>2026-05-13T13:08:55.000Z</time>
        <extensions>
          <ns3:TrackPointExtension>
            <ns3:hr>162</ns3:hr>
            <ns3:cad>84</ns3:cad>
          </ns3:TrackPointExtension>
        </extensions>
      </trkpt>
      <trkpt lat="31.28486257977783679962158203125" lon="121.37086308561265468597412109375">
        <ele>7.19999980926513671875</ele>
        <time>2026-05-13T13:08:56.000Z</time>
        <extensions>
          <ns3:TrackPointExtension>
            <ns3:hr>163</ns3:hr>
            <ns3:cad>84</ns3:cad>
          </ns3:TrackPointExtension>
        </extensions>
      </trkpt>
      <trkpt lat="31.2848955206573009490966796875" lon="121.37085101567208766937255859375">
        <ele>7.19999980926513671875</ele>
        <time>2026-05-13T13:08:57.000Z</time>
        <extensions>
          <ns3:TrackPointExtension>
            <ns3:hr>163</ns3:hr>
            <ns3:cad>84</ns3:cad>
          </ns3:TrackPointExtension>
        </extensions>
      </trkpt>
      <trkpt lat="31.2849307246506214141845703125" lon="121.37084933929145336151123046875">
        <ele>7.19999980926513671875</ele>
        <time>2026-05-13T13:08:58.000Z</time>
        <extensions>
          <ns3:TrackPointExtension>
            <ns3:hr>164</ns3:hr>
            <ns3:cad>85</ns3:cad>
          </ns3:TrackPointExtension>
        </extensions>
      </trkpt>
      <trkpt lat="31.28496366553008556365966796875" lon="121.37085788883268833160400390625">
        <ele>7</ele>
        <time>2026-05-13T13:08:59.000Z</time>
        <extensions>
          <ns3:TrackPointExtension>
            <ns3:hr>164</ns3:hr>
            <ns3:cad>85</ns3:cad>
          </ns3:TrackPointExtension>
        </extensions>
      </trkpt>
      <trkpt lat="31.284997947514057159423828125" lon="121.37087414972484111785888671875">
        <ele>7.19999980926513671875</ele>
        <time>2026-05-13T13:09:00.000Z</time>
        <extensions>
          <ns3:TrackPointExtension>
            <ns3:hr>164</ns3:hr>
            <ns3:cad>84</ns3:cad>
          </ns3:TrackPointExtension>
        </extensions>
      </trkpt>
      <trkpt lat="31.285030134022235870361328125" lon="121.37089845724403858184814453125">
        <ele>7.19999980926513671875</ele>
        <time>2026-05-13T13:09:01.000Z</time>
        <extensions>
          <ns3:TrackPointExtension>
            <ns3:hr>164</ns3:hr>
            <ns3:cad>84</ns3:cad>
          </ns3:TrackPointExtension>
        </extensions>
      </trkpt>
      <trkpt lat="31.2850581295788288116455078125" lon="121.37092745862901210784912109375">
        <ele>7.400000095367431640625</ele>
        <time>2026-05-13T13:09:02.000Z</time>
        <extensions>
          <ns3:TrackPointExtension>
            <ns3:hr>164</ns3:hr>
            <ns3:cad>83</ns3:cad>
          </ns3:TrackPointExtension>
        </extensions>
      </trkpt>
      <trkpt lat="31.28507916815578937530517578125" lon="121.37096065096557140350341796875">
        <ele>7.400000095367431640625</ele>
        <time>2026-05-13T13:09:03.000Z</time>
        <extensions>
          <ns3:TrackPointExtension>
            <ns3:hr>164</ns3:hr>
            <ns3:cad>83</ns3:cad>
          </ns3:TrackPointExtension>
        </extensions>
      </trkpt>
      <trkpt lat="31.28509609960019588470458984375" lon="121.37099987827241420745849609375">
        <ele>7.400000095367431640625</ele>
        <time>2026-05-13T13:09:04.000Z</time>
        <extensions>
          <ns3:TrackPointExtension>
            <ns3:hr>165</ns3:hr>
            <ns3:cad>83</ns3:cad>
          </ns3:TrackPointExtension>
        </extensions>
      </trkpt>
      <trkpt lat="31.28510464914143085479736328125" lon="121.3710410334169864654541015625">
        <ele>7.400000095367431640625</ele>
        <time>2026-05-13T13:09:05.000Z</time>
        <extensions>
          <ns3:TrackPointExtension>
            <ns3:hr>164</ns3:hr>
            <ns3:cad>83</ns3:cad>
          </ns3:TrackPointExtension>
        </extensions>
      </trkpt>
      <trkpt lat="31.28510825335979461669921875" lon="121.371084116399288177490234375">
        <ele>7.400000095367431640625</ele>
        <time>2026-05-13T13:09:06.000Z</time>
        <extensions>
          <ns3:TrackPointExtension>
            <ns3:hr>165</ns3:hr>
            <ns3:cad>83</ns3:cad>
          </ns3:TrackPointExtension>
        </extensions>
      </trkpt>
      <trkpt lat="31.2851084209978580474853515625" lon="121.37112535536289215087890625">
        <ele>7.400000095367431640625</ele>
        <time>2026-05-13T13:09:07.000Z</time>
        <extensions>
          <ns3:TrackPointExtension>
            <ns3:hr>165</ns3:hr>
            <ns3:cad>84</ns3:cad>
          </ns3:TrackPointExtension>
        </extensions>
      </trkpt>
      <trkpt lat="31.285109259188175201416015625" lon="121.37116533704102039337158203125">
        <ele>7.599999904632568359375</ele>
        <time>2026-05-13T13:09:08.000Z</time>
        <extensions>
          <ns3:TrackPointExtension>
            <ns3:hr>165</ns3:hr>
            <ns3:cad>84</ns3:cad>
          </ns3:TrackPointExtension>
        </extensions>
      </trkpt>
      <trkpt lat="31.28511420451104640960693359375" lon="121.37120221741497516632080078125">
        <ele>7.599999904632568359375</ele>
        <time>2026-05-13T13:09:09.000Z</time>
        <extensions>
          <ns3:TrackPointExtension>
            <ns3:hr>165</ns3:hr>
            <ns3:cad>84</ns3:cad>
          </ns3:TrackPointExtension>
        </extensions>
      </trkpt>
      <trkpt lat="31.28512610681354999542236328125" lon="121.3712341524660587310791015625">
        <ele>7.599999904632568359375</ele>
        <time>2026-05-13T13:09:10.000Z</time>
        <extensions>
          <ns3:TrackPointExtension>
            <ns3:hr>166</ns3:hr>
            <ns3:cad>84</ns3:cad>
          </ns3:TrackPointExtension>
        </extensions>
      </trkpt>
      <trkpt lat="31.28514303825795650482177734375" lon="121.371259130537509918212890625">
        <ele>7.80000019073486328125</ele>
        <time>2026-05-13T13:09:11.000Z</time>
        <extensions>
          <ns3:TrackPointExtension>
            <ns3:hr>166</ns3:hr>
            <ns3:cad>83</ns3:cad>
          </ns3:TrackPointExtension>
        </extensions>
      </trkpt>
      <trkpt lat="31.28516650758683681488037109375" lon="121.37127882800996303558349609375">
        <ele>7.80000019073486328125</ele>
        <time>2026-05-13T13:09:12.000Z</time>
        <extensions>
          <ns3:TrackPointExtension>
            <ns3:hr>167</ns3:hr>
            <ns3:cad>83</ns3:cad>
          </ns3:TrackPointExtension>
        </extensions>
      </trkpt>
      <trkpt lat="31.28519534133374691009521484375" lon="121.3712931610643863677978515625">
        <ele>7.80000019073486328125</ele>
        <time>2026-05-13T13:09:13.000Z</time>
        <extensions>
          <ns3:TrackPointExtension>
            <ns3:hr>167</ns3:hr>
            <ns3:cad>83</ns3:cad>
          </ns3:TrackPointExtension>
        </extensions>
      </trkpt>
      <trkpt lat="31.28522937186062335968017578125" lon="121.37130715884268283843994140625">
        <ele>7.599999904632568359375</ele>
        <time>2026-05-13T13:09:14.000Z</time>
        <extensions>
          <ns3:TrackPointExtension>
            <ns3:hr>167</ns3:hr>
            <ns3:cad>83</ns3:cad>
          </ns3:TrackPointExtension>
        </extensions>
      </trkpt>
      <trkpt lat="31.28526524640619754791259765625" lon="121.371318139135837554931640625">
        <ele>7.400000095367431640625</ele>
        <time>2026-05-13T13:09:15.000Z</time>
        <extensions>
          <ns3:TrackPointExtension>
            <ns3:hr>168</ns3:hr>
            <ns3:cad>83</ns3:cad>
          </ns3:TrackPointExtension>
        </extensions>
      </trkpt>
      <trkpt lat="31.28530061803758144378662109375" lon="121.3713283650577068328857421875">
        <ele>7.19999980926513671875</ele>
        <time>2026-05-13T13:09:16.000Z</time>
        <extensions>
          <ns3:TrackPointExtension>
            <ns3:hr>168</ns3:hr>
            <ns3:cad>84</ns3:cad>
          </ns3:TrackPointExtension>
        </extensions>
      </trkpt>
      <trkpt lat="31.285335235297679901123046875" lon="121.37133817188441753387451171875">
        <ele>7.19999980926513671875</ele>
        <time>2026-05-13T13:09:17.000Z</time>
        <extensions>
          <ns3:TrackPointExtension>
            <ns3:hr>168</ns3:hr>
            <ns3:cad>84</ns3:cad>
          </ns3:TrackPointExtension>
        </extensions>
      </trkpt>
      <trkpt lat="31.28536297939717769622802734375" lon="121.37135200202465057373046875">
        <ele>7.19999980926513671875</ele>
        <time>2026-05-13T13:09:18.000Z</time>
        <extensions>
          <ns3:TrackPointExtension>
            <ns3:hr>168</ns3:hr>
            <ns3:cad>84</ns3:cad>
          </ns3:TrackPointExtension>
        </extensions>
      </trkpt>
      <trkpt lat="31.2853810004889965057373046875" lon="121.37137069366872310638427734375">
        <ele>7.19999980926513671875</ele>
        <time>2026-05-13T13:09:19.000Z</time>
        <extensions>
          <ns3:TrackPointExtension>
            <ns3:hr>168</ns3:hr>
            <ns3:cad>85</ns3:cad>
          </ns3:TrackPointExtension>
        </extensions>
      </trkpt>
      <trkpt lat="31.28538854420185089111328125" lon="121.3713957555592060089111328125">
        <ele>7.19999980926513671875</ele>
        <time>2026-05-13T13:09:20.000Z</time>
        <extensions>
          <ns3:TrackPointExtension>
            <ns3:hr>168</ns3:hr>
            <ns3:cad>86</ns3:cad>
          </ns3:TrackPointExtension>
        </extensions>
      </trkpt>
      <trkpt lat="31.28539013676345348358154296875" lon="121.37142333202064037322998046875">
        <ele>7.400000095367431640625</ele>
        <time>2026-05-13T13:09:21.000Z</time>
        <extensions>
          <ns3:TrackPointExtension>
            <ns3:hr>169</ns3:hr>
            <ns3:cad>87</ns3:cad>
          </ns3:TrackPointExtension>
        </extensions>
      </trkpt>
      <trkpt lat="31.285390220582485198974609375" lon="121.37145769782364368438720703125">
        <ele>7.400000095367431640625</ele>
        <time>2026-05-13T13:09:22.000Z</time>
        <extensions>
          <ns3:TrackPointExtension>
            <ns3:hr>169</ns3:hr>
            <ns3:cad>87</ns3:cad>
          </ns3:TrackPointExtension>
        </extensions>
      </trkpt>
      <trkpt lat="31.28538862802088260650634765625" lon="121.37149172835052013397216796875">
        <ele>7.400000095367431640625</ele>
        <time>2026-05-13T13:09:23.000Z</time>
        <extensions>
          <ns3:TrackPointExtension>
            <ns3:hr>169</ns3:hr>
            <ns3:cad>86</ns3:cad>
          </ns3:TrackPointExtension>
        </extensions>
      </trkpt>
      <trkpt lat="31.28538913093507289886474609375" lon="121.371526680886745452880859375">
        <ele>7.19999980926513671875</ele>
        <time>2026-05-13T13:09:24.000Z</time>
        <extensions>
          <ns3:TrackPointExtension>
            <ns3:hr>169</ns3:hr>
            <ns3:cad>86</ns3:cad>
          </ns3:TrackPointExtension>
        </extensions>
      </trkpt>
      <trkpt lat="31.28539013676345348358154296875" lon="121.3715600408613681793212890625">
        <ele>7.19999980926513671875</ele>
        <time>2026-05-13T13:09:25.000Z</time>
        <extensions>
          <ns3:TrackPointExtension>
            <ns3:hr>169</ns3:hr>
            <ns3:cad>86</ns3:cad>
          </ns3:TrackPointExtension>
        </extensions>
      </trkpt>
      <trkpt lat="31.28539181314408779144287109375" lon="121.37158946134150028228759765625">
        <ele>7.19999980926513671875</ele>
        <time>2026-05-13T13:09:26.000Z</time>
        <extensions>
          <ns3:TrackPointExtension>
            <ns3:hr>169</ns3:hr>
            <ns3:cad>86</ns3:cad>
          </ns3:TrackPointExtension>
        </extensions>
      </trkpt>
      <trkpt lat="31.2853954173624515533447265625" lon="121.37161293067038059234619140625">
        <ele>7.400000095367431640625</ele>
        <time>2026-05-13T13:09:27.000Z</time>
        <extensions>
          <ns3:TrackPointExtension>
            <ns3:hr>169</ns3:hr>
            <ns3:cad>86</ns3:cad>
          </ns3:TrackPointExtension>
        </extensions>
      </trkpt>
    </trkseg>
  </trk>
</gpx>
