<?xml version="1.0" encoding="UTF-8"?>
<gpx creator="Garmin Connect" version="1.1"
  xsi:schemaLocation="http://www.topografix.com/GPX/1/1 http://www.topografix.com/GPX/11.xsd"
  xmlns:ns3="http://www.garmin.com/xmlschemas/TrackPointExtension/v1"
  xmlns="http://www.topografix.com/GPX/1/1"
  xmlns:xsi="http://www.w3.org/2001/XMLSchema-instance" xmlns:ns2="http://www.garmin.com/xmlschemas/GpxExtensions/v3">
  <metadata>
    <link href="connect.garmin.com">
      <text>Garmin Connect</text>
    </link>
    <time>2026-05-24T12:23:48.000Z</time>
  </metadata>
  <trk>
    <name>普陀区 跑步</name>
    <type>running</type>
    <trkseg>
      <trkpt lat="31.2850792519748210906982421875" lon="121.3711593858897686004638671875">
        <ele>6.599999904632568359375</ele>
        <time>2026-05-24T12:23:48.000Z</time>
        <extensions>
          <ns3:TrackPointExtension>
            <ns3:hr>81</ns3:hr>
            <ns3:cad>0</ns3:cad>
          </ns3:TrackPointExtension>
        </extensions>
      </trkpt>
      <trkpt lat="31.28507615067064762115478515625" lon="121.37117489241063594818115234375">
        <ele>6.599999904632568359375</ele>
        <time>2026-05-24T12:23:49.000Z</time>
        <extensions>
          <ns3:TrackPointExtension>
            <ns3:hr>81</ns3:hr>
            <ns3:cad>0</ns3:cad>
          </ns3:TrackPointExtension>
        </extensions>
      </trkpt>
      <trkpt lat="31.2850772403180599212646484375" lon="121.37119400314986705780029296875">
        <ele>6.599999904632568359375</ele>
        <time>2026-05-24T12:23:50.000Z</time>
        <extensions>
          <ns3:TrackPointExtension>
            <ns3:hr>80</ns3:hr>
            <ns3:cad>0</ns3:cad>
          </ns3:TrackPointExtension>
        </extensions>
      </trkpt>
      <trkpt lat="31.2850852869451045989990234375" lon="121.371216885745525360107421875">
        <ele>6.400000095367431640625</ele>
        <time>2026-05-24T12:23:51.000Z</time>
        <extensions>
          <ns3:TrackPointExtension>
            <ns3:hr>80</ns3:hr>
            <ns3:cad>0</ns3:cad>
          </ns3:TrackPointExtension>
        </extensions>
      </trkpt>
      <trkpt lat="31.28510163165628910064697265625" lon="121.37123390100896358489990234375">
        <ele>6.400000095367431640625</ele>
        <time>2026-05-24T12:23:52.000Z</time>
        <extensions>
          <ns3:TrackPointExtension>
            <ns3:hr>81</ns3:hr>
            <ns3:cad>0</ns3:cad>
          </ns3:TrackPointExtension>
        </extensions>
      </trkpt>
      <trkpt lat="31.2851248495280742645263671875" lon="121.37124546803534030914306640625">
        <ele>6.19999980926513671875</ele>
        <time>2026-05-24T12:23:53.000Z</time>
        <extensions>
          <ns3:TrackPointExtension>
            <ns3:hr>82</ns3:hr>
            <ns3:cad>83</ns3:cad>
          </ns3:TrackPointExtension>
        </extensions>
      </trkpt>
      <trkpt lat="31.28515292890369892120361328125" lon="121.37125351466238498687744140625">
        <ele>6.19999980926513671875</ele>
        <time>2026-05-24T12:23:54.000Z</time>
        <extensions>
          <ns3:TrackPointExtension>
            <ns3:hr>83</ns3:hr>
            <ns3:cad>83</ns3:cad>
          </ns3:TrackPointExtension>
        </extensions>
      </trkpt>
      <trkpt lat="31.2851892225444316864013671875" lon="121.37126139365136623382568359375">
        <ele>6.19999980926513671875</ele>
        <time>2026-05-24T12:23:55.000Z</time>
        <extensions>
          <ns3:TrackPointExtension>
            <ns3:hr>83</ns3:hr>
            <ns3:cad>83</ns3:cad>
          </ns3:TrackPointExtension>
        </extensions>
      </trkpt>
      <trkpt lat="31.28522786311805248260498046875" lon="121.3712666742503643035888671875">
        <ele>6</ele>
        <time>2026-05-24T12:23:56.000Z</time>
        <extensions>
          <ns3:TrackPointExtension>
            <ns3:hr>83</ns3:hr>
            <ns3:cad>81</ns3:cad>
          </ns3:TrackPointExtension>
        </extensions>
      </trkpt>
      <trkpt lat="31.2852690182626247406005859375" lon="121.371274888515472412109375">
        <ele>5.80000019073486328125</ele>
        <time>2026-05-24T12:23:57.000Z</time>
        <extensions>
          <ns3:TrackPointExtension>
            <ns3:hr>84</ns3:hr>
            <ns3:cad>81</ns3:cad>
          </ns3:TrackPointExtension>
        </extensions>
      </trkpt>
      <trkpt lat="31.2853062339127063751220703125" lon="121.3712857849895954132080078125">
        <ele>5.80000019073486328125</ele>
        <time>2026-05-24T12:23:58.000Z</time>
        <extensions>
          <ns3:TrackPointExtension>
            <ns3:hr>85</ns3:hr>
            <ns3:cad>82</ns3:cad>
          </ns3:TrackPointExtension>
        </extensions>
      </trkpt>
      <trkpt lat="31.285342276096343994140625" lon="121.37129810638725757598876953125">
        <ele>5.599999904632568359375</ele>
        <time>2026-05-24T12:23:59.000Z</time>
        <extensions>
          <ns3:TrackPointExtension>
            <ns3:hr>85</ns3:hr>
            <ns3:cad>83</ns3:cad>
          </ns3:TrackPointExtension>
        </extensions>
      </trkpt>
      <trkpt lat="31.28536901436746120452880859375" lon="121.37131470255553722381591796875">
        <ele>5.599999904632568359375</ele>
        <time>2026-05-24T12:24:00.000Z</time>
        <extensions>
          <ns3:TrackPointExtension>
            <ns3:hr>86</ns3:hr>
            <ns3:cad>85</ns3:cad>
          </ns3:TrackPointExtension>
        </extensions>
      </trkpt>
      <trkpt lat="31.28538980148732662200927734375" lon="121.37134001590311527252197265625">
        <ele>5.599999904632568359375</ele>
        <time>2026-05-24T12:24:01.000Z</time>
        <extensions>
          <ns3:TrackPointExtension>
            <ns3:hr>86</ns3:hr>
            <ns3:cad>85</ns3:cad>
          </ns3:TrackPointExtension>
        </extensions>
      </trkpt>
      <trkpt lat="31.28540338017046451568603515625" lon="121.37136876583099365234375">
        <ele>5.599999904632568359375</ele>
        <time>2026-05-24T12:24:02.000Z</time>
        <extensions>
          <ns3:TrackPointExtension>
            <ns3:hr>87</ns3:hr>
            <ns3:cad>86</ns3:cad>
          </ns3:TrackPointExtension>
        </extensions>
      </trkpt>
      <trkpt lat="31.28541000187397003173828125" lon="121.37140388600528240203857421875">
        <ele>5.599999904632568359375</ele>
        <time>2026-05-24T12:24:03.000Z</time>
        <extensions>
          <ns3:TrackPointExtension>
            <ns3:hr>88</ns3:hr>
            <ns3:cad>87</ns3:cad>
          </ns3:TrackPointExtension>
        </extensions>
      </trkpt>
      <trkpt lat="31.2854128517210483551025390625" lon="121.37144261039793491363525390625">
        <ele>5.599999904632568359375</ele>
        <time>2026-05-24T12:24:04.000Z</time>
        <extensions>
          <ns3:TrackPointExtension>
            <ns3:hr>89</ns3:hr>
            <ns3:cad>88</ns3:cad>
          </ns3:TrackPointExtension>
        </extensions>
      </trkpt>
      <trkpt lat="31.285416372120380401611328125" lon="121.3714825920760631561279296875">
        <ele>5.80000019073486328125</ele>
        <time>2026-05-24T12:24:05.000Z</time>
        <extensions>
          <ns3:TrackPointExtension>
            <ns3:hr>91</ns3:hr>
            <ns3:cad>88</ns3:cad>
          </ns3:TrackPointExtension>
        </extensions>
      </trkpt>
      <trkpt lat="31.28542165271937847137451171875" lon="121.371526010334491729736328125">
        <ele>5.599999904632568359375</ele>
        <time>2026-05-24T12:24:06.000Z</time>
        <extensions>
          <ns3:TrackPointExtension>
            <ns3:hr>92</ns3:hr>
            <ns3:cad>88</ns3:cad>
          </ns3:TrackPointExtension>
        </extensions>
      </trkpt>
      <trkpt lat="31.2854282744228839874267578125" lon="121.37156565673649311065673828125">
        <ele>5.599999904632568359375</ele>
        <time>2026-05-24T12:24:07.000Z</time>
        <extensions>
          <ns3:TrackPointExtension>
            <ns3:hr>94</ns3:hr>
            <ns3:cad>87</ns3:cad>
          </ns3:TrackPointExtension>
        </extensions>
      </trkpt>
      <trkpt lat="31.285438500344753265380859375" lon="121.37160438112914562225341796875">
        <ele>5.80000019073486328125</ele>
        <time>2026-05-24T12:24:08.000Z</time>
        <extensions>
          <ns3:TrackPointExtension>
            <ns3:hr>95</ns3:hr>
            <ns3:cad>85</ns3:cad>
          </ns3:TrackPointExtension>
        </extensions>
      </trkpt>
      <trkpt lat="31.285451911389827728271484375" lon="121.37163975276052951812744140625">
        <ele>5.80000019073486328125</ele>
        <time>2026-05-24T12:24:09.000Z</time>
        <extensions>
          <ns3:TrackPointExtension>
            <ns3:hr>96</ns3:hr>
            <ns3:cad>84</ns3:cad>
          </ns3:TrackPointExtension>
        </extensions>
      </trkpt>
      <trkpt lat="31.28546842373907566070556640625" lon="121.371671855449676513671875">
        <ele>5.80000019073486328125</ele>
        <time>2026-05-24T12:24:10.000Z</time>
        <extensions>
          <ns3:TrackPointExtension>
            <ns3:hr>98</ns3:hr>
            <ns3:cad>84</ns3:cad>
          </ns3:TrackPointExtension>
        </extensions>
      </trkpt>
      <trkpt lat="31.2854857742786407470703125" lon="121.3717028684914112091064453125">
        <ele>5.80000019073486328125</ele>
        <time>2026-05-24T12:24:11.000Z</time>
        <extensions>
          <ns3:TrackPointExtension>
            <ns3:hr>99</ns3:hr>
            <ns3:cad>85</ns3:cad>
          </ns3:TrackPointExtension>
        </extensions>
      </trkpt>
      <trkpt lat="31.28549926914274692535400390625" lon="121.3717370666563510894775390625">
        <ele>6</ele>
        <time>2026-05-24T12:24:12.000Z</time>
        <extensions>
          <ns3:TrackPointExtension>
            <ns3:hr>101</ns3:hr>
            <ns3:cad>86</ns3:cad>
          </ns3:TrackPointExtension>
        </extensions>
      </trkpt>
      <trkpt lat="31.28550832159817218780517578125" lon="121.3717732764780521392822265625">
        <ele>6</ele>
        <time>2026-05-24T12:24:13.000Z</time>
        <extensions>
          <ns3:TrackPointExtension>
            <ns3:hr>102</ns3:hr>
            <ns3:cad>86</ns3:cad>
          </ns3:TrackPointExtension>
        </extensions>
      </trkpt>
      <trkpt lat="31.2855157814919948577880859375" lon="121.371815018355846405029296875">
        <ele>5.80000019073486328125</ele>
        <time>2026-05-24T12:24:14.000Z</time>
        <extensions>
          <ns3:TrackPointExtension>
            <ns3:hr>103</ns3:hr>
            <ns3:cad>85</ns3:cad>
          </ns3:TrackPointExtension>
        </extensions>
      </trkpt>
      <trkpt lat="31.2855130992829799652099609375" lon="121.37185835279524326324462890625">
        <ele>5.80000019073486328125</ele>
        <time>2026-05-24T12:24:15.000Z</time>
        <extensions>
          <ns3:TrackPointExtension>
            <ns3:hr>104</ns3:hr>
            <ns3:cad>85</ns3:cad>
          </ns3:TrackPointExtension>
        </extensions>
      </trkpt>
      <trkpt lat="31.28550245426595211029052734375" lon="121.371907554566860198974609375">
        <ele>5.80000019073486328125</ele>
        <time>2026-05-24T12:24:16.000Z</time>
        <extensions>
          <ns3:TrackPointExtension>
            <ns3:hr>106</ns3:hr>
            <ns3:cad>85</ns3:cad>
          </ns3:TrackPointExtension>
        </extensions>
      </trkpt>
      <trkpt lat="31.2854892946779727935791015625" lon="121.371950469911098480224609375">
        <ele>5.599999904632568359375</ele>
        <time>2026-05-24T12:24:17.000Z</time>
        <extensions>
          <ns3:TrackPointExtension>
            <ns3:hr>107</ns3:hr>
            <ns3:cad>85</ns3:cad>
          </ns3:TrackPointExtension>
        </extensions>
      </trkpt>
      <trkpt lat="31.285476386547088623046875" lon="121.3719868473708629608154296875">
        <ele>5.599999904632568359375</ele>
        <time>2026-05-24T12:24:18.000Z</time>
        <extensions>
          <ns3:TrackPointExtension>
            <ns3:hr>108</ns3:hr>
            <ns3:cad>86</ns3:cad>
          </ns3:TrackPointExtension>
        </extensions>
      </trkpt>
      <trkpt lat="31.28546440042555332183837890625" lon="121.37201475910842418670654296875">
        <ele>5.599999904632568359375</ele>
        <time>2026-05-24T12:24:19.000Z</time>
        <extensions>
          <ns3:TrackPointExtension>
            <ns3:hr>109</ns3:hr>
            <ns3:cad>86</ns3:cad>
          </ns3:TrackPointExtension>
        </extensions>
      </trkpt>
      <trkpt lat="31.2854497320950031280517578125" lon="121.3720341213047504425048828125">
        <ele>5.599999904632568359375</ele>
        <time>2026-05-24T12:24:20.000Z</time>
        <extensions>
          <ns3:TrackPointExtension>
            <ns3:hr>110</ns3:hr>
            <ns3:cad>86</ns3:cad>
          </ns3:TrackPointExtension>
        </extensions>
      </trkpt>
      <trkpt lat="31.28543154336512088775634765625" lon="121.37204376049339771270751953125">
        <ele>5.80000019073486328125</ele>
        <time>2026-05-24T12:24:21.000Z</time>
        <extensions>
          <ns3:TrackPointExtension>
            <ns3:hr>112</ns3:hr>
            <ns3:cad>86</ns3:cad>
          </ns3:TrackPointExtension>
        </extensions>
      </trkpt>
      <trkpt lat="31.28540731966495513916015625" lon="121.37204610742628574371337890625">
        <ele>6</ele>
        <time>2026-05-24T12:24:22.000Z</time>
        <extensions>
          <ns3:TrackPointExtension>
            <ns3:hr>113</ns3:hr>
            <ns3:cad>87</ns3:cad>
          </ns3:TrackPointExtension>
        </extensions>
      </trkpt>
      <trkpt lat="31.2853753007948398590087890625" lon="121.37204878963530063629150390625">
        <ele>6.19999980926513671875</ele>
        <time>2026-05-24T12:24:23.000Z</time>
        <extensions>
          <ns3:TrackPointExtension>
            <ns3:hr>114</ns3:hr>
            <ns3:cad>87</ns3:cad>
          </ns3:TrackPointExtension>
        </extensions>
      </trkpt>
      <trkpt lat="31.2853431142866611480712890625" lon="121.37205013073980808258056640625">
        <ele>6.19999980926513671875</ele>
        <time>2026-05-24T12:24:24.000Z</time>
        <extensions>
          <ns3:TrackPointExtension>
            <ns3:hr>115</ns3:hr>
            <ns3:cad>87</ns3:cad>
          </ns3:TrackPointExtension>
        </extensions>
      </trkpt>
      <trkpt lat="31.28530246205627918243408203125" lon="121.37205013073980808258056640625">
        <ele>6.19999980926513671875</ele>
        <time>2026-05-24T12:24:25.000Z</time>
        <extensions>
          <ns3:TrackPointExtension>
            <ns3:hr>116</ns3:hr>
            <ns3:cad>87</ns3:cad>
          </ns3:TrackPointExtension>
        </extensions>
      </trkpt>
      <trkpt lat="31.28526038490235805511474609375" lon="121.37205264531075954437255859375">
        <ele>6.19999980926513671875</ele>
        <time>2026-05-24T12:24:26.000Z</time>
        <extensions>
          <ns3:TrackPointExtension>
            <ns3:hr>116</ns3:hr>
            <ns3:cad>86</ns3:cad>
          </ns3:TrackPointExtension>
        </extensions>
      </trkpt>
      <trkpt lat="31.28521545790135860443115234375" lon="121.372052393853664398193359375">
        <ele>6.19999980926513671875</ele>
        <time>2026-05-24T12:24:27.000Z</time>
        <extensions>
          <ns3:TrackPointExtension>
            <ns3:hr>116</ns3:hr>
            <ns3:cad>85</ns3:cad>
          </ns3:TrackPointExtension>
        </extensions>
      </trkpt>
      <trkpt lat="31.28516860306262969970703125" lon="121.3720532320439815521240234375">
        <ele>6.19999980926513671875</ele>
        <time>2026-05-24T12:24:28.000Z</time>
        <extensions>
          <ns3:TrackPointExtension>
            <ns3:hr>116</ns3:hr>
            <ns3:cad>85</ns3:cad>
          </ns3:TrackPointExtension>
        </extensions>
      </trkpt>
      <trkpt lat="31.2851236760616302490234375" lon="121.37205214239656925201416015625">
        <ele>6.400000095367431640625</ele>
        <time>2026-05-24T12:24:29.000Z</time>
        <extensions>
          <ns3:TrackPointExtension>
            <ns3:hr>116</ns3:hr>
            <ns3:cad>85</ns3:cad>
          </ns3:TrackPointExtension>
        </extensions>
      </trkpt>
      <trkpt lat="31.285079419612884521484375" lon="121.37204912491142749786376953125">
        <ele>6.400000095367431640625</ele>
        <time>2026-05-24T12:24:30.000Z</time>
        <extensions>
          <ns3:TrackPointExtension>
            <ns3:hr>116</ns3:hr>
            <ns3:cad>84</ns3:cad>
          </ns3:TrackPointExtension>
        </extensions>
      </trkpt>
      <trkpt lat="31.2850373424589633941650390625" lon="121.37204401195049285888671875">
        <ele>6.400000095367431640625</ele>
        <time>2026-05-24T12:24:31.000Z</time>
        <extensions>
          <ns3:TrackPointExtension>
            <ns3:hr>118</ns3:hr>
            <ns3:cad>84</ns3:cad>
          </ns3:TrackPointExtension>
        </extensions>
      </trkpt>
      <trkpt lat="31.2849964387714862823486328125" lon="121.37203596532344818115234375">
        <ele>6.400000095367431640625</ele>
        <time>2026-05-24T12:24:32.000Z</time>
        <extensions>
          <ns3:TrackPointExtension>
            <ns3:hr>119</ns3:hr>
            <ns3:cad>84</ns3:cad>
          </ns3:TrackPointExtension>
        </extensions>
      </trkpt>
      <trkpt lat="31.28495880402624607086181640625" lon="121.3720270805060863494873046875">
        <ele>6.599999904632568359375</ele>
        <time>2026-05-24T12:24:33.000Z</time>
        <extensions>
          <ns3:TrackPointExtension>
            <ns3:hr>121</ns3:hr>
            <ns3:cad>84</ns3:cad>
          </ns3:TrackPointExtension>
        </extensions>
      </trkpt>
      <trkpt lat="31.28492410294711589813232421875" lon="121.372016184031963348388671875">
        <ele>6.599999904632568359375</ele>
        <time>2026-05-24T12:24:34.000Z</time>
        <extensions>
          <ns3:TrackPointExtension>
            <ns3:hr>122</ns3:hr>
            <ns3:cad>84</ns3:cad>
          </ns3:TrackPointExtension>
        </extensions>
      </trkpt>
      <trkpt lat="31.2848955206573009490966796875" lon="121.3720059581100940704345703125">
        <ele>6.599999904632568359375</ele>
        <time>2026-05-24T12:24:35.000Z</time>
        <extensions>
          <ns3:TrackPointExtension>
            <ns3:hr>123</ns3:hr>
            <ns3:cad>84</ns3:cad>
          </ns3:TrackPointExtension>
        </extensions>
      </trkpt>
      <trkpt lat="31.2848717160522937774658203125" lon="121.37199950404465198516845703125">
        <ele>6.599999904632568359375</ele>
        <time>2026-05-24T12:24:36.000Z</time>
        <extensions>
          <ns3:TrackPointExtension>
            <ns3:hr>124</ns3:hr>
            <ns3:cad>84</ns3:cad>
          </ns3:TrackPointExtension>
        </extensions>
      </trkpt>
      <trkpt lat="31.28484363667666912078857421875" lon="121.37198709882795810699462890625">
        <ele>6.599999904632568359375</ele>
        <time>2026-05-24T12:24:37.000Z</time>
        <extensions>
          <ns3:TrackPointExtension>
            <ns3:hr>125</ns3:hr>
            <ns3:cad>84</ns3:cad>
          </ns3:TrackPointExtension>
        </extensions>
      </trkpt>
      <trkpt lat="31.284816563129425048828125" lon="121.3719734363257884979248046875">
        <ele>6.400000095367431640625</ele>
        <time>2026-05-24T12:24:38.000Z</time>
        <extensions>
          <ns3:TrackPointExtension>
            <ns3:hr>126</ns3:hr>
            <ns3:cad>84</ns3:cad>
          </ns3:TrackPointExtension>
        </extensions>
      </trkpt>
      <trkpt lat="31.284789741039276123046875" lon="121.37195642106235027313232421875">
        <ele>6.400000095367431640625</ele>
        <time>2026-05-24T12:24:39.000Z</time>
        <extensions>
          <ns3:TrackPointExtension>
            <ns3:hr>127</ns3:hr>
            <ns3:cad>84</ns3:cad>
          </ns3:TrackPointExtension>
        </extensions>
      </trkpt>
      <trkpt lat="31.2847615778446197509765625" lon="121.3719342090189456939697265625">
        <ele>6.400000095367431640625</ele>
        <time>2026-05-24T12:24:40.000Z</time>
        <extensions>
          <ns3:TrackPointExtension>
            <ns3:hr>128</ns3:hr>
            <ns3:cad>84</ns3:cad>
          </ns3:TrackPointExtension>
        </extensions>
      </trkpt>
      <trkpt lat="31.2847409583628177642822265625" lon="121.3719065487384796142578125">
        <ele>6.400000095367431640625</ele>
        <time>2026-05-24T12:24:41.000Z</time>
        <extensions>
          <ns3:TrackPointExtension>
            <ns3:hr>129</ns3:hr>
            <ns3:cad>84</ns3:cad>
          </ns3:TrackPointExtension>
        </extensions>
      </trkpt>
      <trkpt lat="31.28472377546131610870361328125" lon="121.371875368058681488037109375">
        <ele>6.599999904632568359375</ele>
        <time>2026-05-24T12:24:42.000Z</time>
        <extensions>
          <ns3:TrackPointExtension>
            <ns3:hr>131</ns3:hr>
            <ns3:cad>82</ns3:cad>
          </ns3:TrackPointExtension>
        </extensions>
      </trkpt>
      <trkpt lat="31.284712292253971099853515625" lon="121.37184008024632930755615234375">
        <ele>6.599999904632568359375</ele>
        <time>2026-05-24T12:24:43.000Z</time>
        <extensions>
          <ns3:TrackPointExtension>
            <ns3:hr>133</ns3:hr>
            <ns3:cad>82</ns3:cad>
          </ns3:TrackPointExtension>
        </extensions>
      </trkpt>
      <trkpt lat="31.28470684401690959930419921875" lon="121.37180261313915252685546875">
        <ele>6.599999904632568359375</ele>
        <time>2026-05-24T12:24:44.000Z</time>
        <extensions>
          <ns3:TrackPointExtension>
            <ns3:hr>134</ns3:hr>
            <ns3:cad>82</ns3:cad>
          </ns3:TrackPointExtension>
        </extensions>
      </trkpt>
      <trkpt lat="31.284711621701717376708984375" lon="121.371763385832309722900390625">
        <ele>6.599999904632568359375</ele>
        <time>2026-05-24T12:24:45.000Z</time>
        <extensions>
          <ns3:TrackPointExtension>
            <ns3:hr>135</ns3:hr>
            <ns3:cad>82</ns3:cad>
          </ns3:TrackPointExtension>
        </extensions>
      </trkpt>
      <trkpt lat="31.284723021090030670166015625" lon="121.37172139249742031097412109375">
        <ele>6.599999904632568359375</ele>
        <time>2026-05-24T12:24:46.000Z</time>
        <extensions>
          <ns3:TrackPointExtension>
            <ns3:hr>137</ns3:hr>
            <ns3:cad>82</ns3:cad>
          </ns3:TrackPointExtension>
        </extensions>
      </trkpt>
      <trkpt lat="31.2847376056015491485595703125" lon="121.37168602086603641510009765625">
        <ele>6.400000095367431640625</ele>
        <time>2026-05-24T12:24:47.000Z</time>
        <extensions>
          <ns3:TrackPointExtension>
            <ns3:hr>138</ns3:hr>
            <ns3:cad>82</ns3:cad>
          </ns3:TrackPointExtension>
        </extensions>
      </trkpt>
      <trkpt lat="31.2847530283033847808837890625" lon="121.3716525770723819732666015625">
        <ele>6.400000095367431640625</ele>
        <time>2026-05-24T12:24:48.000Z</time>
        <extensions>
          <ns3:TrackPointExtension>
            <ns3:hr>140</ns3:hr>
            <ns3:cad>82</ns3:cad>
          </ns3:TrackPointExtension>
        </extensions>
      </trkpt>
      <trkpt lat="31.284767948091030120849609375" lon="121.37162047438323497772216796875">
        <ele>6.599999904632568359375</ele>
        <time>2026-05-24T12:24:49.000Z</time>
        <extensions>
          <ns3:TrackPointExtension>
            <ns3:hr>141</ns3:hr>
            <ns3:cad>83</ns3:cad>
          </ns3:TrackPointExtension>
        </extensions>
      </trkpt>
      <trkpt lat="31.28478177823126316070556640625" lon="121.37158879078924655914306640625">
        <ele>6.599999904632568359375</ele>
        <time>2026-05-24T12:24:50.000Z</time>
        <extensions>
          <ns3:TrackPointExtension>
            <ns3:hr>142</ns3:hr>
            <ns3:cad>83</ns3:cad>
          </ns3:TrackPointExtension>
        </extensions>
      </trkpt>
      <trkpt lat="31.28479175269603729248046875" lon="121.3715573586523532867431640625">
        <ele>6.599999904632568359375</ele>
        <time>2026-05-24T12:24:51.000Z</time>
        <extensions>
          <ns3:TrackPointExtension>
            <ns3:hr>143</ns3:hr>
            <ns3:cad>84</ns3:cad>
          </ns3:TrackPointExtension>
        </extensions>
      </trkpt>
      <trkpt lat="31.2847999669611454010009765625" lon="121.37152508832514286041259765625">
        <ele>6.599999904632568359375</ele>
        <time>2026-05-24T12:24:52.000Z</time>
        <extensions>
          <ns3:TrackPointExtension>
            <ns3:hr>144</ns3:hr>
            <ns3:cad>84</ns3:cad>
          </ns3:TrackPointExtension>
        </extensions>
      </trkpt>
      <trkpt lat="31.28480591811239719390869140625" lon="121.37149156071245670318603515625">
        <ele>6.599999904632568359375</ele>
        <time>2026-05-24T12:24:53.000Z</time>
        <extensions>
          <ns3:TrackPointExtension>
            <ns3:hr>145</ns3:hr>
            <ns3:cad>83</ns3:cad>
          </ns3:TrackPointExtension>
        </extensions>
      </trkpt>
      <trkpt lat="31.2848080135881900787353515625" lon="121.3714591227471828460693359375">
        <ele>6.599999904632568359375</ele>
        <time>2026-05-24T12:24:54.000Z</time>
        <extensions>
          <ns3:TrackPointExtension>
            <ns3:hr>145</ns3:hr>
            <ns3:cad>83</ns3:cad>
          </ns3:TrackPointExtension>
        </extensions>
      </trkpt>
      <trkpt lat="31.28480792976915836334228515625" lon="121.37142785824835300445556640625">
        <ele>6.599999904632568359375</ele>
        <time>2026-05-24T12:24:55.000Z</time>
        <extensions>
          <ns3:TrackPointExtension>
            <ns3:hr>146</ns3:hr>
            <ns3:cad>83</ns3:cad>
          </ns3:TrackPointExtension>
        </extensions>
      </trkpt>
      <trkpt lat="31.2848053313791751861572265625" lon="121.3713991083204746246337890625">
        <ele>6.599999904632568359375</ele>
        <time>2026-05-24T12:24:56.000Z</time>
        <extensions>
          <ns3:TrackPointExtension>
            <ns3:hr>146</ns3:hr>
            <ns3:cad>83</ns3:cad>
          </ns3:TrackPointExtension>
        </extensions>
      </trkpt>
      <trkpt lat="31.284799464046955108642578125" lon="121.37136532925069332122802734375">
        <ele>6.599999904632568359375</ele>
        <time>2026-05-24T12:24:57.000Z</time>
        <extensions>
          <ns3:TrackPointExtension>
            <ns3:hr>146</ns3:hr>
            <ns3:cad>83</ns3:cad>
          </ns3:TrackPointExtension>
        </extensions>
      </trkpt>
      <trkpt lat="31.28479485400021076202392578125" lon="121.371328867971897125244140625">
        <ele>6.599999904632568359375</ele>
        <time>2026-05-24T12:24:58.000Z</time>
        <extensions>
          <ns3:TrackPointExtension>
            <ns3:hr>147</ns3:hr>
            <ns3:cad>84</ns3:cad>
          </ns3:TrackPointExtension>
        </extensions>
      </trkpt>
      <trkpt lat="31.28478747792541980743408203125" lon="121.3712901435792446136474609375">
        <ele>6.599999904632568359375</ele>
        <time>2026-05-24T12:24:59.000Z</time>
        <extensions>
          <ns3:TrackPointExtension>
            <ns3:hr>147</ns3:hr>
            <ns3:cad>85</ns3:cad>
          </ns3:TrackPointExtension>
        </extensions>
      </trkpt>
      <trkpt lat="31.2847805209457874298095703125" lon="121.37124731205403804779052734375">
        <ele>6.599999904632568359375</ele>
        <time>2026-05-24T12:25:00.000Z</time>
        <extensions>
          <ns3:TrackPointExtension>
            <ns3:hr>147</ns3:hr>
            <ns3:cad>85</ns3:cad>
          </ns3:TrackPointExtension>
        </extensions>
      </trkpt>
      <trkpt lat="31.2847728095948696136474609375" lon="121.3712046481668949127197265625">
        <ele>6.599999904632568359375</ele>
        <time>2026-05-24T12:25:01.000Z</time>
        <extensions>
          <ns3:TrackPointExtension>
            <ns3:hr>147</ns3:hr>
            <ns3:cad>84</ns3:cad>
          </ns3:TrackPointExtension>
        </extensions>
      </trkpt>
      <trkpt lat="31.28476819954812526702880859375" lon="121.37115930207073688507080078125">
        <ele>6.599999904632568359375</ele>
        <time>2026-05-24T12:25:02.000Z</time>
        <extensions>
          <ns3:TrackPointExtension>
            <ns3:hr>147</ns3:hr>
            <ns3:cad>84</ns3:cad>
          </ns3:TrackPointExtension>
        </extensions>
      </trkpt>
      <trkpt lat="31.28476501442492008209228515625" lon="121.37111202813684940338134765625">
        <ele>6.599999904632568359375</ele>
        <time>2026-05-24T12:25:03.000Z</time>
        <extensions>
          <ns3:TrackPointExtension>
            <ns3:hr>147</ns3:hr>
            <ns3:cad>84</ns3:cad>
          </ns3:TrackPointExtension>
        </extensions>
      </trkpt>
      <trkpt lat="31.28476652316749095916748046875" lon="121.37106257490813732147216796875">
        <ele>6.599999904632568359375</ele>
        <time>2026-05-24T12:25:04.000Z</time>
        <extensions>
          <ns3:TrackPointExtension>
            <ns3:hr>147</ns3:hr>
            <ns3:cad>84</ns3:cad>
          </ns3:TrackPointExtension>
        </extensions>
      </trkpt>
      <trkpt lat="31.284773647785186767578125" lon="121.371015720069408416748046875">
        <ele>6.599999904632568359375</ele>
        <time>2026-05-24T12:25:05.000Z</time>
        <extensions>
          <ns3:TrackPointExtension>
            <ns3:hr>146</ns3:hr>
            <ns3:cad>84</ns3:cad>
          </ns3:TrackPointExtension>
        </extensions>
      </trkpt>
      <trkpt lat="31.2847868911921977996826171875" lon="121.3709749840199947357177734375">
        <ele>6.599999904632568359375</ele>
        <time>2026-05-24T12:25:06.000Z</time>
        <extensions>
          <ns3:TrackPointExtension>
            <ns3:hr>147</ns3:hr>
            <ns3:cad>85</ns3:cad>
          </ns3:TrackPointExtension>
        </extensions>
      </trkpt>
      <trkpt lat="31.284804157912731170654296875" lon="121.3709394447505474090576171875">
        <ele>6.599999904632568359375</ele>
        <time>2026-05-24T12:25:07.000Z</time>
        <extensions>
          <ns3:TrackPointExtension>
            <ns3:hr>147</ns3:hr>
            <ns3:cad>85</ns3:cad>
          </ns3:TrackPointExtension>
        </extensions>
      </trkpt>
      <trkpt lat="31.28482754342257976531982421875" lon="121.37090935371816158294677734375">
        <ele>6.400000095367431640625</ele>
        <time>2026-05-24T12:25:08.000Z</time>
        <extensions>
          <ns3:TrackPointExtension>
            <ns3:hr>148</ns3:hr>
            <ns3:cad>85</ns3:cad>
          </ns3:TrackPointExtension>
        </extensions>
      </trkpt>
      <trkpt lat="31.2848576344549655914306640625" lon="121.3708868063986301422119140625">
        <ele>6.599999904632568359375</ele>
        <time>2026-05-24T12:25:09.000Z</time>
        <extensions>
          <ns3:TrackPointExtension>
            <ns3:hr>149</ns3:hr>
            <ns3:cad>85</ns3:cad>
          </ns3:TrackPointExtension>
        </extensions>
      </trkpt>
      <trkpt lat="31.28489057533442974090576171875" lon="121.370872892439365386962890625">
        <ele>6.599999904632568359375</ele>
        <time>2026-05-24T12:25:10.000Z</time>
        <extensions>
          <ns3:TrackPointExtension>
            <ns3:hr>150</ns3:hr>
            <ns3:cad>85</ns3:cad>
          </ns3:TrackPointExtension>
        </extensions>
      </trkpt>
      <trkpt lat="31.2849273718893527984619140625" lon="121.37086459435522556304931640625">
        <ele>6.599999904632568359375</ele>
        <time>2026-05-24T12:25:11.000Z</time>
        <extensions>
          <ns3:TrackPointExtension>
            <ns3:hr>152</ns3:hr>
            <ns3:cad>85</ns3:cad>
          </ns3:TrackPointExtension>
        </extensions>
      </trkpt>
      <trkpt lat="31.284963078796863555908203125" lon="121.3708646781742572784423828125">
        <ele>6.599999904632568359375</ele>
        <time>2026-05-24T12:25:12.000Z</time>
        <extensions>
          <ns3:TrackPointExtension>
            <ns3:hr>152</ns3:hr>
            <ns3:cad>85</ns3:cad>
          </ns3:TrackPointExtension>
        </extensions>
      </trkpt>
      <trkpt lat="31.28499652259051799774169921875" lon="121.3708733953535556793212890625">
        <ele>6.599999904632568359375</ele>
        <time>2026-05-24T12:25:13.000Z</time>
        <extensions>
          <ns3:TrackPointExtension>
            <ns3:hr>153</ns3:hr>
            <ns3:cad>85</ns3:cad>
          </ns3:TrackPointExtension>
        </extensions>
      </trkpt>
      <trkpt lat="31.28502854146063327789306640625" lon="121.37089191935956478118896484375">
        <ele>6.599999904632568359375</ele>
        <time>2026-05-24T12:25:14.000Z</time>
        <extensions>
          <ns3:TrackPointExtension>
            <ns3:hr>154</ns3:hr>
            <ns3:cad>85</ns3:cad>
          </ns3:TrackPointExtension>
        </extensions>
      </trkpt>
      <trkpt lat="31.28505905158817768096923828125" lon="121.3709179870784282684326171875">
        <ele>6.599999904632568359375</ele>
        <time>2026-05-24T12:25:15.000Z</time>
        <extensions>
          <ns3:TrackPointExtension>
            <ns3:hr>155</ns3:hr>
            <ns3:cad>85</ns3:cad>
          </ns3:TrackPointExtension>
        </extensions>
      </trkpt>
      <trkpt lat="31.28508201800286769866943359375" lon="121.37094925157725811004638671875">
        <ele>6.80000019073486328125</ele>
        <time>2026-05-24T12:25:16.000Z</time>
        <extensions>
          <ns3:TrackPointExtension>
            <ns3:hr>155</ns3:hr>
            <ns3:cad>85</ns3:cad>
          </ns3:TrackPointExtension>
        </extensions>
      </trkpt>
      <trkpt lat="31.2850993685424327850341796875" lon="121.3709853775799274444580078125">
        <ele>6.80000019073486328125</ele>
        <time>2026-05-24T12:25:17.000Z</time>
        <extensions>
          <ns3:TrackPointExtension>
            <ns3:hr>156</ns3:hr>
            <ns3:cad>84</ns3:cad>
          </ns3:TrackPointExtension>
        </extensions>
      </trkpt>
      <trkpt lat="31.2851080857217311859130859375" lon="121.3710232637822628021240234375">
        <ele>7</ele>
        <time>2026-05-24T12:25:18.000Z</time>
        <extensions>
          <ns3:TrackPointExtension>
            <ns3:hr>156</ns3:hr>
            <ns3:cad>84</ns3:cad>
          </ns3:TrackPointExtension>
        </extensions>
      </trkpt>
      <trkpt lat="31.28511101938784122467041015625" lon="121.37106022797524929046630859375">
        <ele>7</ele>
        <time>2026-05-24T12:25:19.000Z</time>
        <extensions>
          <ns3:TrackPointExtension>
            <ns3:hr>157</ns3:hr>
            <ns3:cad>84</ns3:cad>
          </ns3:TrackPointExtension>
        </extensions>
      </trkpt>
      <trkpt lat="31.28510833717882633209228515625" lon="121.3710966892540454864501953125">
        <ele>7.19999980926513671875</ele>
        <time>2026-05-24T12:25:20.000Z</time>
        <extensions>
          <ns3:TrackPointExtension>
            <ns3:hr>157</ns3:hr>
            <ns3:cad>84</ns3:cad>
          </ns3:TrackPointExtension>
        </extensions>
      </trkpt>
      <trkpt lat="31.28510297276079654693603515625" lon="121.37112937867641448974609375">
        <ele>7.19999980926513671875</ele>
        <time>2026-05-24T12:25:21.000Z</time>
        <extensions>
          <ns3:TrackPointExtension>
            <ns3:hr>158</ns3:hr>
            <ns3:cad>84</ns3:cad>
          </ns3:TrackPointExtension>
        </extensions>
      </trkpt>
      <trkpt lat="31.28510012291371822357177734375" lon="121.37115930207073688507080078125">
        <ele>7.400000095367431640625</ele>
        <time>2026-05-24T12:25:22.000Z</time>
        <extensions>
          <ns3:TrackPointExtension>
            <ns3:hr>158</ns3:hr>
            <ns3:cad>83</ns3:cad>
          </ns3:TrackPointExtension>
        </extensions>
      </trkpt>
      <trkpt lat="31.28509995527565479278564453125" lon="121.3711885549128055572509765625">
        <ele>7.400000095367431640625</ele>
        <time>2026-05-24T12:25:23.000Z</time>
        <extensions>
          <ns3:TrackPointExtension>
            <ns3:hr>158</ns3:hr>
            <ns3:cad>83</ns3:cad>
          </ns3:TrackPointExtension>
        </extensions>
      </trkpt>
      <trkpt lat="31.28510749898850917816162109375" lon="121.3712167181074619293212890625">
        <ele>7.400000095367431640625</ele>
        <time>2026-05-24T12:25:24.000Z</time>
        <extensions>
          <ns3:TrackPointExtension>
            <ns3:hr>158</ns3:hr>
            <ns3:cad>83</ns3:cad>
          </ns3:TrackPointExtension>
        </extensions>
      </trkpt>
      <trkpt lat="31.28512074239552021026611328125" lon="121.3712408579885959625244140625">
        <ele>7.400000095367431640625</ele>
        <time>2026-05-24T12:25:25.000Z</time>
        <extensions>
          <ns3:TrackPointExtension>
            <ns3:hr>158</ns3:hr>
            <ns3:cad>83</ns3:cad>
          </ns3:TrackPointExtension>
        </extensions>
      </trkpt>
      <trkpt lat="31.2851412780582904815673828125" lon="121.3712579570710659027099609375">
        <ele>7.19999980926513671875</ele>
        <time>2026-05-24T12:25:26.000Z</time>
        <extensions>
          <ns3:TrackPointExtension>
            <ns3:hr>158</ns3:hr>
            <ns3:cad>83</ns3:cad>
          </ns3:TrackPointExtension>
        </extensions>
      </trkpt>
      <trkpt lat="31.285164915025234222412109375" lon="121.3712690211832523345947265625">
        <ele>7.19999980926513671875</ele>
        <time>2026-05-24T12:25:27.000Z</time>
        <extensions>
          <ns3:TrackPointExtension>
            <ns3:hr>158</ns3:hr>
            <ns3:cad>83</ns3:cad>
          </ns3:TrackPointExtension>
        </extensions>
      </trkpt>
      <trkpt lat="31.285191737115383148193359375" lon="121.37127824127674102783203125">
        <ele>7.19999980926513671875</ele>
        <time>2026-05-24T12:25:28.000Z</time>
        <extensions>
          <ns3:TrackPointExtension>
            <ns3:hr>158</ns3:hr>
            <ns3:cad>83</ns3:cad>
          </ns3:TrackPointExtension>
        </extensions>
      </trkpt>
      <trkpt lat="31.285221241414546966552734375" lon="121.37128469534218311309814453125">
        <ele>7.19999980926513671875</ele>
        <time>2026-05-24T12:25:29.000Z</time>
        <extensions>
          <ns3:TrackPointExtension>
            <ns3:hr>158</ns3:hr>
            <ns3:cad>82</ns3:cad>
          </ns3:TrackPointExtension>
        </extensions>
      </trkpt>
      <trkpt lat="31.28525200299918651580810546875" lon="121.37129106558859348297119140625">
        <ele>7.19999980926513671875</ele>
        <time>2026-05-24T12:25:30.000Z</time>
        <extensions>
          <ns3:TrackPointExtension>
            <ns3:hr>158</ns3:hr>
            <ns3:cad>82</ns3:cad>
          </ns3:TrackPointExtension>
        </extensions>
      </trkpt>
      <trkpt lat="31.28528335131704807281494140625" lon="121.37129592709243297576904296875">
        <ele>7.19999980926513671875</ele>
        <time>2026-05-24T12:25:31.000Z</time>
        <extensions>
          <ns3:TrackPointExtension>
            <ns3:hr>158</ns3:hr>
            <ns3:cad>82</ns3:cad>
          </ns3:TrackPointExtension>
        </extensions>
      </trkpt>
      <trkpt lat="31.28531436435878276824951171875" lon="121.3713015429675579071044921875">
        <ele>7</ele>
        <time>2026-05-24T12:25:32.000Z</time>
        <extensions>
          <ns3:TrackPointExtension>
            <ns3:hr>159</ns3:hr>
            <ns3:cad>82</ns3:cad>
          </ns3:TrackPointExtension>
        </extensions>
      </trkpt>
      <trkpt lat="31.285342611372470855712890625" lon="121.37131000868976116180419921875">
        <ele>6.80000019073486328125</ele>
        <time>2026-05-24T12:25:33.000Z</time>
        <extensions>
          <ns3:TrackPointExtension>
            <ns3:hr>159</ns3:hr>
            <ns3:cad>83</ns3:cad>
          </ns3:TrackPointExtension>
        </extensions>
      </trkpt>
      <trkpt lat="31.28536867909133434295654296875" lon="121.37132224626839160919189453125">
        <ele>6.80000019073486328125</ele>
        <time>2026-05-24T12:25:34.000Z</time>
        <extensions>
          <ns3:TrackPointExtension>
            <ns3:hr>159</ns3:hr>
            <ns3:cad>83</ns3:cad>
          </ns3:TrackPointExtension>
        </extensions>
      </trkpt>
      <trkpt lat="31.28538896329700946807861328125" lon="121.3713397644460201263427734375">
        <ele>6.599999904632568359375</ele>
        <time>2026-05-24T12:25:35.000Z</time>
        <extensions>
          <ns3:TrackPointExtension>
            <ns3:hr>159</ns3:hr>
            <ns3:cad>83</ns3:cad>
          </ns3:TrackPointExtension>
        </extensions>
      </trkpt>
      <trkpt lat="31.2854041345417499542236328125" lon="121.3713635690510272979736328125">
        <ele>6.599999904632568359375</ele>
        <time>2026-05-24T12:25:36.000Z</time>
        <extensions>
          <ns3:TrackPointExtension>
            <ns3:hr>159</ns3:hr>
            <ns3:cad>83</ns3:cad>
          </ns3:TrackPointExtension>
        </extensions>
      </trkpt>
      <trkpt lat="31.28541360609233379364013671875" lon="121.37139198370277881622314453125">
        <ele>6.599999904632568359375</ele>
        <time>2026-05-24T12:25:37.000Z</time>
        <extensions>
          <ns3:TrackPointExtension>
            <ns3:hr>159</ns3:hr>
            <ns3:cad>83</ns3:cad>
          </ns3:TrackPointExtension>
        </extensions>
      </trkpt>
      <trkpt lat="31.2854198925197124481201171875" lon="121.3714209012687206268310546875">
        <ele>6.80000019073486328125</ele>
        <time>2026-05-24T12:25:38.000Z</time>
        <extensions>
          <ns3:TrackPointExtension>
            <ns3:hr>159</ns3:hr>
            <ns3:cad>82</ns3:cad>
          </ns3:TrackPointExtension>
        </extensions>
      </trkpt>
      <trkpt lat="31.2854239158332347869873046875" lon="121.371452249586582183837890625">
        <ele>6.80000019073486328125</ele>
        <time>2026-05-24T12:25:39.000Z</time>
        <extensions>
          <ns3:TrackPointExtension>
            <ns3:hr>159</ns3:hr>
            <ns3:cad>82</ns3:cad>
          </ns3:TrackPointExtension>
        </extensions>
      </trkpt>
      <trkpt lat="31.285427771508693695068359375" lon="121.37148636393249034881591796875">
        <ele>6.80000019073486328125</ele>
        <time>2026-05-24T12:25:40.000Z</time>
        <extensions>
          <ns3:TrackPointExtension>
            <ns3:hr>160</ns3:hr>
            <ns3:cad>82</ns3:cad>
          </ns3:TrackPointExtension>
        </extensions>
      </trkpt>
      <trkpt lat="31.285431124269962310791015625" lon="121.371519304811954498291015625">
        <ele>6.80000019073486328125</ele>
        <time>2026-05-24T12:25:41.000Z</time>
        <extensions>
          <ns3:TrackPointExtension>
            <ns3:hr>160</ns3:hr>
            <ns3:cad>81</ns3:cad>
          </ns3:TrackPointExtension>
        </extensions>
      </trkpt>
      <trkpt lat="31.28543548285961151123046875" lon="121.3715513236820697784423828125">
        <ele>6.599999904632568359375</ele>
        <time>2026-05-24T12:25:42.000Z</time>
        <extensions>
          <ns3:TrackPointExtension>
            <ns3:hr>160</ns3:hr>
            <ns3:cad>80</ns3:cad>
          </ns3:TrackPointExtension>
        </extensions>
      </trkpt>
      <trkpt lat="31.28544009290635585784912109375" lon="121.37158275581896305084228515625">
        <ele>6.599999904632568359375</ele>
        <time>2026-05-24T12:25:43.000Z</time>
        <extensions>
          <ns3:TrackPointExtension>
            <ns3:hr>161</ns3:hr>
            <ns3:cad>80</ns3:cad>
          </ns3:TrackPointExtension>
        </extensions>
      </trkpt>
      <trkpt lat="31.28544931299984455108642578125" lon="121.37161360122263431549072265625">
        <ele>6.400000095367431640625</ele>
        <time>2026-05-24T12:25:44.000Z</time>
        <extensions>
          <ns3:TrackPointExtension>
            <ns3:hr>161</ns3:hr>
            <ns3:cad>81</ns3:cad>
          </ns3:TrackPointExtension>
        </extensions>
      </trkpt>
      <trkpt lat="31.28546088002622127532958984375" lon="121.371640674769878387451171875">
        <ele>6.400000095367431640625</ele>
        <time>2026-05-24T12:25:45.000Z</time>
        <extensions>
          <ns3:TrackPointExtension>
            <ns3:hr>161</ns3:hr>
            <ns3:cad>81</ns3:cad>
          </ns3:TrackPointExtension>
        </extensions>
      </trkpt>
      <trkpt lat="31.2854748778045177459716796875" lon="121.37166271917521953582763671875">
        <ele>6.599999904632568359375</ele>
        <time>2026-05-24T12:25:46.000Z</time>
        <extensions>
          <ns3:TrackPointExtension>
            <ns3:hr>161</ns3:hr>
            <ns3:cad>82</ns3:cad>
          </ns3:TrackPointExtension>
        </extensions>
      </trkpt>
      <trkpt lat="31.28549055196344852447509765625" lon="121.37168350629508495330810546875">
        <ele>6.80000019073486328125</ele>
        <time>2026-05-24T12:25:47.000Z</time>
        <extensions>
          <ns3:TrackPointExtension>
            <ns3:hr>161</ns3:hr>
            <ns3:cad>82</ns3:cad>
          </ns3:TrackPointExtension>
        </extensions>
      </trkpt>
      <trkpt lat="31.285508908331394195556640625" lon="121.37170161120593547821044921875">
        <ele>6.80000019073486328125</ele>
        <time>2026-05-24T12:25:48.000Z</time>
        <extensions>
          <ns3:TrackPointExtension>
            <ns3:hr>161</ns3:hr>
            <ns3:cad>83</ns3:cad>
          </ns3:TrackPointExtension>
        </extensions>
      </trkpt>
      <trkpt lat="31.28552458249032497406005859375" lon="121.37172189541161060333251953125">
        <ele>6.80000019073486328125</ele>
        <time>2026-05-24T12:25:49.000Z</time>
        <extensions>
          <ns3:TrackPointExtension>
            <ns3:hr>161</ns3:hr>
            <ns3:cad>83</ns3:cad>
          </ns3:TrackPointExtension>
        </extensions>
      </trkpt>
      <trkpt lat="31.2855367362499237060546875" lon="121.37174603529274463653564453125">
        <ele>6.80000019073486328125</ele>
        <time>2026-05-24T12:25:50.000Z</time>
        <extensions>
          <ns3:TrackPointExtension>
            <ns3:hr>161</ns3:hr>
            <ns3:cad>82</ns3:cad>
          </ns3:TrackPointExtension>
        </extensions>
      </trkpt>
      <trkpt lat="31.28554687835276126861572265625" lon="121.371776126325130462646484375">
        <ele>6.599999904632568359375</ele>
        <time>2026-05-24T12:25:51.000Z</time>
        <extensions>
          <ns3:TrackPointExtension>
            <ns3:hr>161</ns3:hr>
            <ns3:cad>81</ns3:cad>
          </ns3:TrackPointExtension>
        </extensions>
      </trkpt>
      <trkpt lat="31.28555391915142536163330078125" lon="121.37180873192846775054931640625">
        <ele>6.400000095367431640625</ele>
        <time>2026-05-24T12:25:52.000Z</time>
        <extensions>
          <ns3:TrackPointExtension>
            <ns3:hr>161</ns3:hr>
            <ns3:cad>81</ns3:cad>
          </ns3:TrackPointExtension>
        </extensions>
      </trkpt>
      <trkpt lat="31.28555559553205966949462890625" lon="121.37184611521661281585693359375">
        <ele>6.400000095367431640625</ele>
        <time>2026-05-24T12:25:53.000Z</time>
        <extensions>
          <ns3:TrackPointExtension>
            <ns3:hr>161</ns3:hr>
            <ns3:cad>82</ns3:cad>
          </ns3:TrackPointExtension>
        </extensions>
      </trkpt>
      <trkpt lat="31.285551153123378753662109375" lon="121.37188551016151905059814453125">
        <ele>6.400000095367431640625</ele>
        <time>2026-05-24T12:25:54.000Z</time>
        <extensions>
          <ns3:TrackPointExtension>
            <ns3:hr>161</ns3:hr>
            <ns3:cad>82</ns3:cad>
          </ns3:TrackPointExtension>
        </extensions>
      </trkpt>
      <trkpt lat="31.28554402850568294525146484375" lon="121.37192306108772754669189453125">
        <ele>6.400000095367431640625</ele>
        <time>2026-05-24T12:25:55.000Z</time>
        <extensions>
          <ns3:TrackPointExtension>
            <ns3:hr>161</ns3:hr>
            <ns3:cad>82</ns3:cad>
          </ns3:TrackPointExtension>
        </extensions>
      </trkpt>
      <trkpt lat="31.28553497605025768280029296875" lon="121.37196094729006290435791015625">
        <ele>6.400000095367431640625</ele>
        <time>2026-05-24T12:25:56.000Z</time>
        <extensions>
          <ns3:TrackPointExtension>
            <ns3:hr>161</ns3:hr>
            <ns3:cad>82</ns3:cad>
          </ns3:TrackPointExtension>
        </extensions>
      </trkpt>
      <trkpt lat="31.28552801907062530517578125" lon="121.37199380435049533843994140625">
        <ele>6.400000095367431640625</ele>
        <time>2026-05-24T12:25:57.000Z</time>
        <extensions>
          <ns3:TrackPointExtension>
            <ns3:hr>161</ns3:hr>
            <ns3:cad>82</ns3:cad>
          </ns3:TrackPointExtension>
        </extensions>
      </trkpt>
      <trkpt lat="31.28551754169166088104248046875" lon="121.37201794423162937164306640625">
        <ele>6.400000095367431640625</ele>
        <time>2026-05-24T12:25:58.000Z</time>
        <extensions>
          <ns3:TrackPointExtension>
            <ns3:hr>160</ns3:hr>
            <ns3:cad>82</ns3:cad>
          </ns3:TrackPointExtension>
        </extensions>
      </trkpt>
      <trkpt lat="31.2855073995888233184814453125" lon="121.3720351271331310272216796875">
        <ele>6.400000095367431640625</ele>
        <time>2026-05-24T12:25:59.000Z</time>
        <extensions>
          <ns3:TrackPointExtension>
            <ns3:hr>161</ns3:hr>
            <ns3:cad>82</ns3:cad>
          </ns3:TrackPointExtension>
        </extensions>
      </trkpt>
      <trkpt lat="31.285492144525051116943359375" lon="121.3720428384840488433837890625">
        <ele>6.400000095367431640625</ele>
        <time>2026-05-24T12:26:00.000Z</time>
        <extensions>
          <ns3:TrackPointExtension>
            <ns3:hr>161</ns3:hr>
            <ns3:cad>83</ns3:cad>
          </ns3:TrackPointExtension>
        </extensions>
      </trkpt>
      <trkpt lat="31.2854750454425811767578125" lon="121.37204342521727085113525390625">
        <ele>6.400000095367431640625</ele>
        <time>2026-05-24T12:26:01.000Z</time>
        <extensions>
          <ns3:TrackPointExtension>
            <ns3:hr>161</ns3:hr>
            <ns3:cad>84</ns3:cad>
          </ns3:TrackPointExtension>
        </extensions>
      </trkpt>
      <trkpt lat="31.2854561023414134979248046875" lon="121.3720411621034145355224609375">
        <ele>6.400000095367431640625</ele>
        <time>2026-05-24T12:26:02.000Z</time>
        <extensions>
          <ns3:TrackPointExtension>
            <ns3:hr>161</ns3:hr>
            <ns3:cad>84</ns3:cad>
          </ns3:TrackPointExtension>
        </extensions>
      </trkpt>
      <trkpt lat="31.28543305210769176483154296875" lon="121.3720406591892242431640625">
        <ele>6.599999904632568359375</ele>
        <time>2026-05-24T12:26:03.000Z</time>
        <extensions>
          <ns3:TrackPointExtension>
            <ns3:hr>160</ns3:hr>
            <ns3:cad>83</ns3:cad>
          </ns3:TrackPointExtension>
        </extensions>
      </trkpt>
      <trkpt lat="31.28540555946528911590576171875" lon="121.37204040773212909698486328125">
        <ele>6.599999904632568359375</ele>
        <time>2026-05-24T12:26:04.000Z</time>
        <extensions>
          <ns3:TrackPointExtension>
            <ns3:hr>161</ns3:hr>
            <ns3:cad>83</ns3:cad>
          </ns3:TrackPointExtension>
        </extensions>
      </trkpt>
      <trkpt lat="31.28537370823323726654052734375" lon="121.3720408268272876739501953125">
        <ele>6.599999904632568359375</ele>
        <time>2026-05-24T12:26:05.000Z</time>
        <extensions>
          <ns3:TrackPointExtension>
            <ns3:hr>161</ns3:hr>
            <ns3:cad>83</ns3:cad>
          </ns3:TrackPointExtension>
        </extensions>
      </trkpt>
      <trkpt lat="31.28533431328833103179931640625" lon="121.37204107828438282012939453125">
        <ele>6.599999904632568359375</ele>
        <time>2026-05-24T12:26:06.000Z</time>
        <extensions>
          <ns3:TrackPointExtension>
            <ns3:hr>160</ns3:hr>
            <ns3:cad>83</ns3:cad>
          </ns3:TrackPointExtension>
        </extensions>
      </trkpt>
      <trkpt lat="31.2852911464869976043701171875" lon="121.37204107828438282012939453125">
        <ele>6.599999904632568359375</ele>
        <time>2026-05-24T12:26:07.000Z</time>
        <extensions>
          <ns3:TrackPointExtension>
            <ns3:hr>160</ns3:hr>
            <ns3:cad>83</ns3:cad>
          </ns3:TrackPointExtension>
        </extensions>
      </trkpt>
      <trkpt lat="31.28524680621922016143798828125" lon="121.37204225175082683563232421875">
        <ele>6.599999904632568359375</ele>
        <time>2026-05-24T12:26:08.000Z</time>
        <extensions>
          <ns3:TrackPointExtension>
            <ns3:hr>159</ns3:hr>
            <ns3:cad>84</ns3:cad>
          </ns3:TrackPointExtension>
        </extensions>
      </trkpt>
      <trkpt lat="31.2851986102759838104248046875" lon="121.372041665017604827880859375">
        <ele>6.599999904632568359375</ele>
        <time>2026-05-24T12:26:09.000Z</time>
        <extensions>
          <ns3:TrackPointExtension>
            <ns3:hr>159</ns3:hr>
            <ns3:cad>84</ns3:cad>
          </ns3:TrackPointExtension>
        </extensions>
      </trkpt>
      <trkpt lat="31.28515477292239665985107421875" lon="121.37203998863697052001953125">
        <ele>6.599999904632568359375</ele>
        <time>2026-05-24T12:26:10.000Z</time>
        <extensions>
          <ns3:TrackPointExtension>
            <ns3:hr>159</ns3:hr>
            <ns3:cad>84</ns3:cad>
          </ns3:TrackPointExtension>
        </extensions>
      </trkpt>
      <trkpt lat="31.2851121090352535247802734375" lon="121.37203604914247989654541015625">
        <ele>6.599999904632568359375</ele>
        <time>2026-05-24T12:26:11.000Z</time>
        <extensions>
          <ns3:TrackPointExtension>
            <ns3:hr>160</ns3:hr>
            <ns3:cad>83</ns3:cad>
          </ns3:TrackPointExtension>
        </extensions>
      </trkpt>
      <trkpt lat="31.28507296554744243621826171875" lon="121.3720297627151012420654296875">
        <ele>6.599999904632568359375</ele>
        <time>2026-05-24T12:26:12.000Z</time>
        <extensions>
          <ns3:TrackPointExtension>
            <ns3:hr>160</ns3:hr>
            <ns3:cad>83</ns3:cad>
          </ns3:TrackPointExtension>
        </extensions>
      </trkpt>
      <trkpt lat="31.2850363366305828094482421875" lon="121.37202112935483455657958984375">
        <ele>6.599999904632568359375</ele>
        <time>2026-05-24T12:26:13.000Z</time>
        <extensions>
          <ns3:TrackPointExtension>
            <ns3:hr>161</ns3:hr>
            <ns3:cad>83</ns3:cad>
          </ns3:TrackPointExtension>
        </extensions>
      </trkpt>
      <trkpt lat="31.28499970771372318267822265625" lon="121.37201224453747272491455078125">
        <ele>6.599999904632568359375</ele>
        <time>2026-05-24T12:26:14.000Z</time>
        <extensions>
          <ns3:TrackPointExtension>
            <ns3:hr>161</ns3:hr>
            <ns3:cad>83</ns3:cad>
          </ns3:TrackPointExtension>
        </extensions>
      </trkpt>
      <trkpt lat="31.28496475517749786376953125" lon="121.37200185097754001617431640625">
        <ele>6.599999904632568359375</ele>
        <time>2026-05-24T12:26:15.000Z</time>
        <extensions>
          <ns3:TrackPointExtension>
            <ns3:hr>161</ns3:hr>
            <ns3:cad>84</ns3:cad>
          </ns3:TrackPointExtension>
        </extensions>
      </trkpt>
      <trkpt lat="31.28493231721222400665283203125" lon="121.37199514545500278472900390625">
        <ele>6.599999904632568359375</ele>
        <time>2026-05-24T12:26:16.000Z</time>
        <extensions>
          <ns3:TrackPointExtension>
            <ns3:hr>161</ns3:hr>
            <ns3:cad>84</ns3:cad>
          </ns3:TrackPointExtension>
        </extensions>
      </trkpt>
      <trkpt lat="31.2849008850753307342529296875" lon="121.37198994867503643035888671875">
        <ele>6.599999904632568359375</ele>
        <time>2026-05-24T12:26:17.000Z</time>
        <extensions>
          <ns3:TrackPointExtension>
            <ns3:hr>161</ns3:hr>
            <ns3:cad>84</ns3:cad>
          </ns3:TrackPointExtension>
        </extensions>
      </trkpt>
      <trkpt lat="31.284869201481342315673828125" lon="121.371986009180545806884765625">
        <ele>6.599999904632568359375</ele>
        <time>2026-05-24T12:26:18.000Z</time>
        <extensions>
          <ns3:TrackPointExtension>
            <ns3:hr>162</ns3:hr>
            <ns3:cad>84</ns3:cad>
          </ns3:TrackPointExtension>
        </extensions>
      </trkpt>
      <trkpt lat="31.28483600914478302001953125" lon="121.37198173440992832183837890625">
        <ele>6.599999904632568359375</ele>
        <time>2026-05-24T12:26:19.000Z</time>
        <extensions>
          <ns3:TrackPointExtension>
            <ns3:hr>162</ns3:hr>
            <ns3:cad>85</ns3:cad>
          </ns3:TrackPointExtension>
        </extensions>
      </trkpt>
      <trkpt lat="31.28480575047433376312255859375" lon="121.37197536416351795196533203125">
        <ele>6.599999904632568359375</ele>
        <time>2026-05-24T12:26:20.000Z</time>
        <extensions>
          <ns3:TrackPointExtension>
            <ns3:hr>163</ns3:hr>
            <ns3:cad>84</ns3:cad>
          </ns3:TrackPointExtension>
        </extensions>
      </trkpt>
      <trkpt lat="31.28477524034678936004638671875" lon="121.37196145020425319671630859375">
        <ele>6.599999904632568359375</ele>
        <time>2026-05-24T12:26:21.000Z</time>
        <extensions>
          <ns3:TrackPointExtension>
            <ns3:hr>163</ns3:hr>
            <ns3:cad>84</ns3:cad>
          </ns3:TrackPointExtension>
        </extensions>
      </trkpt>
      <trkpt lat="31.28475026227533817291259765625" lon="121.37194150127470493316650390625">
        <ele>6.599999904632568359375</ele>
        <time>2026-05-24T12:26:22.000Z</time>
        <extensions>
          <ns3:TrackPointExtension>
            <ns3:hr>163</ns3:hr>
            <ns3:cad>84</ns3:cad>
          </ns3:TrackPointExtension>
        </extensions>
      </trkpt>
      <trkpt lat="31.28472897224128246307373046875" lon="121.37191786430776119232177734375">
        <ele>6.599999904632568359375</ele>
        <time>2026-05-24T12:26:23.000Z</time>
        <extensions>
          <ns3:TrackPointExtension>
            <ns3:hr>162</ns3:hr>
            <ns3:cad>84</ns3:cad>
          </ns3:TrackPointExtension>
        </extensions>
      </trkpt>
      <trkpt lat="31.2847117893397808074951171875" lon="121.37189003638923168182373046875">
        <ele>6.599999904632568359375</ele>
        <time>2026-05-24T12:26:24.000Z</time>
        <extensions>
          <ns3:TrackPointExtension>
            <ns3:hr>162</ns3:hr>
            <ns3:cad>84</ns3:cad>
          </ns3:TrackPointExtension>
        </extensions>
      </trkpt>
      <trkpt lat="31.28469812683761119842529296875" lon="121.3718555867671966552734375">
        <ele>6.599999904632568359375</ele>
        <time>2026-05-24T12:26:25.000Z</time>
        <extensions>
          <ns3:TrackPointExtension>
            <ns3:hr>162</ns3:hr>
            <ns3:cad>84</ns3:cad>
          </ns3:TrackPointExtension>
        </extensions>
      </trkpt>
      <trkpt lat="31.2846940197050571441650390625" lon="121.37181879021227359771728515625">
        <ele>6.599999904632568359375</ele>
        <time>2026-05-24T12:26:26.000Z</time>
        <extensions>
          <ns3:TrackPointExtension>
            <ns3:hr>163</ns3:hr>
            <ns3:cad>84</ns3:cad>
          </ns3:TrackPointExtension>
        </extensions>
      </trkpt>
      <trkpt lat="31.28469829447567462921142578125" lon="121.37178375385701656341552734375">
        <ele>6.599999904632568359375</ele>
        <time>2026-05-24T12:26:27.000Z</time>
        <extensions>
          <ns3:TrackPointExtension>
            <ns3:hr>163</ns3:hr>
            <ns3:cad>84</ns3:cad>
          </ns3:TrackPointExtension>
        </extensions>
      </trkpt>
      <trkpt lat="31.28470768220722675323486328125" lon="121.3717488013207912445068359375">
        <ele>6.599999904632568359375</ele>
        <time>2026-05-24T12:26:28.000Z</time>
        <extensions>
          <ns3:TrackPointExtension>
            <ns3:hr>163</ns3:hr>
            <ns3:cad>83</ns3:cad>
          </ns3:TrackPointExtension>
        </extensions>
      </trkpt>
      <trkpt lat="31.28472109325230121612548828125" lon="121.37171485461294651031494140625">
        <ele>6.599999904632568359375</ele>
        <time>2026-05-24T12:26:29.000Z</time>
        <extensions>
          <ns3:TrackPointExtension>
            <ns3:hr>163</ns3:hr>
            <ns3:cad>83</ns3:cad>
          </ns3:TrackPointExtension>
        </extensions>
      </trkpt>
      <trkpt lat="31.284736432135105133056640625" lon="121.37168015353381633758544921875">
        <ele>6.599999904632568359375</ele>
        <time>2026-05-24T12:26:30.000Z</time>
        <extensions>
          <ns3:TrackPointExtension>
            <ns3:hr>164</ns3:hr>
            <ns3:cad>83</ns3:cad>
          </ns3:TrackPointExtension>
        </extensions>
      </trkpt>
      <trkpt lat="31.284749172627925872802734375" lon="121.3716463744640350341796875">
        <ele>6.599999904632568359375</ele>
        <time>2026-05-24T12:26:31.000Z</time>
        <extensions>
          <ns3:TrackPointExtension>
            <ns3:hr>164</ns3:hr>
            <ns3:cad>84</ns3:cad>
          </ns3:TrackPointExtension>
        </extensions>
      </trkpt>
      <trkpt lat="31.284760572016239166259765625" lon="121.37161427177488803863525390625">
        <ele>6.599999904632568359375</ele>
        <time>2026-05-24T12:26:32.000Z</time>
        <extensions>
          <ns3:TrackPointExtension>
            <ns3:hr>164</ns3:hr>
            <ns3:cad>85</ns3:cad>
          </ns3:TrackPointExtension>
        </extensions>
      </trkpt>
      <trkpt lat="31.28476870246231555938720703125" lon="121.37158426456153392791748046875">
        <ele>6.599999904632568359375</ele>
        <time>2026-05-24T12:26:33.000Z</time>
        <extensions>
          <ns3:TrackPointExtension>
            <ns3:hr>164</ns3:hr>
            <ns3:cad>84</ns3:cad>
          </ns3:TrackPointExtension>
        </extensions>
      </trkpt>
      <trkpt lat="31.28477725200355052947998046875" lon="121.3715543411672115325927734375">
        <ele>6.599999904632568359375</ele>
        <time>2026-05-24T12:26:34.000Z</time>
        <extensions>
          <ns3:TrackPointExtension>
            <ns3:hr>163</ns3:hr>
            <ns3:cad>84</ns3:cad>
          </ns3:TrackPointExtension>
        </extensions>
      </trkpt>
      <trkpt lat="31.28478504717350006103515625" lon="121.37152324430644512176513671875">
        <ele>6.599999904632568359375</ele>
        <time>2026-05-24T12:26:35.000Z</time>
        <extensions>
          <ns3:TrackPointExtension>
            <ns3:hr>164</ns3:hr>
            <ns3:cad>84</ns3:cad>
          </ns3:TrackPointExtension>
        </extensions>
      </trkpt>
      <trkpt lat="31.28479041159152984619140625" lon="121.37149172835052013397216796875">
        <ele>6.80000019073486328125</ele>
        <time>2026-05-24T12:26:36.000Z</time>
        <extensions>
          <ns3:TrackPointExtension>
            <ns3:hr>164</ns3:hr>
            <ns3:cad>84</ns3:cad>
          </ns3:TrackPointExtension>
        </extensions>
      </trkpt>
      <trkpt lat="31.28479418344795703887939453125" lon="121.37145870365202426910400390625">
        <ele>6.80000019073486328125</ele>
        <time>2026-05-24T12:26:37.000Z</time>
        <extensions>
          <ns3:TrackPointExtension>
            <ns3:hr>163</ns3:hr>
            <ns3:cad>83</ns3:cad>
          </ns3:TrackPointExtension>
        </extensions>
      </trkpt>
      <trkpt lat="31.2847959436476230621337890625" lon="121.371428780257701873779296875">
        <ele>6.80000019073486328125</ele>
        <time>2026-05-24T12:26:38.000Z</time>
        <extensions>
          <ns3:TrackPointExtension>
            <ns3:hr>163</ns3:hr>
            <ns3:cad>83</ns3:cad>
          </ns3:TrackPointExtension>
        </extensions>
      </trkpt>
      <trkpt lat="31.284796781837940216064453125" lon="121.37139852158725261688232421875">
        <ele>6.80000019073486328125</ele>
        <time>2026-05-24T12:26:39.000Z</time>
        <extensions>
          <ns3:TrackPointExtension>
            <ns3:hr>163</ns3:hr>
            <ns3:cad>83</ns3:cad>
          </ns3:TrackPointExtension>
        </extensions>
      </trkpt>
      <trkpt lat="31.28479669801890850067138671875" lon="121.37136407196521759033203125">
        <ele>6.80000019073486328125</ele>
        <time>2026-05-24T12:26:40.000Z</time>
        <extensions>
          <ns3:TrackPointExtension>
            <ns3:hr>163</ns3:hr>
            <ns3:cad>83</ns3:cad>
          </ns3:TrackPointExtension>
        </extensions>
      </trkpt>
      <trkpt lat="31.28479653038084506988525390625" lon="121.3713323883712291717529296875">
        <ele>6.80000019073486328125</ele>
        <time>2026-05-24T12:26:41.000Z</time>
        <extensions>
          <ns3:TrackPointExtension>
            <ns3:hr>163</ns3:hr>
            <ns3:cad>83</ns3:cad>
          </ns3:TrackPointExtension>
        </extensions>
      </trkpt>
      <trkpt lat="31.28479418344795703887939453125" lon="121.37129894457757472991943359375">
        <ele>6.80000019073486328125</ele>
        <time>2026-05-24T12:26:42.000Z</time>
        <extensions>
          <ns3:TrackPointExtension>
            <ns3:hr>163</ns3:hr>
            <ns3:cad>83</ns3:cad>
          </ns3:TrackPointExtension>
        </extensions>
      </trkpt>
      <trkpt lat="31.28479032777249813079833984375" lon="121.371264159679412841796875">
        <ele>6.80000019073486328125</ele>
        <time>2026-05-24T12:26:43.000Z</time>
        <extensions>
          <ns3:TrackPointExtension>
            <ns3:hr>163</ns3:hr>
            <ns3:cad>83</ns3:cad>
          </ns3:TrackPointExtension>
        </extensions>
      </trkpt>
      <trkpt lat="31.284785382449626922607421875" lon="121.3712291233241558074951171875">
        <ele>6.80000019073486328125</ele>
        <time>2026-05-24T12:26:44.000Z</time>
        <extensions>
          <ns3:TrackPointExtension>
            <ns3:hr>163</ns3:hr>
            <ns3:cad>83</ns3:cad>
          </ns3:TrackPointExtension>
        </extensions>
      </trkpt>
      <trkpt lat="31.2847801856696605682373046875" lon="121.3711925782263278961181640625">
        <ele>6.80000019073486328125</ele>
        <time>2026-05-24T12:26:45.000Z</time>
        <extensions>
          <ns3:TrackPointExtension>
            <ns3:hr>163</ns3:hr>
            <ns3:cad>83</ns3:cad>
          </ns3:TrackPointExtension>
        </extensions>
      </trkpt>
      <trkpt lat="31.284775994718074798583984375" lon="121.37115494348108768463134765625">
        <ele>6.80000019073486328125</ele>
        <time>2026-05-24T12:26:46.000Z</time>
        <extensions>
          <ns3:TrackPointExtension>
            <ns3:hr>163</ns3:hr>
            <ns3:cad>84</ns3:cad>
          </ns3:TrackPointExtension>
        </extensions>
      </trkpt>
      <trkpt lat="31.2847748212516307830810546875" lon="121.37111420743167400360107421875">
        <ele>6.80000019073486328125</ele>
        <time>2026-05-24T12:26:47.000Z</time>
        <extensions>
          <ns3:TrackPointExtension>
            <ns3:hr>163</ns3:hr>
            <ns3:cad>84</ns3:cad>
          </ns3:TrackPointExtension>
        </extensions>
      </trkpt>
      <trkpt lat="31.28477632999420166015625" lon="121.3710738904774188995361328125">
        <ele>6.80000019073486328125</ele>
        <time>2026-05-24T12:26:48.000Z</time>
        <extensions>
          <ns3:TrackPointExtension>
            <ns3:hr>163</ns3:hr>
            <ns3:cad>84</ns3:cad>
          </ns3:TrackPointExtension>
        </extensions>
      </trkpt>
      <trkpt lat="31.284784041345119476318359375" lon="121.37103240005671977996826171875">
        <ele>6.80000019073486328125</ele>
        <time>2026-05-24T12:26:49.000Z</time>
        <extensions>
          <ns3:TrackPointExtension>
            <ns3:hr>163</ns3:hr>
            <ns3:cad>84</ns3:cad>
          </ns3:TrackPointExtension>
        </extensions>
      </trkpt>
      <trkpt lat="31.28479736857116222381591796875" lon="121.37099317274987697601318359375">
        <ele>6.80000019073486328125</ele>
        <time>2026-05-24T12:26:50.000Z</time>
        <extensions>
          <ns3:TrackPointExtension>
            <ns3:hr>164</ns3:hr>
            <ns3:cad>84</ns3:cad>
          </ns3:TrackPointExtension>
        </extensions>
      </trkpt>
      <trkpt lat="31.284816227853298187255859375" lon="121.3709568791091442108154296875">
        <ele>6.80000019073486328125</ele>
        <time>2026-05-24T12:26:51.000Z</time>
        <extensions>
          <ns3:TrackPointExtension>
            <ns3:hr>163</ns3:hr>
            <ns3:cad>84</ns3:cad>
          </ns3:TrackPointExtension>
        </extensions>
      </trkpt>
      <trkpt lat="31.2848405353724956512451171875" lon="121.37092678807675838470458984375">
        <ele>6.599999904632568359375</ele>
        <time>2026-05-24T12:26:52.000Z</time>
        <extensions>
          <ns3:TrackPointExtension>
            <ns3:hr>163</ns3:hr>
            <ns3:cad>84</ns3:cad>
          </ns3:TrackPointExtension>
        </extensions>
      </trkpt>
      <trkpt lat="31.28486844711005687713623046875" lon="121.3709035702049732208251953125">
        <ele>6.599999904632568359375</ele>
        <time>2026-05-24T12:26:53.000Z</time>
        <extensions>
          <ns3:TrackPointExtension>
            <ns3:hr>163</ns3:hr>
            <ns3:cad>83</ns3:cad>
          </ns3:TrackPointExtension>
        </extensions>
      </trkpt>
      <trkpt lat="31.2848971970379352569580078125" lon="121.37088873423635959625244140625">
        <ele>6.400000095367431640625</ele>
        <time>2026-05-24T12:26:54.000Z</time>
        <extensions>
          <ns3:TrackPointExtension>
            <ns3:hr>163</ns3:hr>
            <ns3:cad>83</ns3:cad>
          </ns3:TrackPointExtension>
        </extensions>
      </trkpt>
      <trkpt lat="31.284929551184177398681640625" lon="121.37087951414287090301513671875">
        <ele>6.400000095367431640625</ele>
        <time>2026-05-24T12:26:55.000Z</time>
        <extensions>
          <ns3:TrackPointExtension>
            <ns3:hr>163</ns3:hr>
            <ns3:cad>83</ns3:cad>
          </ns3:TrackPointExtension>
        </extensions>
      </trkpt>
      <trkpt lat="31.28496014513075351715087890625" lon="121.37088035233318805694580078125">
        <ele>6.400000095367431640625</ele>
        <time>2026-05-24T12:26:56.000Z</time>
        <extensions>
          <ns3:TrackPointExtension>
            <ns3:hr>163</ns3:hr>
            <ns3:cad>83</ns3:cad>
          </ns3:TrackPointExtension>
        </extensions>
      </trkpt>
      <trkpt lat="31.284988224506378173828125" lon="121.37088940478861331939697265625">
        <ele>6.599999904632568359375</ele>
        <time>2026-05-24T12:26:57.000Z</time>
        <extensions>
          <ns3:TrackPointExtension>
            <ns3:hr>163</ns3:hr>
            <ns3:cad>83</ns3:cad>
          </ns3:TrackPointExtension>
        </extensions>
      </trkpt>
      <trkpt lat="31.285014040768146514892578125" lon="121.3709039054811000823974609375">
        <ele>6.599999904632568359375</ele>
        <time>2026-05-24T12:26:58.000Z</time>
        <extensions>
          <ns3:TrackPointExtension>
            <ns3:hr>164</ns3:hr>
            <ns3:cad>83</ns3:cad>
          </ns3:TrackPointExtension>
        </extensions>
      </trkpt>
      <trkpt lat="31.28503809683024883270263671875" lon="121.37092326767742633819580078125">
        <ele>6.599999904632568359375</ele>
        <time>2026-05-24T12:26:59.000Z</time>
        <extensions>
          <ns3:TrackPointExtension>
            <ns3:hr>163</ns3:hr>
            <ns3:cad>83</ns3:cad>
          </ns3:TrackPointExtension>
        </extensions>
      </trkpt>
      <trkpt lat="31.285057961940765380859375" lon="121.37094967067241668701171875">
        <ele>6.599999904632568359375</ele>
        <time>2026-05-24T12:27:00.000Z</time>
        <extensions>
          <ns3:TrackPointExtension>
            <ns3:hr>163</ns3:hr>
            <ns3:cad>83</ns3:cad>
          </ns3:TrackPointExtension>
        </extensions>
      </trkpt>
      <trkpt lat="31.28507397137582302093505859375" lon="121.37098059989511966705322265625">
        <ele>6.599999904632568359375</ele>
        <time>2026-05-24T12:27:01.000Z</time>
        <extensions>
          <ns3:TrackPointExtension>
            <ns3:hr>164</ns3:hr>
            <ns3:cad>83</ns3:cad>
          </ns3:TrackPointExtension>
        </extensions>
      </trkpt>
      <trkpt lat="31.2850859574973583221435546875" lon="121.3710152171552181243896484375">
        <ele>6.599999904632568359375</ele>
        <time>2026-05-24T12:27:02.000Z</time>
        <extensions>
          <ns3:TrackPointExtension>
            <ns3:hr>164</ns3:hr>
            <ns3:cad>83</ns3:cad>
          </ns3:TrackPointExtension>
        </extensions>
      </trkpt>
      <trkpt lat="31.2850929982960224151611328125" lon="121.3710537739098072052001953125">
        <ele>6.599999904632568359375</ele>
        <time>2026-05-24T12:27:03.000Z</time>
        <extensions>
          <ns3:TrackPointExtension>
            <ns3:hr>164</ns3:hr>
            <ns3:cad>83</ns3:cad>
          </ns3:TrackPointExtension>
        </extensions>
      </trkpt>
      <trkpt lat="31.285095512866973876953125" lon="121.37109316885471343994140625">
        <ele>6.80000019073486328125</ele>
        <time>2026-05-24T12:27:04.000Z</time>
        <extensions>
          <ns3:TrackPointExtension>
            <ns3:hr>164</ns3:hr>
            <ns3:cad>83</ns3:cad>
          </ns3:TrackPointExtension>
        </extensions>
      </trkpt>
      <trkpt lat="31.2850941717624664306640625" lon="121.37113264761865139007568359375">
        <ele>6.80000019073486328125</ele>
        <time>2026-05-24T12:27:05.000Z</time>
        <extensions>
          <ns3:TrackPointExtension>
            <ns3:hr>164</ns3:hr>
            <ns3:cad>84</ns3:cad>
          </ns3:TrackPointExtension>
        </extensions>
      </trkpt>
      <trkpt lat="31.2850946746766567230224609375" lon="121.37117095291614532470703125">
        <ele>7</ele>
        <time>2026-05-24T12:27:06.000Z</time>
        <extensions>
          <ns3:TrackPointExtension>
            <ns3:hr>164</ns3:hr>
            <ns3:cad>84</ns3:cad>
          </ns3:TrackPointExtension>
        </extensions>
      </trkpt>
      <trkpt lat="31.2850986979901790618896484375" lon="121.37120674364268779754638671875">
        <ele>7</ele>
        <time>2026-05-24T12:27:07.000Z</time>
        <extensions>
          <ns3:TrackPointExtension>
            <ns3:hr>165</ns3:hr>
            <ns3:cad>85</ns3:cad>
          </ns3:TrackPointExtension>
        </extensions>
      </trkpt>
      <trkpt lat="31.28511168994009494781494140625" lon="121.3712375052273273468017578125">
        <ele>7</ele>
        <time>2026-05-24T12:27:08.000Z</time>
        <extensions>
          <ns3:TrackPointExtension>
            <ns3:hr>165</ns3:hr>
            <ns3:cad>85</ns3:cad>
          </ns3:TrackPointExtension>
        </extensions>
      </trkpt>
      <trkpt lat="31.2851298786699771881103515625" lon="121.37126223184168338775634765625">
        <ele>7.19999980926513671875</ele>
        <time>2026-05-24T12:27:09.000Z</time>
        <extensions>
          <ns3:TrackPointExtension>
            <ns3:hr>165</ns3:hr>
            <ns3:cad>86</ns3:cad>
          </ns3:TrackPointExtension>
        </extensions>
      </trkpt>
      <trkpt lat="31.285155527293682098388671875" lon="121.37127824127674102783203125">
        <ele>7.400000095367431640625</ele>
        <time>2026-05-24T12:27:10.000Z</time>
        <extensions>
          <ns3:TrackPointExtension>
            <ns3:hr>165</ns3:hr>
            <ns3:cad>86</ns3:cad>
          </ns3:TrackPointExtension>
        </extensions>
      </trkpt>
      <trkpt lat="31.28518461249768733978271484375" lon="121.3712898083031177520751953125">
        <ele>7.400000095367431640625</ele>
        <time>2026-05-24T12:27:11.000Z</time>
        <extensions>
          <ns3:TrackPointExtension>
            <ns3:hr>166</ns3:hr>
            <ns3:cad>86</ns3:cad>
          </ns3:TrackPointExtension>
        </extensions>
      </trkpt>
      <trkpt lat="31.28521495498716831207275390625" lon="121.3712968491017818450927734375">
        <ele>7.599999904632568359375</ele>
        <time>2026-05-24T12:27:12.000Z</time>
        <extensions>
          <ns3:TrackPointExtension>
            <ns3:hr>167</ns3:hr>
            <ns3:cad>86</ns3:cad>
          </ns3:TrackPointExtension>
        </extensions>
      </trkpt>
      <trkpt lat="31.28524647094309329986572265625" lon="121.37130238115787506103515625">
        <ele>7.599999904632568359375</ele>
        <time>2026-05-24T12:27:13.000Z</time>
        <extensions>
          <ns3:TrackPointExtension>
            <ns3:hr>167</ns3:hr>
            <ns3:cad>86</ns3:cad>
          </ns3:TrackPointExtension>
        </extensions>
      </trkpt>
      <trkpt lat="31.2852777354419231414794921875" lon="121.37130849994719028472900390625">
        <ele>7.599999904632568359375</ele>
        <time>2026-05-24T12:27:14.000Z</time>
        <extensions>
          <ns3:TrackPointExtension>
            <ns3:hr>167</ns3:hr>
            <ns3:cad>87</ns3:cad>
          </ns3:TrackPointExtension>
        </extensions>
      </trkpt>
      <trkpt lat="31.2853095866739749908447265625" lon="121.37131285853683948516845703125">
        <ele>7.400000095367431640625</ele>
        <time>2026-05-24T12:27:15.000Z</time>
        <extensions>
          <ns3:TrackPointExtension>
            <ns3:hr>168</ns3:hr>
            <ns3:cad>87</ns3:cad>
          </ns3:TrackPointExtension>
        </extensions>
      </trkpt>
      <trkpt lat="31.2853395938873291015625" lon="121.37131989933550357818603515625">
        <ele>7.19999980926513671875</ele>
        <time>2026-05-24T12:27:16.000Z</time>
        <extensions>
          <ns3:TrackPointExtension>
            <ns3:hr>168</ns3:hr>
            <ns3:cad>88</ns3:cad>
          </ns3:TrackPointExtension>
        </extensions>
      </trkpt>
      <trkpt lat="31.2853605486452579498291015625" lon="121.3713379204273223876953125">
        <ele>7.19999980926513671875</ele>
        <time>2026-05-24T12:27:17.000Z</time>
        <extensions>
          <ns3:TrackPointExtension>
            <ns3:hr>168</ns3:hr>
            <ns3:cad>89</ns3:cad>
          </ns3:TrackPointExtension>
        </extensions>
      </trkpt>
      <trkpt lat="31.28537538461387157440185546875" lon="121.3713615573942661285400390625">
        <ele>7</ele>
        <time>2026-05-24T12:27:18.000Z</time>
        <extensions>
          <ns3:TrackPointExtension>
            <ns3:hr>168</ns3:hr>
            <ns3:cad>89</ns3:cad>
          </ns3:TrackPointExtension>
        </extensions>
      </trkpt>
      <trkpt lat="31.28538158722221851348876953125" lon="121.37138997204601764678955078125">
        <ele>7</ele>
        <time>2026-05-24T12:27:19.000Z</time>
        <extensions>
          <ns3:TrackPointExtension>
            <ns3:hr>169</ns3:hr>
            <ns3:cad>90</ns3:cad>
          </ns3:TrackPointExtension>
        </extensions>
      </trkpt>
      <trkpt lat="31.2853836826980113983154296875" lon="121.371421404182910919189453125">
        <ele>7</ele>
        <time>2026-05-24T12:27:20.000Z</time>
        <extensions>
          <ns3:TrackPointExtension>
            <ns3:hr>169</ns3:hr>
            <ns3:cad>90</ns3:cad>
          </ns3:TrackPointExtension>
        </extensions>
      </trkpt>
      <trkpt lat="31.28538493998348712921142578125" lon="121.37145400978624820709228515625">
        <ele>7</ele>
        <time>2026-05-24T12:27:21.000Z</time>
        <extensions>
          <ns3:TrackPointExtension>
            <ns3:hr>170</ns3:hr>
            <ns3:cad>88</ns3:cad>
          </ns3:TrackPointExtension>
        </extensions>
      </trkpt>
      <trkpt lat="31.28538611344993114471435546875" lon="121.371491141617298126220703125">
        <ele>7</ele>
        <time>2026-05-24T12:27:22.000Z</time>
        <extensions>
          <ns3:TrackPointExtension>
            <ns3:hr>170</ns3:hr>
            <ns3:cad>87</ns3:cad>
          </ns3:TrackPointExtension>
        </extensions>
      </trkpt>
      <trkpt lat="31.2853867001831531524658203125" lon="121.37152106501162052154541015625">
        <ele>7.19999980926513671875</ele>
        <time>2026-05-24T12:27:23.000Z</time>
        <extensions>
          <ns3:TrackPointExtension>
            <ns3:hr>170</ns3:hr>
            <ns3:cad>87</ns3:cad>
          </ns3:TrackPointExtension>
        </extensions>
      </trkpt>
    </trkseg>
  </trk>
</gpx>
