<?xml version="1.0" encoding="UTF-8"?>
<gpx creator="Garmin Connect" version="1.1"
  xsi:schemaLocation="http://www.topografix.com/GPX/1/1 http://www.topografix.com/GPX/11.xsd"
  xmlns:ns3="http://www.garmin.com/xmlschemas/TrackPointExtension/v1"
  xmlns="http://www.topografix.com/GPX/1/1"
  xmlns:xsi="http://www.w3.org/2001/XMLSchema-instance" xmlns:ns2="http://www.garmin.com/xmlschemas/GpxExtensions/v3">
  <metadata>
    <link href="connect.garmin.com">
      <text>Garmin Connect</text>
    </link>
    <time>2026-07-25T00:34:27.000Z</time>
  </metadata>
  <trk>
    <name>普陀区 公路骑行</name>
    <type>road_biking</type>
    <trkseg>
      <trkpt lat="31.284457482397556304931640625" lon="121.3717488013207912445068359375">
        <ele>9.6000003814697265625</ele>
        <time>2026-07-25T00:34:37.000Z</time>
        <extensions>
          <ns3:TrackPointExtension>
            <ns3:hr>80</ns3:hr>
          </ns3:TrackPointExtension>
        </extensions>
      </trkpt>
      <trkpt lat="31.2844314984977245330810546875" lon="121.371741257607936859130859375">
        <ele>9.6000003814697265625</ele>
        <time>2026-07-25T00:34:38.000Z</time>
        <extensions>
          <ns3:TrackPointExtension>
            <ns3:hr>79</ns3:hr>
          </ns3:TrackPointExtension>
        </extensions>
      </trkpt>
      <trkpt lat="31.28446913324296474456787109375" lon="121.371898837387561798095703125">
        <ele>9.6000003814697265625</ele>
        <time>2026-07-25T00:34:42.000Z</time>
        <extensions>
          <ns3:TrackPointExtension>
            <ns3:hr>73</ns3:hr>
          </ns3:TrackPointExtension>
        </extensions>
      </trkpt>
      <trkpt lat="31.284344159066677093505859375" lon="121.37173195369541645050048828125">
        <ele>9.3999996185302734375</ele>
        <time>2026-07-25T00:34:43.000Z</time>
        <extensions>
          <ns3:TrackPointExtension>
            <ns3:hr>73</ns3:hr>
          </ns3:TrackPointExtension>
        </extensions>
      </trkpt>
      <trkpt lat="31.2843664549291133880615234375" lon="121.37175676412880420684814453125">
        <ele>9.3999996185302734375</ele>
        <time>2026-07-25T00:34:44.000Z</time>
        <extensions>
          <ns3:TrackPointExtension>
            <ns3:hr>73</ns3:hr>
          </ns3:TrackPointExtension>
        </extensions>
      </trkpt>
      <trkpt lat="31.2844331748783588409423828125" lon="121.372066475450992584228515625">
        <ele>9.3999996185302734375</ele>
        <time>2026-07-25T00:34:49.000Z</time>
        <extensions>
          <ns3:TrackPointExtension>
            <ns3:hr>75</ns3:hr>
          </ns3:TrackPointExtension>
        </extensions>
      </trkpt>
      <trkpt lat="31.28445857204496860504150390625" lon="121.3722275756299495697021484375">
        <ele>9.3999996185302734375</ele>
        <time>2026-07-25T00:34:52.000Z</time>
        <extensions>
          <ns3:TrackPointExtension>
            <ns3:hr>78</ns3:hr>
          </ns3:TrackPointExtension>
        </extensions>
      </trkpt>
      <trkpt lat="31.28448053263127803802490234375" lon="121.37235087342560291290283203125">
        <ele>9.6000003814697265625</ele>
        <time>2026-07-25T00:34:55.000Z</time>
        <extensions>
          <ns3:TrackPointExtension>
            <ns3:hr>81</ns3:hr>
          </ns3:TrackPointExtension>
        </extensions>
      </trkpt>
      <trkpt lat="31.28434139303863048553466796875" lon="121.37259679846465587615966796875">
        <ele>9</ele>
        <time>2026-07-25T00:35:00.000Z</time>
        <extensions>
          <ns3:TrackPointExtension>
            <ns3:hr>84</ns3:hr>
          </ns3:TrackPointExtension>
        </extensions>
      </trkpt>
      <trkpt lat="31.28402824513614177703857421875" lon="121.372640468180179595947265625">
        <ele>9.3999996185302734375</ele>
        <time>2026-07-25T00:35:08.000Z</time>
        <extensions>
          <ns3:TrackPointExtension>
            <ns3:hr>85</ns3:hr>
          </ns3:TrackPointExtension>
        </extensions>
      </trkpt>
      <trkpt lat="31.28377427347004413604736328125" lon="121.37266896665096282958984375">
        <ele>9.19999980926513671875</ele>
        <time>2026-07-25T00:35:14.000Z</time>
        <extensions>
          <ns3:TrackPointExtension>
            <ns3:hr>88</ns3:hr>
          </ns3:TrackPointExtension>
        </extensions>
      </trkpt>
      <trkpt lat="31.28366329707205295562744140625" lon="121.3726869039237499237060546875">
        <ele>9.3999996185302734375</ele>
        <time>2026-07-25T00:35:17.000Z</time>
        <extensions>
          <ns3:TrackPointExtension>
            <ns3:hr>90</ns3:hr>
          </ns3:TrackPointExtension>
        </extensions>
      </trkpt>
      <trkpt lat="31.28333858214318752288818359375" lon="121.37273577041923999786376953125">
        <ele>10</ele>
        <time>2026-07-25T00:35:25.000Z</time>
        <extensions>
          <ns3:TrackPointExtension>
            <ns3:hr>91</ns3:hr>
          </ns3:TrackPointExtension>
        </extensions>
      </trkpt>
      <trkpt lat="31.2829609774053096771240234375" lon="121.37281171046197414398193359375">
        <ele>10.3999996185302734375</ele>
        <time>2026-07-25T00:35:35.000Z</time>
        <extensions>
          <ns3:TrackPointExtension>
            <ns3:hr>93</ns3:hr>
          </ns3:TrackPointExtension>
        </extensions>
      </trkpt>
      <trkpt lat="31.2827447243034839630126953125" lon="121.372850351035594940185546875">
        <ele>9.6000003814697265625</ele>
        <time>2026-07-25T00:35:41.000Z</time>
        <extensions>
          <ns3:TrackPointExtension>
            <ns3:hr>90</ns3:hr>
          </ns3:TrackPointExtension>
        </extensions>
      </trkpt>
      <trkpt lat="31.282681524753570556640625" lon="121.37298219837248325347900390625">
        <ele>9.19999980926513671875</ele>
        <time>2026-07-25T00:35:45.000Z</time>
        <extensions>
          <ns3:TrackPointExtension>
            <ns3:hr>89</ns3:hr>
          </ns3:TrackPointExtension>
        </extensions>
      </trkpt>
      <trkpt lat="31.282649338245391845703125" lon="121.37333407066762447357177734375">
        <ele>9</ele>
        <time>2026-07-25T00:35:53.000Z</time>
        <extensions>
          <ns3:TrackPointExtension>
            <ns3:hr>88</ns3:hr>
          </ns3:TrackPointExtension>
        </extensions>
      </trkpt>
      <trkpt lat="31.282616816461086273193359375" lon="121.37358896434307098388671875">
        <ele>9</ele>
        <time>2026-07-25T00:35:58.000Z</time>
        <extensions>
          <ns3:TrackPointExtension>
            <ns3:hr>88</ns3:hr>
          </ns3:TrackPointExtension>
        </extensions>
      </trkpt>
      <trkpt lat="31.28257884643971920013427734375" lon="121.3737862743437290191650390625">
        <ele>9.6000003814697265625</ele>
        <time>2026-07-25T00:36:03.000Z</time>
        <extensions>
          <ns3:TrackPointExtension>
            <ns3:hr>91</ns3:hr>
          </ns3:TrackPointExtension>
        </extensions>
      </trkpt>
      <trkpt lat="31.2825566343963146209716796875" lon="121.3738134317100048065185546875">
        <ele>9.80000019073486328125</ele>
        <time>2026-07-25T00:36:04.000Z</time>
        <extensions>
          <ns3:TrackPointExtension>
            <ns3:hr>93</ns3:hr>
          </ns3:TrackPointExtension>
        </extensions>
      </trkpt>
      <trkpt lat="31.28244222141802310943603515625" lon="121.3738506473600864410400390625">
        <ele>10.19999980926513671875</ele>
        <time>2026-07-25T00:36:08.000Z</time>
        <extensions>
          <ns3:TrackPointExtension>
            <ns3:hr>94</ns3:hr>
          </ns3:TrackPointExtension>
        </extensions>
      </trkpt>
      <trkpt lat="31.282184980809688568115234375" lon="121.3738134317100048065185546875">
        <ele>9.80000019073486328125</ele>
        <time>2026-07-25T00:36:15.000Z</time>
        <extensions>
          <ns3:TrackPointExtension>
            <ns3:hr>92</ns3:hr>
          </ns3:TrackPointExtension>
        </extensions>
      </trkpt>
      <trkpt lat="31.28195221535861492156982421875" lon="121.3737752102315425872802734375">
        <ele>9.19999980926513671875</ele>
        <time>2026-07-25T00:36:20.000Z</time>
        <extensions>
          <ns3:TrackPointExtension>
            <ns3:hr>95</ns3:hr>
          </ns3:TrackPointExtension>
        </extensions>
      </trkpt>
      <trkpt lat="31.28177803941071033477783203125" lon="121.37374226935207843780517578125">
        <ele>9</ele>
        <time>2026-07-25T00:36:24.000Z</time>
        <extensions>
          <ns3:TrackPointExtension>
            <ns3:hr>95</ns3:hr>
          </ns3:TrackPointExtension>
        </extensions>
      </trkpt>
      <trkpt lat="31.28136112354695796966552734375" lon="121.37366917915642261505126953125">
        <ele>8.80000019073486328125</ele>
        <time>2026-07-25T00:36:33.000Z</time>
        <extensions>
          <ns3:TrackPointExtension>
            <ns3:hr>94</ns3:hr>
          </ns3:TrackPointExtension>
        </extensions>
      </trkpt>
      <trkpt lat="31.2810467183589935302734375" lon="121.37361335568130016326904296875">
        <ele>8.80000019073486328125</ele>
        <time>2026-07-25T00:36:40.000Z</time>
        <extensions>
          <ns3:TrackPointExtension>
            <ns3:hr>91</ns3:hr>
          </ns3:TrackPointExtension>
        </extensions>
      </trkpt>
      <trkpt lat="31.281004808843135833740234375" lon="121.37360933236777782440185546875">
        <ele>9</ele>
        <time>2026-07-25T00:36:41.000Z</time>
        <extensions>
          <ns3:TrackPointExtension>
            <ns3:hr>90</ns3:hr>
          </ns3:TrackPointExtension>
        </extensions>
      </trkpt>
      <trkpt lat="31.2808225862681865692138671875" lon="121.373583935201168060302734375">
        <ele>8.6000003814697265625</ele>
        <time>2026-07-25T00:36:45.000Z</time>
        <extensions>
          <ns3:TrackPointExtension>
            <ns3:hr>87</ns3:hr>
          </ns3:TrackPointExtension>
        </extensions>
      </trkpt>
      <trkpt lat="31.2806029804050922393798828125" lon="121.37354680337011814117431640625">
        <ele>9</ele>
        <time>2026-07-25T00:36:50.000Z</time>
        <extensions>
          <ns3:TrackPointExtension>
            <ns3:hr>89</ns3:hr>
          </ns3:TrackPointExtension>
        </extensions>
      </trkpt>
      <trkpt lat="31.28038982860743999481201171875" lon="121.3735091686248779296875">
        <ele>8.6000003814697265625</ele>
        <time>2026-07-25T00:36:55.000Z</time>
        <extensions>
          <ns3:TrackPointExtension>
            <ns3:hr>92</ns3:hr>
          </ns3:TrackPointExtension>
        </extensions>
      </trkpt>
      <trkpt lat="31.28027248196303844451904296875" lon="121.373488046228885650634765625">
        <ele>8.80000019073486328125</ele>
        <time>2026-07-25T00:36:58.000Z</time>
        <extensions>
          <ns3:TrackPointExtension>
            <ns3:hr>95</ns3:hr>
          </ns3:TrackPointExtension>
        </extensions>
      </trkpt>
      <trkpt lat="31.28023275174200534820556640625" lon="121.37348243035376071929931640625">
        <ele>8.6000003814697265625</ele>
        <time>2026-07-25T00:36:59.000Z</time>
        <extensions>
          <ns3:TrackPointExtension>
            <ns3:hr>96</ns3:hr>
          </ns3:TrackPointExtension>
        </extensions>
      </trkpt>
      <trkpt lat="31.2801520340144634246826171875" lon="121.3734727911651134490966796875">
        <ele>8.6000003814697265625</ele>
        <time>2026-07-25T00:37:01.000Z</time>
        <extensions>
          <ns3:TrackPointExtension>
            <ns3:hr>96</ns3:hr>
          </ns3:TrackPointExtension>
        </extensions>
      </trkpt>
      <trkpt lat="31.2798745930194854736328125" lon="121.37342509813606739044189453125">
        <ele>8.3999996185302734375</ele>
        <time>2026-07-25T00:37:08.000Z</time>
        <extensions>
          <ns3:TrackPointExtension>
            <ns3:hr>95</ns3:hr>
          </ns3:TrackPointExtension>
        </extensions>
      </trkpt>
      <trkpt lat="31.2797641195356845855712890625" lon="121.37341168709099292755126953125">
        <ele>8.6000003814697265625</ele>
        <time>2026-07-25T00:37:13.000Z</time>
        <extensions>
          <ns3:TrackPointExtension>
            <ns3:hr>96</ns3:hr>
          </ns3:TrackPointExtension>
        </extensions>
      </trkpt>
      <trkpt lat="31.27976353280246257781982421875" lon="121.37341051362454891204833984375">
        <ele>8.6000003814697265625</ele>
        <time>2026-07-25T00:37:14.000Z</time>
        <extensions>
          <ns3:TrackPointExtension>
            <ns3:hr>96</ns3:hr>
          </ns3:TrackPointExtension>
        </extensions>
      </trkpt>
      <trkpt lat="31.27971156500279903411865234375" lon="121.373412944376468658447265625">
        <ele>8.6000003814697265625</ele>
        <time>2026-07-25T00:37:58.000Z</time>
        <extensions>
          <ns3:TrackPointExtension>
            <ns3:hr>83</ns3:hr>
          </ns3:TrackPointExtension>
        </extensions>
      </trkpt>
      <trkpt lat="31.279684491455554962158203125" lon="121.37340766377747058868408203125">
        <ele>8.6000003814697265625</ele>
        <time>2026-07-25T00:37:59.000Z</time>
        <extensions>
          <ns3:TrackPointExtension>
            <ns3:hr>81</ns3:hr>
          </ns3:TrackPointExtension>
        </extensions>
      </trkpt>
      <trkpt lat="31.27962707541882991790771484375" lon="121.37339224107563495635986328125">
        <ele>8.3999996185302734375</ele>
        <time>2026-07-25T00:38:01.000Z</time>
        <extensions>
          <ns3:TrackPointExtension>
            <ns3:hr>78</ns3:hr>
          </ns3:TrackPointExtension>
        </extensions>
      </trkpt>
      <trkpt lat="31.2794908694922924041748046875" lon="121.3733598031103610992431640625">
        <ele>8.19999980926513671875</ele>
        <time>2026-07-25T00:38:05.000Z</time>
        <extensions>
          <ns3:TrackPointExtension>
            <ns3:hr>79</ns3:hr>
          </ns3:TrackPointExtension>
        </extensions>
      </trkpt>
      <trkpt lat="31.2791981734335422515869140625" lon="121.373308002948760986328125">
        <ele>8.6000003814697265625</ele>
        <time>2026-07-25T00:38:12.000Z</time>
        <extensions>
          <ns3:TrackPointExtension>
            <ns3:hr>80</ns3:hr>
          </ns3:TrackPointExtension>
        </extensions>
      </trkpt>
      <trkpt lat="31.27899642102420330047607421875" lon="121.37325511313974857330322265625">
        <ele>8.3999996185302734375</ele>
        <time>2026-07-25T00:38:18.000Z</time>
        <extensions>
          <ns3:TrackPointExtension>
            <ns3:hr>84</ns3:hr>
          </ns3:TrackPointExtension>
        </extensions>
      </trkpt>
      <trkpt lat="31.2788799963891506195068359375" lon="121.3732220046222209930419921875">
        <ele>8.6000003814697265625</ele>
        <time>2026-07-25T00:38:20.000Z</time>
        <extensions>
          <ns3:TrackPointExtension>
            <ns3:hr>86</ns3:hr>
          </ns3:TrackPointExtension>
        </extensions>
      </trkpt>
      <trkpt lat="31.278509683907032012939453125" lon="121.373129971325397491455078125">
        <ele>8.6000003814697265625</ele>
        <time>2026-07-25T00:38:29.000Z</time>
        <extensions>
          <ns3:TrackPointExtension>
            <ns3:hr>88</ns3:hr>
          </ns3:TrackPointExtension>
        </extensions>
      </trkpt>
      <trkpt lat="31.2780495174229145050048828125" lon="121.37311362661421298980712890625">
        <ele>8.6000003814697265625</ele>
        <time>2026-07-25T00:38:40.000Z</time>
        <extensions>
          <ns3:TrackPointExtension>
            <ns3:hr>88</ns3:hr>
          </ns3:TrackPointExtension>
        </extensions>
      </trkpt>
      <trkpt lat="31.2775925360620021820068359375" lon="121.37308713980019092559814453125">
        <ele>8.3999996185302734375</ele>
        <time>2026-07-25T00:38:49.000Z</time>
        <extensions>
          <ns3:TrackPointExtension>
            <ns3:hr>90</ns3:hr>
          </ns3:TrackPointExtension>
        </extensions>
      </trkpt>
      <trkpt lat="31.27712055109441280364990234375" lon="121.37303366325795650482177734375">
        <ele>8.3999996185302734375</ele>
        <time>2026-07-25T00:38:59.000Z</time>
        <extensions>
          <ns3:TrackPointExtension>
            <ns3:hr>90</ns3:hr>
          </ns3:TrackPointExtension>
        </extensions>
      </trkpt>
      <trkpt lat="31.27698107622563838958740234375" lon="121.37301321141421794891357421875">
        <ele>8.3999996185302734375</ele>
        <time>2026-07-25T00:39:02.000Z</time>
        <extensions>
          <ns3:TrackPointExtension>
            <ns3:hr>86</ns3:hr>
          </ns3:TrackPointExtension>
        </extensions>
      </trkpt>
      <trkpt lat="31.27669206820428371429443359375" lon="121.37298471294343471527099609375">
        <ele>8.3999996185302734375</ele>
        <time>2026-07-25T00:39:08.000Z</time>
        <extensions>
          <ns3:TrackPointExtension>
            <ns3:hr>88</ns3:hr>
          </ns3:TrackPointExtension>
        </extensions>
      </trkpt>
      <trkpt lat="31.27647330053150653839111328125" lon="121.37294464744627475738525390625">
        <ele>8.6000003814697265625</ele>
        <time>2026-07-25T00:39:12.000Z</time>
        <extensions>
          <ns3:TrackPointExtension>
            <ns3:hr>91</ns3:hr>
          </ns3:TrackPointExtension>
        </extensions>
      </trkpt>
      <trkpt lat="31.27629845403134822845458984375" lon="121.37290793471038341522216796875">
        <ele>8.6000003814697265625</ele>
        <time>2026-07-25T00:39:16.000Z</time>
        <extensions>
          <ns3:TrackPointExtension>
            <ns3:hr>92</ns3:hr>
          </ns3:TrackPointExtension>
        </extensions>
      </trkpt>
      <trkpt lat="31.2757654488086700439453125" lon="121.37281741015613079071044921875">
        <ele>8.3999996185302734375</ele>
        <time>2026-07-25T00:39:28.000Z</time>
        <extensions>
          <ns3:TrackPointExtension>
            <ns3:hr>94</ns3:hr>
          </ns3:TrackPointExtension>
        </extensions>
      </trkpt>
      <trkpt lat="31.2753498740494251251220703125" lon="121.37275286950170993804931640625">
        <ele>8.3999996185302734375</ele>
        <time>2026-07-25T00:39:37.000Z</time>
        <extensions>
          <ns3:TrackPointExtension>
            <ns3:hr>91</ns3:hr>
          </ns3:TrackPointExtension>
        </extensions>
      </trkpt>
      <trkpt lat="31.27513286657631397247314453125" lon="121.37270593084394931793212890625">
        <ele>7.80000019073486328125</ele>
        <time>2026-07-25T00:39:43.000Z</time>
        <extensions>
          <ns3:TrackPointExtension>
            <ns3:hr>94</ns3:hr>
          </ns3:TrackPointExtension>
        </extensions>
      </trkpt>
      <trkpt lat="31.2749388255178928375244140625" lon="121.3726548850536346435546875">
        <ele>8.3999996185302734375</ele>
        <time>2026-07-25T00:39:47.000Z</time>
        <extensions>
          <ns3:TrackPointExtension>
            <ns3:hr>95</ns3:hr>
          </ns3:TrackPointExtension>
        </extensions>
      </trkpt>
      <trkpt lat="31.27475936897099018096923828125" lon="121.37260199524462223052978515625">
        <ele>7.400000095367431640625</ele>
        <time>2026-07-25T00:39:52.000Z</time>
        <extensions>
          <ns3:TrackPointExtension>
            <ns3:hr>95</ns3:hr>
          </ns3:TrackPointExtension>
        </extensions>
      </trkpt>
      <trkpt lat="31.27459357492625713348388671875" lon="121.37253695167601108551025390625">
        <ele>7</ele>
        <time>2026-07-25T00:39:57.000Z</time>
        <extensions>
          <ns3:TrackPointExtension>
            <ns3:hr>96</ns3:hr>
          </ns3:TrackPointExtension>
        </extensions>
      </trkpt>
      <trkpt lat="31.2741656787693500518798828125" lon="121.37245262973010540008544921875">
        <ele>8</ele>
        <time>2026-07-25T00:40:06.000Z</time>
        <extensions>
          <ns3:TrackPointExtension>
            <ns3:hr>96</ns3:hr>
          </ns3:TrackPointExtension>
        </extensions>
      </trkpt>
      <trkpt lat="31.2740392796695232391357421875" lon="121.37242832221090793609619140625">
        <ele>7.80000019073486328125</ele>
        <time>2026-07-25T00:40:11.000Z</time>
        <extensions>
          <ns3:TrackPointExtension>
            <ns3:hr>97</ns3:hr>
          </ns3:TrackPointExtension>
        </extensions>
      </trkpt>
      <trkpt lat="31.27400524914264678955078125" lon="121.37243016622960567474365234375">
        <ele>7.80000019073486328125</ele>
        <time>2026-07-25T00:40:14.000Z</time>
        <extensions>
          <ns3:TrackPointExtension>
            <ns3:hr>93</ns3:hr>
          </ns3:TrackPointExtension>
        </extensions>
      </trkpt>
      <trkpt lat="31.2739484198391437530517578125" lon="121.37242631055414676666259765625">
        <ele>7.80000019073486328125</ele>
        <time>2026-07-25T00:40:16.000Z</time>
        <extensions>
          <ns3:TrackPointExtension>
            <ns3:hr>90</ns3:hr>
          </ns3:TrackPointExtension>
        </extensions>
      </trkpt>
      <trkpt lat="31.27392788417637348175048828125" lon="121.37242346070706844329833984375">
        <ele>7.80000019073486328125</ele>
        <time>2026-07-25T00:40:18.000Z</time>
        <extensions>
          <ns3:TrackPointExtension>
            <ns3:hr>90</ns3:hr>
          </ns3:TrackPointExtension>
        </extensions>
      </trkpt>
      <trkpt lat="31.27383702434599399566650390625" lon="121.37240971438586711883544921875">
        <ele>8</ele>
        <time>2026-07-25T00:40:23.000Z</time>
        <extensions>
          <ns3:TrackPointExtension>
            <ns3:hr>91</ns3:hr>
          </ns3:TrackPointExtension>
        </extensions>
      </trkpt>
      <trkpt lat="31.27383652143180370330810546875" lon="121.372409798204898834228515625">
        <ele>7.80000019073486328125</ele>
        <time>2026-07-25T00:40:24.000Z</time>
        <extensions>
          <ns3:TrackPointExtension>
            <ns3:hr>90</ns3:hr>
          </ns3:TrackPointExtension>
        </extensions>
      </trkpt>
      <trkpt lat="31.2738146446645259857177734375" lon="121.3724193535745143890380859375">
        <ele>8</ele>
        <time>2026-07-25T00:41:17.000Z</time>
        <extensions>
          <ns3:TrackPointExtension>
            <ns3:hr>74</ns3:hr>
          </ns3:TrackPointExtension>
        </extensions>
      </trkpt>
      <trkpt lat="31.27380006015300750732421875" lon="121.372412480413913726806640625">
        <ele>8</ele>
        <time>2026-07-25T00:41:18.000Z</time>
        <extensions>
          <ns3:TrackPointExtension>
            <ns3:hr>74</ns3:hr>
          </ns3:TrackPointExtension>
        </extensions>
      </trkpt>
      <trkpt lat="31.2737848050892353057861328125" lon="121.37240619398653507232666015625">
        <ele>8</ele>
        <time>2026-07-25T00:41:20.000Z</time>
        <extensions>
          <ns3:TrackPointExtension>
            <ns3:hr>74</ns3:hr>
          </ns3:TrackPointExtension>
        </extensions>
      </trkpt>
      <trkpt lat="31.27376477234065532684326171875" lon="121.37242211960256099700927734375">
        <ele>8</ele>
        <time>2026-07-25T00:41:23.000Z</time>
        <extensions>
          <ns3:TrackPointExtension>
            <ns3:hr>74</ns3:hr>
          </ns3:TrackPointExtension>
        </extensions>
      </trkpt>
      <trkpt lat="31.27371330745518207550048828125" lon="121.3724056072533130645751953125">
        <ele>8.3999996185302734375</ele>
        <time>2026-07-25T00:41:32.000Z</time>
        <extensions>
          <ns3:TrackPointExtension>
            <ns3:hr>85</ns3:hr>
          </ns3:TrackPointExtension>
        </extensions>
      </trkpt>
      <trkpt lat="31.2736865691840648651123046875" lon="121.37240451760590076446533203125">
        <ele>8.3999996185302734375</ele>
        <time>2026-07-25T00:41:33.000Z</time>
        <extensions>
          <ns3:TrackPointExtension>
            <ns3:hr>86</ns3:hr>
          </ns3:TrackPointExtension>
        </extensions>
      </trkpt>
      <trkpt lat="31.27362714149057865142822265625" lon="121.3723965547978878021240234375">
        <ele>8.3999996185302734375</ele>
        <time>2026-07-25T00:41:36.000Z</time>
        <extensions>
          <ns3:TrackPointExtension>
            <ns3:hr>78</ns3:hr>
          </ns3:TrackPointExtension>
        </extensions>
      </trkpt>
      <trkpt lat="31.2735982239246368408203125" lon="121.37239010073244571685791015625">
        <ele>8.3999996185302734375</ele>
        <time>2026-07-25T00:41:37.000Z</time>
        <extensions>
          <ns3:TrackPointExtension>
            <ns3:hr>78</ns3:hr>
          </ns3:TrackPointExtension>
        </extensions>
      </trkpt>
      <trkpt lat="31.2734696455299854278564453125" lon="121.37237283401191234588623046875">
        <ele>8.6000003814697265625</ele>
        <time>2026-07-25T00:41:40.000Z</time>
        <extensions>
          <ns3:TrackPointExtension>
            <ns3:hr>78</ns3:hr>
          </ns3:TrackPointExtension>
        </extensions>
      </trkpt>
      <trkpt lat="31.27343259751796722412109375" lon="121.37237065471708774566650390625">
        <ele>8.80000019073486328125</ele>
        <time>2026-07-25T00:41:42.000Z</time>
        <extensions>
          <ns3:TrackPointExtension>
            <ns3:hr>80</ns3:hr>
          </ns3:TrackPointExtension>
        </extensions>
      </trkpt>
      <trkpt lat="31.27312473021447658538818359375" lon="121.37234567664563655853271484375">
        <ele>8.80000019073486328125</ele>
        <time>2026-07-25T00:41:49.000Z</time>
        <extensions>
          <ns3:TrackPointExtension>
            <ns3:hr>83</ns3:hr>
          </ns3:TrackPointExtension>
        </extensions>
      </trkpt>
      <trkpt lat="31.27283773384988307952880859375" lon="121.37226403690874576568603515625">
        <ele>9</ele>
        <time>2026-07-25T00:41:57.000Z</time>
        <extensions>
          <ns3:TrackPointExtension>
            <ns3:hr>82</ns3:hr>
          </ns3:TrackPointExtension>
        </extensions>
      </trkpt>
      <trkpt lat="31.27262986265122890472412109375" lon="121.3722171820700168609619140625">
        <ele>8.80000019073486328125</ele>
        <time>2026-07-25T00:42:02.000Z</time>
        <extensions>
          <ns3:TrackPointExtension>
            <ns3:hr>86</ns3:hr>
          </ns3:TrackPointExtension>
        </extensions>
      </trkpt>
      <trkpt lat="31.27254822291433811187744140625" lon="121.372195221483707427978515625">
        <ele>8.80000019073486328125</ele>
        <time>2026-07-25T00:42:04.000Z</time>
        <extensions>
          <ns3:TrackPointExtension>
            <ns3:hr>86</ns3:hr>
          </ns3:TrackPointExtension>
        </extensions>
      </trkpt>
      <trkpt lat="31.2724266014993190765380859375" lon="121.37217720039188861846923828125">
        <ele>8.80000019073486328125</ele>
        <time>2026-07-25T00:42:08.000Z</time>
        <extensions>
          <ns3:TrackPointExtension>
            <ns3:hr>89</ns3:hr>
          </ns3:TrackPointExtension>
        </extensions>
      </trkpt>
      <trkpt lat="31.272147484123706817626953125" lon="121.37214618735015392303466796875">
        <ele>9</ele>
        <time>2026-07-25T00:42:14.000Z</time>
        <extensions>
          <ns3:TrackPointExtension>
            <ns3:hr>92</ns3:hr>
          </ns3:TrackPointExtension>
        </extensions>
      </trkpt>
      <trkpt lat="31.272147484123706817626953125" lon="121.37214618735015392303466796875">
        <ele>9</ele>
        <time>2026-07-25T00:42:15.000Z</time>
        <extensions>
          <ns3:TrackPointExtension>
            <ns3:hr>92</ns3:hr>
          </ns3:TrackPointExtension>
        </extensions>
      </trkpt>
      <trkpt lat="31.2719039060175418853759765625" lon="121.37211584486067295074462890625">
        <ele>9.3999996185302734375</ele>
        <time>2026-07-25T00:42:20.000Z</time>
        <extensions>
          <ns3:TrackPointExtension>
            <ns3:hr>95</ns3:hr>
          </ns3:TrackPointExtension>
        </extensions>
      </trkpt>
      <trkpt lat="31.27185554243624210357666015625" lon="121.372110731899738311767578125">
        <ele>9.3999996185302734375</ele>
        <time>2026-07-25T00:42:21.000Z</time>
        <extensions>
          <ns3:TrackPointExtension>
            <ns3:hr>95</ns3:hr>
          </ns3:TrackPointExtension>
        </extensions>
      </trkpt>
      <trkpt lat="31.2714968807995319366455078125" lon="121.372052729129791259765625">
        <ele>8.3999996185302734375</ele>
        <time>2026-07-25T00:42:28.000Z</time>
        <extensions>
          <ns3:TrackPointExtension>
            <ns3:hr>94</ns3:hr>
          </ns3:TrackPointExtension>
        </extensions>
      </trkpt>
      <trkpt lat="31.271326057612895965576171875" lon="121.372026242315769195556640625">
        <ele>7.80000019073486328125</ele>
        <time>2026-07-25T00:42:32.000Z</time>
        <extensions>
          <ns3:TrackPointExtension>
            <ns3:hr>93</ns3:hr>
          </ns3:TrackPointExtension>
        </extensions>
      </trkpt>
      <trkpt lat="31.27107686363160610198974609375" lon="121.3719896972179412841796875">
        <ele>7</ele>
        <time>2026-07-25T00:42:35.000Z</time>
        <extensions>
          <ns3:TrackPointExtension>
            <ns3:hr>90</ns3:hr>
          </ns3:TrackPointExtension>
        </extensions>
      </trkpt>
      <trkpt lat="31.27094727940857410430908203125" lon="121.371971927583217620849609375">
        <ele>6.599999904632568359375</ele>
        <time>2026-07-25T00:42:37.000Z</time>
        <extensions>
          <ns3:TrackPointExtension>
            <ns3:hr>89</ns3:hr>
          </ns3:TrackPointExtension>
        </extensions>
      </trkpt>
      <trkpt lat="31.27054410986602306365966796875" lon="121.371914930641651153564453125">
        <ele>5.80000019073486328125</ele>
        <time>2026-07-25T00:42:44.000Z</time>
        <extensions>
          <ns3:TrackPointExtension>
            <ns3:hr>88</ns3:hr>
          </ns3:TrackPointExtension>
        </extensions>
      </trkpt>
      <trkpt lat="31.270477473735809326171875" lon="121.37190076522529125213623046875">
        <ele>5.599999904632568359375</ele>
        <time>2026-07-25T00:42:45.000Z</time>
        <extensions>
          <ns3:TrackPointExtension>
            <ns3:hr>87</ns3:hr>
          </ns3:TrackPointExtension>
        </extensions>
      </trkpt>
      <trkpt lat="31.27009861171245574951171875" lon="121.37183605693280696868896484375">
        <ele>4.400000095367431640625</ele>
        <time>2026-07-25T00:42:50.000Z</time>
        <extensions>
          <ns3:TrackPointExtension>
            <ns3:hr>86</ns3:hr>
          </ns3:TrackPointExtension>
        </extensions>
      </trkpt>
      <trkpt lat="31.2696458213031291961669921875" lon="121.3717565126717090606689453125">
        <ele>4</ele>
        <time>2026-07-25T00:42:57.000Z</time>
        <extensions>
          <ns3:TrackPointExtension>
            <ns3:hr>84</ns3:hr>
          </ns3:TrackPointExtension>
        </extensions>
      </trkpt>
      <trkpt lat="31.26935304142534732818603515625" lon="121.3716866075992584228515625">
        <ele>5.19999980926513671875</ele>
        <time>2026-07-25T00:43:03.000Z</time>
        <extensions>
          <ns3:TrackPointExtension>
            <ns3:hr>83</ns3:hr>
          </ns3:TrackPointExtension>
        </extensions>
      </trkpt>
      <trkpt lat="31.2693075276911258697509765625" lon="121.371676214039325714111328125">
        <ele>5.400000095367431640625</ele>
        <time>2026-07-25T00:43:04.000Z</time>
        <extensions>
          <ns3:TrackPointExtension>
            <ns3:hr>83</ns3:hr>
          </ns3:TrackPointExtension>
        </extensions>
      </trkpt>
      <trkpt lat="31.2689186073839664459228515625" lon="121.37160505168139934539794921875">
        <ele>6.19999980926513671875</ele>
        <time>2026-07-25T00:43:13.000Z</time>
        <extensions>
          <ns3:TrackPointExtension>
            <ns3:hr>88</ns3:hr>
          </ns3:TrackPointExtension>
        </extensions>
      </trkpt>
      <trkpt lat="31.26883286051452159881591796875" lon="121.37159180827438831329345703125">
        <ele>6.599999904632568359375</ele>
        <time>2026-07-25T00:43:15.000Z</time>
        <extensions>
          <ns3:TrackPointExtension>
            <ns3:hr>93</ns3:hr>
          </ns3:TrackPointExtension>
        </extensions>
      </trkpt>
      <trkpt lat="31.26875256188213825225830078125" lon="121.37158057652413845062255859375">
        <ele>6.80000019073486328125</ele>
        <time>2026-07-25T00:43:17.000Z</time>
        <extensions>
          <ns3:TrackPointExtension>
            <ns3:hr>96</ns3:hr>
          </ns3:TrackPointExtension>
        </extensions>
      </trkpt>
      <trkpt lat="31.2685615383088588714599609375" lon="121.37155056931078433990478515625">
        <ele>7.400000095367431640625</ele>
        <time>2026-07-25T00:43:21.000Z</time>
        <extensions>
          <ns3:TrackPointExtension>
            <ns3:hr>97</ns3:hr>
          </ns3:TrackPointExtension>
        </extensions>
      </trkpt>
      <trkpt lat="31.2685270048677921295166015625" lon="121.3715392537415027618408203125">
        <ele>7.599999904632568359375</ele>
        <time>2026-07-25T00:43:23.000Z</time>
        <extensions>
          <ns3:TrackPointExtension>
            <ns3:hr>98</ns3:hr>
          </ns3:TrackPointExtension>
        </extensions>
      </trkpt>
      <trkpt lat="31.26827529631555080413818359375" lon="121.3714778982102870941162109375">
        <ele>7.599999904632568359375</ele>
        <time>2026-07-25T00:43:29.000Z</time>
        <extensions>
          <ns3:TrackPointExtension>
            <ns3:hr>100</ns3:hr>
          </ns3:TrackPointExtension>
        </extensions>
      </trkpt>
      <trkpt lat="31.26794873736798763275146484375" lon="121.37144110165536403656005859375">
        <ele>7.599999904632568359375</ele>
        <time>2026-07-25T00:43:36.000Z</time>
        <extensions>
          <ns3:TrackPointExtension>
            <ns3:hr>103</ns3:hr>
          </ns3:TrackPointExtension>
        </extensions>
      </trkpt>
      <trkpt lat="31.267906241118907928466796875" lon="121.37143976055085659027099609375">
        <ele>7.599999904632568359375</ele>
        <time>2026-07-25T00:43:37.000Z</time>
        <extensions>
          <ns3:TrackPointExtension>
            <ns3:hr>104</ns3:hr>
          </ns3:TrackPointExtension>
        </extensions>
      </trkpt>
      <trkpt lat="31.26776148565113544464111328125" lon="121.3714477233588695526123046875">
        <ele>7.80000019073486328125</ele>
        <time>2026-07-25T00:43:40.000Z</time>
        <extensions>
          <ns3:TrackPointExtension>
            <ns3:hr>105</ns3:hr>
          </ns3:TrackPointExtension>
        </extensions>
      </trkpt>
      <trkpt lat="31.26757800579071044921875" lon="121.37145853601396083831787109375">
        <ele>7.80000019073486328125</ele>
        <time>2026-07-25T00:43:44.000Z</time>
        <extensions>
          <ns3:TrackPointExtension>
            <ns3:hr>102</ns3:hr>
          </ns3:TrackPointExtension>
        </extensions>
      </trkpt>
      <trkpt lat="31.26748672686517238616943359375" lon="121.37145392596721649169921875">
        <ele>7.80000019073486328125</ele>
        <time>2026-07-25T00:43:46.000Z</time>
        <extensions>
          <ns3:TrackPointExtension>
            <ns3:hr>99</ns3:hr>
          </ns3:TrackPointExtension>
        </extensions>
      </trkpt>
      <trkpt lat="31.26707307994365692138671875" lon="121.37143406085669994354248046875">
        <ele>8.3999996185302734375</ele>
        <time>2026-07-25T00:43:56.000Z</time>
        <extensions>
          <ns3:TrackPointExtension>
            <ns3:hr>98</ns3:hr>
          </ns3:TrackPointExtension>
        </extensions>
      </trkpt>
      <trkpt lat="31.26696838997304439544677734375" lon="121.3713967613875865936279296875">
        <ele>8.6000003814697265625</ele>
        <time>2026-07-25T00:43:59.000Z</time>
        <extensions>
          <ns3:TrackPointExtension>
            <ns3:hr>98</ns3:hr>
          </ns3:TrackPointExtension>
        </extensions>
      </trkpt>
      <trkpt lat="31.26681818626821041107177734375" lon="121.37136432342231273651123046875">
        <ele>8.80000019073486328125</ele>
        <time>2026-07-25T00:44:03.000Z</time>
        <extensions>
          <ns3:TrackPointExtension>
            <ns3:hr>99</ns3:hr>
          </ns3:TrackPointExtension>
        </extensions>
      </trkpt>
      <trkpt lat="31.26662649214267730712890625" lon="121.37137538753449916839599609375">
        <ele>8.6000003814697265625</ele>
        <time>2026-07-25T00:44:08.000Z</time>
        <extensions>
          <ns3:TrackPointExtension>
            <ns3:hr>101</ns3:hr>
          </ns3:TrackPointExtension>
        </extensions>
      </trkpt>
      <trkpt lat="31.2663634680211544036865234375" lon="121.3713954202830791473388671875">
        <ele>9</ele>
        <time>2026-07-25T00:44:14.000Z</time>
        <extensions>
          <ns3:TrackPointExtension>
            <ns3:hr>102</ns3:hr>
          </ns3:TrackPointExtension>
        </extensions>
      </trkpt>
      <trkpt lat="31.26631979830563068389892578125" lon="121.3713900558650493621826171875">
        <ele>9</ele>
        <time>2026-07-25T00:44:15.000Z</time>
        <extensions>
          <ns3:TrackPointExtension>
            <ns3:hr>102</ns3:hr>
          </ns3:TrackPointExtension>
        </extensions>
      </trkpt>
      <trkpt lat="31.26611511223018169403076171875" lon="121.3713934086263179779052734375">
        <ele>9</ele>
        <time>2026-07-25T00:44:19.000Z</time>
        <extensions>
          <ns3:TrackPointExtension>
            <ns3:hr>99</ns3:hr>
          </ns3:TrackPointExtension>
        </extensions>
      </trkpt>
      <trkpt lat="31.266070939600467681884765625" lon="121.37139315716922283172607421875">
        <ele>9</ele>
        <time>2026-07-25T00:44:20.000Z</time>
        <extensions>
          <ns3:TrackPointExtension>
            <ns3:hr>98</ns3:hr>
          </ns3:TrackPointExtension>
        </extensions>
      </trkpt>
      <trkpt lat="31.26599944196641445159912109375" lon="121.371363066136837005615234375">
        <ele>9.19999980926513671875</ele>
        <time>2026-07-25T00:44:23.000Z</time>
        <extensions>
          <ns3:TrackPointExtension>
            <ns3:hr>97</ns3:hr>
          </ns3:TrackPointExtension>
        </extensions>
      </trkpt>
      <trkpt lat="31.26595870591700077056884765625" lon="121.37135610915720462799072265625">
        <ele>9.19999980926513671875</ele>
        <time>2026-07-25T00:44:24.000Z</time>
        <extensions>
          <ns3:TrackPointExtension>
            <ns3:hr>96</ns3:hr>
          </ns3:TrackPointExtension>
        </extensions>
      </trkpt>
      <trkpt lat="31.26578033901751041412353515625" lon="121.371307075023651123046875">
        <ele>9</ele>
        <time>2026-07-25T00:44:28.000Z</time>
        <extensions>
          <ns3:TrackPointExtension>
            <ns3:hr>97</ns3:hr>
          </ns3:TrackPointExtension>
        </extensions>
      </trkpt>
      <trkpt lat="31.2654749862849712371826171875" lon="121.37122183106839656829833984375">
        <ele>8.19999980926513671875</ele>
        <time>2026-07-25T00:44:34.000Z</time>
        <extensions>
          <ns3:TrackPointExtension>
            <ns3:hr>96</ns3:hr>
          </ns3:TrackPointExtension>
        </extensions>
      </trkpt>
      <trkpt lat="31.26515664160251617431640625" lon="121.371131725609302520751953125">
        <ele>7.599999904632568359375</ele>
        <time>2026-07-25T00:44:39.000Z</time>
        <extensions>
          <ns3:TrackPointExtension>
            <ns3:hr>93</ns3:hr>
          </ns3:TrackPointExtension>
        </extensions>
      </trkpt>
      <trkpt lat="31.26498791389167308807373046875" lon="121.3710809312760829925537109375">
        <ele>7</ele>
        <time>2026-07-25T00:44:43.000Z</time>
        <extensions>
          <ns3:TrackPointExtension>
            <ns3:hr>94</ns3:hr>
          </ns3:TrackPointExtension>
        </extensions>
      </trkpt>
      <trkpt lat="31.2646827287971973419189453125" lon="121.37100507505238056182861328125">
        <ele>6.400000095367431640625</ele>
        <time>2026-07-25T00:44:47.000Z</time>
        <extensions>
          <ns3:TrackPointExtension>
            <ns3:hr>94</ns3:hr>
          </ns3:TrackPointExtension>
        </extensions>
      </trkpt>
      <trkpt lat="31.2645563296973705291748046875" lon="121.37099920772016048431396484375">
        <ele>6</ele>
        <time>2026-07-25T00:44:50.000Z</time>
        <extensions>
          <ns3:TrackPointExtension>
            <ns3:hr>94</ns3:hr>
          </ns3:TrackPointExtension>
        </extensions>
      </trkpt>
      <trkpt lat="31.2643625400960445404052734375" lon="121.37098713777959346771240234375">
        <ele>5.599999904632568359375</ele>
        <time>2026-07-25T00:44:53.000Z</time>
        <extensions>
          <ns3:TrackPointExtension>
            <ns3:hr>94</ns3:hr>
          </ns3:TrackPointExtension>
        </extensions>
      </trkpt>
      <trkpt lat="31.26425215043127536773681640625" lon="121.37095034122467041015625">
        <ele>5.400000095367431640625</ele>
        <time>2026-07-25T00:44:54.000Z</time>
        <extensions>
          <ns3:TrackPointExtension>
            <ns3:hr>94</ns3:hr>
          </ns3:TrackPointExtension>
        </extensions>
      </trkpt>
      <trkpt lat="31.26419909298419952392578125" lon="121.370931230485439300537109375">
        <ele>5.400000095367431640625</ele>
        <time>2026-07-25T00:44:55.000Z</time>
        <extensions>
          <ns3:TrackPointExtension>
            <ns3:hr>93</ns3:hr>
          </ns3:TrackPointExtension>
        </extensions>
      </trkpt>
      <trkpt lat="31.2640343047678470611572265625" lon="121.3708980381488800048828125">
        <ele>5.400000095367431640625</ele>
        <time>2026-07-25T00:44:59.000Z</time>
        <extensions>
          <ns3:TrackPointExtension>
            <ns3:hr>90</ns3:hr>
          </ns3:TrackPointExtension>
        </extensions>
      </trkpt>
      <trkpt lat="31.2638911418616771697998046875" lon="121.37084883637726306915283203125">
        <ele>5.80000019073486328125</ele>
        <time>2026-07-25T00:45:01.000Z</time>
        <extensions>
          <ns3:TrackPointExtension>
            <ns3:hr>90</ns3:hr>
          </ns3:TrackPointExtension>
        </extensions>
      </trkpt>
      <trkpt lat="31.26384763978421688079833984375" lon="121.37083307839930057525634765625">
        <ele>5.80000019073486328125</ele>
        <time>2026-07-25T00:45:02.000Z</time>
        <extensions>
          <ns3:TrackPointExtension>
            <ns3:hr>90</ns3:hr>
          </ns3:TrackPointExtension>
        </extensions>
      </trkpt>
      <trkpt lat="31.2636044807732105255126953125" lon="121.3707409612834453582763671875">
        <ele>6</ele>
        <time>2026-07-25T00:45:08.000Z</time>
        <extensions>
          <ns3:TrackPointExtension>
            <ns3:hr>90</ns3:hr>
          </ns3:TrackPointExtension>
        </extensions>
      </trkpt>
      <trkpt lat="31.263384707272052764892578125" lon="121.370691843330860137939453125">
        <ele>6.400000095367431640625</ele>
        <time>2026-07-25T00:45:13.000Z</time>
        <extensions>
          <ns3:TrackPointExtension>
            <ns3:hr>89</ns3:hr>
          </ns3:TrackPointExtension>
        </extensions>
      </trkpt>
      <trkpt lat="31.26330214552581310272216796875" lon="121.370673738420009613037109375">
        <ele>6.599999904632568359375</ele>
        <time>2026-07-25T00:45:15.000Z</time>
        <extensions>
          <ns3:TrackPointExtension>
            <ns3:hr>88</ns3:hr>
          </ns3:TrackPointExtension>
        </extensions>
      </trkpt>
      <trkpt lat="31.2629315815865993499755859375" lon="121.37061330489814281463623046875">
        <ele>7.400000095367431640625</ele>
        <time>2026-07-25T00:45:24.000Z</time>
        <extensions>
          <ns3:TrackPointExtension>
            <ns3:hr>90</ns3:hr>
          </ns3:TrackPointExtension>
        </extensions>
      </trkpt>
      <trkpt lat="31.2628853134810924530029296875" lon="121.37060903012752532958984375">
        <ele>7.599999904632568359375</ele>
        <time>2026-07-25T00:45:25.000Z</time>
        <extensions>
          <ns3:TrackPointExtension>
            <ns3:hr>90</ns3:hr>
          </ns3:TrackPointExtension>
        </extensions>
      </trkpt>
      <trkpt lat="31.26262472011148929595947265625" lon="121.3705763407051563262939453125">
        <ele>8</ele>
        <time>2026-07-25T00:45:31.000Z</time>
        <extensions>
          <ns3:TrackPointExtension>
            <ns3:hr>93</ns3:hr>
          </ns3:TrackPointExtension>
        </extensions>
      </trkpt>
      <trkpt lat="31.26257895492017269134521484375" lon="121.37056753970682621002197265625">
        <ele>8</ele>
        <time>2026-07-25T00:45:32.000Z</time>
        <extensions>
          <ns3:TrackPointExtension>
            <ns3:hr>94</ns3:hr>
          </ns3:TrackPointExtension>
        </extensions>
      </trkpt>
      <trkpt lat="31.26241064630448818206787109375" lon="121.370539627969264984130859375">
        <ele>8.19999980926513671875</ele>
        <time>2026-07-25T00:45:36.000Z</time>
        <extensions>
          <ns3:TrackPointExtension>
            <ns3:hr>97</ns3:hr>
          </ns3:TrackPointExtension>
        </extensions>
      </trkpt>
      <trkpt lat="31.262285001575946807861328125" lon="121.37051842175424098968505859375">
        <ele>8.6000003814697265625</ele>
        <time>2026-07-25T00:45:39.000Z</time>
        <extensions>
          <ns3:TrackPointExtension>
            <ns3:hr>100</ns3:hr>
          </ns3:TrackPointExtension>
        </extensions>
      </trkpt>
      <trkpt lat="31.262151561677455902099609375" lon="121.370485313236713409423828125">
        <ele>8.6000003814697265625</ele>
        <time>2026-07-25T00:45:41.000Z</time>
        <extensions>
          <ns3:TrackPointExtension>
            <ns3:hr>101</ns3:hr>
          </ns3:TrackPointExtension>
        </extensions>
      </trkpt>
      <trkpt lat="31.26200781203806400299072265625" lon="121.37045941315591335296630859375">
        <ele>8.6000003814697265625</ele>
        <time>2026-07-25T00:45:45.000Z</time>
        <extensions>
          <ns3:TrackPointExtension>
            <ns3:hr>104</ns3:hr>
          </ns3:TrackPointExtension>
        </extensions>
      </trkpt>
      <trkpt lat="31.26181402243673801422119140625" lon="121.370435692369937896728515625">
        <ele>8.6000003814697265625</ele>
        <time>2026-07-25T00:45:49.000Z</time>
        <extensions>
          <ns3:TrackPointExtension>
            <ns3:hr>105</ns3:hr>
          </ns3:TrackPointExtension>
        </extensions>
      </trkpt>
      <trkpt lat="31.26142032444477081298828125" lon="121.37037827633321285247802734375">
        <ele>8.3999996185302734375</ele>
        <time>2026-07-25T00:45:58.000Z</time>
        <extensions>
          <ns3:TrackPointExtension>
            <ns3:hr>105</ns3:hr>
          </ns3:TrackPointExtension>
        </extensions>
      </trkpt>
      <trkpt lat="31.260959990322589874267578125" lon="121.370325051248073577880859375">
        <ele>8.19999980926513671875</ele>
        <time>2026-07-25T00:46:09.000Z</time>
        <extensions>
          <ns3:TrackPointExtension>
            <ns3:hr>103</ns3:hr>
          </ns3:TrackPointExtension>
        </extensions>
      </trkpt>
      <trkpt lat="31.260665617883205413818359375" lon="121.37028607539832592010498046875">
        <ele>8</ele>
        <time>2026-07-25T00:46:17.000Z</time>
        <extensions>
          <ns3:TrackPointExtension>
            <ns3:hr>100</ns3:hr>
          </ns3:TrackPointExtension>
        </extensions>
      </trkpt>
      <trkpt lat="31.26057936809957027435302734375" lon="121.37027082033455371856689453125">
        <ele>8</ele>
        <time>2026-07-25T00:46:20.000Z</time>
        <extensions>
          <ns3:TrackPointExtension>
            <ns3:hr>97</ns3:hr>
          </ns3:TrackPointExtension>
        </extensions>
      </trkpt>
      <trkpt lat="31.26046285964548587799072265625" lon="121.37024936266243457794189453125">
        <ele>8</ele>
        <time>2026-07-25T00:46:24.000Z</time>
        <extensions>
          <ns3:TrackPointExtension>
            <ns3:hr>94</ns3:hr>
          </ns3:TrackPointExtension>
        </extensions>
      </trkpt>
      <trkpt lat="31.2604522146284580230712890625" lon="121.37025238014757633209228515625">
        <ele>7.80000019073486328125</ele>
        <time>2026-07-25T00:46:27.000Z</time>
        <extensions>
          <ns3:TrackPointExtension>
            <ns3:hr>94</ns3:hr>
          </ns3:TrackPointExtension>
        </extensions>
      </trkpt>
      <trkpt lat="31.26037702895700931549072265625" lon="121.37024961411952972412109375">
        <ele>7.80000019073486328125</ele>
        <time>2026-07-25T00:48:37.000Z</time>
        <extensions>
          <ns3:TrackPointExtension>
            <ns3:hr>70</ns3:hr>
          </ns3:TrackPointExtension>
        </extensions>
      </trkpt>
      <trkpt lat="31.26035490073263645172119140625" lon="121.37024668045341968536376953125">
        <ele>7.80000019073486328125</ele>
        <time>2026-07-25T00:48:38.000Z</time>
        <extensions>
          <ns3:TrackPointExtension>
            <ns3:hr>70</ns3:hr>
          </ns3:TrackPointExtension>
        </extensions>
      </trkpt>
      <trkpt lat="31.26023855991661548614501953125" lon="121.37026679702103137969970703125">
        <ele>7.80000019073486328125</ele>
        <time>2026-07-25T00:48:43.000Z</time>
        <extensions>
          <ns3:TrackPointExtension>
            <ns3:hr>69</ns3:hr>
          </ns3:TrackPointExtension>
        </extensions>
      </trkpt>
      <trkpt lat="31.26009506173431873321533203125" lon="121.37037224136292934417724609375">
        <ele>8</ele>
        <time>2026-07-25T00:48:48.000Z</time>
        <extensions>
          <ns3:TrackPointExtension>
            <ns3:hr>69</ns3:hr>
          </ns3:TrackPointExtension>
        </extensions>
      </trkpt>
      <trkpt lat="31.25998659990727901458740234375" lon="121.37057893909513950347900390625">
        <ele>7.400000095367431640625</ele>
        <time>2026-07-25T00:48:54.000Z</time>
        <extensions>
          <ns3:TrackPointExtension>
            <ns3:hr>70</ns3:hr>
          </ns3:TrackPointExtension>
        </extensions>
      </trkpt>
      <trkpt lat="31.25997486524283885955810546875" lon="121.37061917223036289215087890625">
        <ele>7.400000095367431640625</ele>
        <time>2026-07-25T00:48:55.000Z</time>
        <extensions>
          <ns3:TrackPointExtension>
            <ns3:hr>71</ns3:hr>
          </ns3:TrackPointExtension>
        </extensions>
      </trkpt>
      <trkpt lat="31.2599657289683818817138671875" lon="121.370751857757568359375">
        <ele>8</ele>
        <time>2026-07-25T00:48:58.000Z</time>
        <extensions>
          <ns3:TrackPointExtension>
            <ns3:hr>75</ns3:hr>
          </ns3:TrackPointExtension>
        </extensions>
      </trkpt>
      <trkpt lat="31.2599670700728893280029296875" lon="121.3708417117595672607421875">
        <ele>8.19999980926513671875</ele>
        <time>2026-07-25T00:49:00.000Z</time>
        <extensions>
          <ns3:TrackPointExtension>
            <ns3:hr>78</ns3:hr>
          </ns3:TrackPointExtension>
        </extensions>
      </trkpt>
      <trkpt lat="31.25996916554868221282958984375" lon="121.3708834536373615264892578125">
        <ele>8.19999980926513671875</ele>
        <time>2026-07-25T00:49:01.000Z</time>
        <extensions>
          <ns3:TrackPointExtension>
            <ns3:hr>78</ns3:hr>
          </ns3:TrackPointExtension>
        </extensions>
      </trkpt>
      <trkpt lat="31.25996665097773075103759765625" lon="121.3709857128560543060302734375">
        <ele>8</ele>
        <time>2026-07-25T00:49:03.000Z</time>
        <extensions>
          <ns3:TrackPointExtension>
            <ns3:hr>74</ns3:hr>
          </ns3:TrackPointExtension>
        </extensions>
      </trkpt>
      <trkpt lat="31.2599617056548595428466796875" lon="121.37108738534152507781982421875">
        <ele>7.80000019073486328125</ele>
        <time>2026-07-25T00:49:05.000Z</time>
        <extensions>
          <ns3:TrackPointExtension>
            <ns3:hr>71</ns3:hr>
          </ns3:TrackPointExtension>
        </extensions>
      </trkpt>
      <trkpt lat="31.25995072536170482635498046875" lon="121.371276564896106719970703125">
        <ele>7.80000019073486328125</ele>
        <time>2026-07-25T00:49:09.000Z</time>
        <extensions>
          <ns3:TrackPointExtension>
            <ns3:hr>72</ns3:hr>
          </ns3:TrackPointExtension>
        </extensions>
      </trkpt>
      <trkpt lat="31.25993907451629638671875" lon="121.37143037281930446624755859375">
        <ele>7.599999904632568359375</ele>
        <time>2026-07-25T00:49:12.000Z</time>
        <extensions>
          <ns3:TrackPointExtension>
            <ns3:hr>79</ns3:hr>
          </ns3:TrackPointExtension>
        </extensions>
      </trkpt>
      <trkpt lat="31.25993412919342517852783203125" lon="121.37147865258157253265380859375">
        <ele>7.599999904632568359375</ele>
        <time>2026-07-25T00:49:13.000Z</time>
        <extensions>
          <ns3:TrackPointExtension>
            <ns3:hr>86</ns3:hr>
          </ns3:TrackPointExtension>
        </extensions>
      </trkpt>
      <trkpt lat="31.2599315308034420013427734375" lon="121.371523328125476837158203125">
        <ele>7.599999904632568359375</ele>
        <time>2026-07-25T00:49:14.000Z</time>
        <extensions>
          <ns3:TrackPointExtension>
            <ns3:hr>91</ns3:hr>
          </ns3:TrackPointExtension>
        </extensions>
      </trkpt>
      <trkpt lat="31.259928010404109954833984375" lon="121.37161242775619029998779296875">
        <ele>7.599999904632568359375</ele>
        <time>2026-07-25T00:49:15.000Z</time>
        <extensions>
          <ns3:TrackPointExtension>
            <ns3:hr>94</ns3:hr>
          </ns3:TrackPointExtension>
        </extensions>
      </trkpt>
      <trkpt lat="31.25992490909993648529052734375" lon="121.371700353920459747314453125">
        <ele>7.599999904632568359375</ele>
        <time>2026-07-25T00:49:18.000Z</time>
        <extensions>
          <ns3:TrackPointExtension>
            <ns3:hr>97</ns3:hr>
          </ns3:TrackPointExtension>
        </extensions>
      </trkpt>
      <trkpt lat="31.25992239452898502349853515625" lon="121.37175022624433040618896484375">
        <ele>7.599999904632568359375</ele>
        <time>2026-07-25T00:49:19.000Z</time>
        <extensions>
          <ns3:TrackPointExtension>
            <ns3:hr>98</ns3:hr>
          </ns3:TrackPointExtension>
        </extensions>
      </trkpt>
      <trkpt lat="31.25991669483482837677001953125" lon="121.371890120208263397216796875">
        <ele>7.599999904632568359375</ele>
        <time>2026-07-25T00:49:22.000Z</time>
        <extensions>
          <ns3:TrackPointExtension>
            <ns3:hr>101</ns3:hr>
          </ns3:TrackPointExtension>
        </extensions>
      </trkpt>
      <trkpt lat="31.25990219414234161376953125" lon="121.3720850832760334014892578125">
        <ele>7.400000095367431640625</ele>
        <time>2026-07-25T00:49:26.000Z</time>
        <extensions>
          <ns3:TrackPointExtension>
            <ns3:hr>102</ns3:hr>
          </ns3:TrackPointExtension>
        </extensions>
      </trkpt>
      <trkpt lat="31.25987763516604900360107421875" lon="121.37248716317117214202880859375">
        <ele>7.19999980926513671875</ele>
        <time>2026-07-25T00:49:34.000Z</time>
        <extensions>
          <ns3:TrackPointExtension>
            <ns3:hr>100</ns3:hr>
          </ns3:TrackPointExtension>
        </extensions>
      </trkpt>
      <trkpt lat="31.2598089873790740966796875" lon="121.37288899160921573638916015625">
        <ele>7</ele>
        <time>2026-07-25T00:49:45.000Z</time>
        <extensions>
          <ns3:TrackPointExtension>
            <ns3:hr>100</ns3:hr>
          </ns3:TrackPointExtension>
        </extensions>
      </trkpt>
      <trkpt lat="31.2598017789423465728759765625" lon="121.3729792647063732147216796875">
        <ele>6.80000019073486328125</ele>
        <time>2026-07-25T00:49:47.000Z</time>
        <extensions>
          <ns3:TrackPointExtension>
            <ns3:hr>98</ns3:hr>
          </ns3:TrackPointExtension>
        </extensions>
      </trkpt>
      <trkpt lat="31.2597954086959362030029296875" lon="121.37312251143157482147216796875">
        <ele>6.80000019073486328125</ele>
        <time>2026-07-25T00:49:49.000Z</time>
        <extensions>
          <ns3:TrackPointExtension>
            <ns3:hr>95</ns3:hr>
          </ns3:TrackPointExtension>
        </extensions>
      </trkpt>
      <trkpt lat="31.2597942352294921875" lon="121.37326399795711040496826171875">
        <ele>7.400000095367431640625</ele>
        <time>2026-07-25T00:49:53.000Z</time>
        <extensions>
          <ns3:TrackPointExtension>
            <ns3:hr>95</ns3:hr>
          </ns3:TrackPointExtension>
        </extensions>
      </trkpt>
      <trkpt lat="31.25978157855570316314697265625" lon="121.37366146780550479888916015625">
        <ele>7.19999980926513671875</ele>
        <time>2026-07-25T00:50:01.000Z</time>
        <extensions>
          <ns3:TrackPointExtension>
            <ns3:hr>98</ns3:hr>
          </ns3:TrackPointExtension>
        </extensions>
      </trkpt>
      <trkpt lat="31.259759366512298583984375" lon="121.37404938228428363800048828125">
        <ele>7</ele>
        <time>2026-07-25T00:50:07.000Z</time>
        <extensions>
          <ns3:TrackPointExtension>
            <ns3:hr>95</ns3:hr>
          </ns3:TrackPointExtension>
        </extensions>
      </trkpt>
      <trkpt lat="31.25975693576037883758544921875" lon="121.37410528957843780517578125">
        <ele>7</ele>
        <time>2026-07-25T00:50:09.000Z</time>
        <extensions>
          <ns3:TrackPointExtension>
            <ns3:hr>95</ns3:hr>
          </ns3:TrackPointExtension>
        </extensions>
      </trkpt>
      <trkpt lat="31.2597508169710636138916015625" lon="121.3743393123149871826171875">
        <ele>7.400000095367431640625</ele>
        <time>2026-07-25T00:50:13.000Z</time>
        <extensions>
          <ns3:TrackPointExtension>
            <ns3:hr>99</ns3:hr>
          </ns3:TrackPointExtension>
        </extensions>
      </trkpt>
      <trkpt lat="31.2597330473363399505615234375" lon="121.3745082914829254150390625">
        <ele>7.19999980926513671875</ele>
        <time>2026-07-25T00:50:16.000Z</time>
        <extensions>
          <ns3:TrackPointExtension>
            <ns3:hr>100</ns3:hr>
          </ns3:TrackPointExtension>
        </extensions>
      </trkpt>
      <trkpt lat="31.25967110507190227508544921875" lon="121.375058479607105255126953125">
        <ele>7</ele>
        <time>2026-07-25T00:50:26.000Z</time>
        <extensions>
          <ns3:TrackPointExtension>
            <ns3:hr>98</ns3:hr>
          </ns3:TrackPointExtension>
        </extensions>
      </trkpt>
      <trkpt lat="31.25962802208960056304931640625" lon="121.3755997829139232635498046875">
        <ele>6.80000019073486328125</ele>
        <time>2026-07-25T00:50:36.000Z</time>
        <extensions>
          <ns3:TrackPointExtension>
            <ns3:hr>98</ns3:hr>
          </ns3:TrackPointExtension>
        </extensions>
      </trkpt>
      <trkpt lat="31.25959130935370922088623046875" lon="121.37601904571056365966796875">
        <ele>7.19999980926513671875</ele>
        <time>2026-07-25T00:50:44.000Z</time>
        <extensions>
          <ns3:TrackPointExtension>
            <ns3:hr>99</ns3:hr>
          </ns3:TrackPointExtension>
        </extensions>
      </trkpt>
      <trkpt lat="31.25953598879277706146240234375" lon="121.37610915116965770721435546875">
        <ele>7.19999980926513671875</ele>
        <time>2026-07-25T00:50:48.000Z</time>
        <extensions>
          <ns3:TrackPointExtension>
            <ns3:hr>96</ns3:hr>
          </ns3:TrackPointExtension>
        </extensions>
      </trkpt>
      <trkpt lat="31.2594007886946201324462890625" lon="121.376130692660808563232421875">
        <ele>7</ele>
        <time>2026-07-25T00:50:54.000Z</time>
        <extensions>
          <ns3:TrackPointExtension>
            <ns3:hr>95</ns3:hr>
          </ns3:TrackPointExtension>
        </extensions>
      </trkpt>
      <trkpt lat="31.25926760025322437286376953125" lon="121.37608869932591915130615234375">
        <ele>7</ele>
        <time>2026-07-25T00:50:59.000Z</time>
        <extensions>
          <ns3:TrackPointExtension>
            <ns3:hr>93</ns3:hr>
          </ns3:TrackPointExtension>
        </extensions>
      </trkpt>
      <trkpt lat="31.259152851998805999755859375" lon="121.37604360468685626983642578125">
        <ele>6.80000019073486328125</ele>
        <time>2026-07-25T00:51:06.000Z</time>
        <extensions>
          <ns3:TrackPointExtension>
            <ns3:hr>92</ns3:hr>
          </ns3:TrackPointExtension>
        </extensions>
      </trkpt>
      <trkpt lat="31.2591436319053173065185546875" lon="121.3760393299162387847900390625">
        <ele>7</ele>
        <time>2026-07-25T00:51:07.000Z</time>
        <extensions>
          <ns3:TrackPointExtension>
            <ns3:hr>92</ns3:hr>
          </ns3:TrackPointExtension>
        </extensions>
      </trkpt>
      <trkpt lat="31.259117312729358673095703125" lon="121.37611091136932373046875">
        <ele>7</ele>
        <time>2026-07-25T00:51:15.000Z</time>
        <extensions>
          <ns3:TrackPointExtension>
            <ns3:hr>92</ns3:hr>
          </ns3:TrackPointExtension>
        </extensions>
      </trkpt>
      <trkpt lat="31.25913835130631923675537109375" lon="121.3761291839182376861572265625">
        <ele>6.80000019073486328125</ele>
        <time>2026-07-25T00:51:16.000Z</time>
        <extensions>
          <ns3:TrackPointExtension>
            <ns3:hr>92</ns3:hr>
          </ns3:TrackPointExtension>
        </extensions>
      </trkpt>
      <trkpt lat="31.25928067602217197418212890625" lon="121.37621057219803333282470703125">
        <ele>6.80000019073486328125</ele>
        <time>2026-07-25T00:51:22.000Z</time>
        <extensions>
          <ns3:TrackPointExtension>
            <ns3:hr>94</ns3:hr>
          </ns3:TrackPointExtension>
        </extensions>
      </trkpt>
      <trkpt lat="31.25947128050029277801513671875" lon="121.37634971179068088531494140625">
        <ele>6.599999904632568359375</ele>
        <time>2026-07-25T00:51:28.000Z</time>
        <extensions>
          <ns3:TrackPointExtension>
            <ns3:hr>97</ns3:hr>
          </ns3:TrackPointExtension>
        </extensions>
      </trkpt>
      <trkpt lat="31.2595258466899394989013671875" lon="121.37641492299735546112060546875">
        <ele>6.80000019073486328125</ele>
        <time>2026-07-25T00:51:30.000Z</time>
        <extensions>
          <ns3:TrackPointExtension>
            <ns3:hr>101</ns3:hr>
          </ns3:TrackPointExtension>
        </extensions>
      </trkpt>
      <trkpt lat="31.25955107621848583221435546875" lon="121.37650058604776859283447265625">
        <ele>7</ele>
        <time>2026-07-25T00:51:32.000Z</time>
        <extensions>
          <ns3:TrackPointExtension>
            <ns3:hr>102</ns3:hr>
          </ns3:TrackPointExtension>
        </extensions>
      </trkpt>
      <trkpt lat="31.25955216586589813232421875" lon="121.37654551304876804351806640625">
        <ele>7</ele>
        <time>2026-07-25T00:51:33.000Z</time>
        <extensions>
          <ns3:TrackPointExtension>
            <ns3:hr>103</ns3:hr>
          </ns3:TrackPointExtension>
        </extensions>
      </trkpt>
      <trkpt lat="31.25953313894569873809814453125" lon="121.37677618302404880523681640625">
        <ele>7</ele>
        <time>2026-07-25T00:51:38.000Z</time>
        <extensions>
          <ns3:TrackPointExtension>
            <ns3:hr>100</ns3:hr>
          </ns3:TrackPointExtension>
        </extensions>
      </trkpt>
      <trkpt lat="31.259521655738353729248046875" lon="121.3769338466227054595947265625">
        <ele>6.80000019073486328125</ele>
        <time>2026-07-25T00:51:41.000Z</time>
        <extensions>
          <ns3:TrackPointExtension>
            <ns3:hr>98</ns3:hr>
          </ns3:TrackPointExtension>
        </extensions>
      </trkpt>
      <trkpt lat="31.2594882957637310028076171875" lon="121.37754849158227443695068359375">
        <ele>6.599999904632568359375</ele>
        <time>2026-07-25T00:51:53.000Z</time>
        <extensions>
          <ns3:TrackPointExtension>
            <ns3:hr>96</ns3:hr>
          </ns3:TrackPointExtension>
        </extensions>
      </trkpt>
      <trkpt lat="31.2594594620168209075927734375" lon="121.37802399694919586181640625">
        <ele>6.599999904632568359375</ele>
        <time>2026-07-25T00:52:01.000Z</time>
        <extensions>
          <ns3:TrackPointExtension>
            <ns3:hr>99</ns3:hr>
          </ns3:TrackPointExtension>
        </extensions>
      </trkpt>
      <trkpt lat="31.2594522535800933837890625" lon="121.3781294412910938262939453125">
        <ele>6.599999904632568359375</ele>
        <time>2026-07-25T00:52:04.000Z</time>
        <extensions>
          <ns3:TrackPointExtension>
            <ns3:hr>98</ns3:hr>
          </ns3:TrackPointExtension>
        </extensions>
      </trkpt>
      <trkpt lat="31.259448230266571044921875" lon="121.37818216346204280853271484375">
        <ele>6.400000095367431640625</ele>
        <time>2026-07-25T00:52:05.000Z</time>
        <extensions>
          <ns3:TrackPointExtension>
            <ns3:hr>98</ns3:hr>
          </ns3:TrackPointExtension>
        </extensions>
      </trkpt>
      <trkpt lat="31.259436495602130889892578125" lon="121.37833773158490657806396484375">
        <ele>6.400000095367431640625</ele>
        <time>2026-07-25T00:52:08.000Z</time>
        <extensions>
          <ns3:TrackPointExtension>
            <ns3:hr>95</ns3:hr>
          </ns3:TrackPointExtension>
        </extensions>
      </trkpt>
      <trkpt lat="31.2594158761203289031982421875" lon="121.378647275269031524658203125">
        <ele>6.19999980926513671875</ele>
        <time>2026-07-25T00:52:14.000Z</time>
        <extensions>
          <ns3:TrackPointExtension>
            <ns3:hr>95</ns3:hr>
          </ns3:TrackPointExtension>
        </extensions>
      </trkpt>
      <trkpt lat="31.25936499796807765960693359375" lon="121.3791607506573200225830078125">
        <ele>6.80000019073486328125</ele>
        <time>2026-07-25T00:52:24.000Z</time>
        <extensions>
          <ns3:TrackPointExtension>
            <ns3:hr>94</ns3:hr>
          </ns3:TrackPointExtension>
        </extensions>
      </trkpt>
      <trkpt lat="31.2592824362218379974365234375" lon="121.37923677451908588409423828125">
        <ele>7</ele>
        <time>2026-07-25T00:52:26.000Z</time>
        <extensions>
          <ns3:TrackPointExtension>
            <ns3:hr>94</ns3:hr>
          </ns3:TrackPointExtension>
        </extensions>
      </trkpt>
      <trkpt lat="31.2592468969523906707763671875" lon="121.3792489282786846160888671875">
        <ele>7</ele>
        <time>2026-07-25T00:52:27.000Z</time>
        <extensions>
          <ns3:TrackPointExtension>
            <ns3:hr>94</ns3:hr>
          </ns3:TrackPointExtension>
        </extensions>
      </trkpt>
      <trkpt lat="31.25905520282685756683349609375" lon="121.37925907038152217864990234375">
        <ele>7</ele>
        <time>2026-07-25T00:52:33.000Z</time>
        <extensions>
          <ns3:TrackPointExtension>
            <ns3:hr>94</ns3:hr>
          </ns3:TrackPointExtension>
        </extensions>
      </trkpt>
      <trkpt lat="31.25897339545190334320068359375" lon="121.379241384565830230712890625">
        <ele>7</ele>
        <time>2026-07-25T00:52:34.000Z</time>
        <extensions>
          <ns3:TrackPointExtension>
            <ns3:hr>94</ns3:hr>
          </ns3:TrackPointExtension>
        </extensions>
      </trkpt>
      <trkpt lat="31.25876116566359996795654296875" lon="121.379167623817920684814453125">
        <ele>7</ele>
        <time>2026-07-25T00:52:40.000Z</time>
        <extensions>
          <ns3:TrackPointExtension>
            <ns3:hr>95</ns3:hr>
          </ns3:TrackPointExtension>
        </extensions>
      </trkpt>
      <trkpt lat="31.2585136480629444122314453125" lon="121.37910299934446811676025390625">
        <ele>7.400000095367431640625</ele>
        <time>2026-07-25T00:52:45.000Z</time>
        <extensions>
          <ns3:TrackPointExtension>
            <ns3:hr>94</ns3:hr>
          </ns3:TrackPointExtension>
        </extensions>
      </trkpt>
      <trkpt lat="31.2584727443754673004150390625" lon="121.3791030831634998321533203125">
        <ele>7.400000095367431640625</ele>
        <time>2026-07-25T00:52:47.000Z</time>
        <extensions>
          <ns3:TrackPointExtension>
            <ns3:hr>94</ns3:hr>
          </ns3:TrackPointExtension>
        </extensions>
      </trkpt>
      <trkpt lat="31.25836654566228389739990234375" lon="121.3791074417531490325927734375">
        <ele>7.19999980926513671875</ele>
        <time>2026-07-25T00:52:51.000Z</time>
        <extensions>
          <ns3:TrackPointExtension>
            <ns3:hr>94</ns3:hr>
          </ns3:TrackPointExtension>
        </extensions>
      </trkpt>
      <trkpt lat="31.25832312740385532379150390625" lon="121.379138790071010589599609375">
        <ele>7.19999980926513671875</ele>
        <time>2026-07-25T00:52:52.000Z</time>
        <extensions>
          <ns3:TrackPointExtension>
            <ns3:hr>94</ns3:hr>
          </ns3:TrackPointExtension>
        </extensions>
      </trkpt>
      <trkpt lat="31.25829915516078472137451171875" lon="121.37912931852042675018310546875">
        <ele>7.400000095367431640625</ele>
        <time>2026-07-25T00:52:54.000Z</time>
        <extensions>
          <ns3:TrackPointExtension>
            <ns3:hr>94</ns3:hr>
          </ns3:TrackPointExtension>
        </extensions>
      </trkpt>
      <trkpt lat="31.2582880072295665740966796875" lon="121.37909847311675548553466796875">
        <ele>7.400000095367431640625</ele>
        <time>2026-07-25T00:52:57.000Z</time>
        <extensions>
          <ns3:TrackPointExtension>
            <ns3:hr>95</ns3:hr>
          </ns3:TrackPointExtension>
        </extensions>
      </trkpt>
      <trkpt lat="31.2581049464643001556396484375" lon="121.37912428937852382659912109375">
        <ele>7.400000095367431640625</ele>
        <time>2026-07-25T00:53:47.000Z</time>
        <extensions>
          <ns3:TrackPointExtension>
            <ns3:hr>90</ns3:hr>
          </ns3:TrackPointExtension>
        </extensions>
      </trkpt>
      <trkpt lat="31.2580968998372554779052734375" lon="121.3791377842426300048828125">
        <ele>7.19999980926513671875</ele>
        <time>2026-07-25T00:53:48.000Z</time>
        <extensions>
          <ns3:TrackPointExtension>
            <ns3:hr>90</ns3:hr>
          </ns3:TrackPointExtension>
        </extensions>
      </trkpt>
      <trkpt lat="31.25809161923825740814208984375" lon="121.37917106039822101593017578125">
        <ele>7.19999980926513671875</ele>
        <time>2026-07-25T00:53:50.000Z</time>
        <extensions>
          <ns3:TrackPointExtension>
            <ns3:hr>91</ns3:hr>
          </ns3:TrackPointExtension>
        </extensions>
      </trkpt>
    </trkseg>
  </trk>
</gpx>
