<?xml version="1.0" encoding="UTF-8"?>
<gpx creator="Garmin Connect" version="1.1"
  xsi:schemaLocation="http://www.topografix.com/GPX/1/1 http://www.topografix.com/GPX/11.xsd"
  xmlns:ns3="http://www.garmin.com/xmlschemas/TrackPointExtension/v1"
  xmlns="http://www.topografix.com/GPX/1/1"
  xmlns:xsi="http://www.w3.org/2001/XMLSchema-instance" xmlns:ns2="http://www.garmin.com/xmlschemas/GpxExtensions/v3">
  <metadata>
    <link href="connect.garmin.com">
      <text>Garmin Connect</text>
    </link>
    <time>2026-07-30T12:34:10.000Z</time>
  </metadata>
  <trk>
    <name>普陀区 公路骑行</name>
    <type>road_biking</type>
    <trkseg>
      <trkpt lat="31.28448924981057643890380859375" lon="121.37176380492746829986572265625">
        <ele>17.3999996185302734375</ele>
        <time>2026-07-30T12:34:20.000Z</time>
        <extensions>
          <ns3:TrackPointExtension>
            <ns3:hr>101</ns3:hr>
          </ns3:TrackPointExtension>
        </extensions>
      </trkpt>
      <trkpt lat="31.28444063477218151092529296875" lon="121.371791549026966094970703125">
        <ele>17.3999996185302734375</ele>
        <time>2026-07-30T12:34:21.000Z</time>
        <extensions>
          <ns3:TrackPointExtension>
            <ns3:hr>101</ns3:hr>
          </ns3:TrackPointExtension>
        </extensions>
      </trkpt>
      <trkpt lat="31.28439612686634063720703125" lon="121.3717394135892391204833984375">
        <ele>17.3999996185302734375</ele>
        <time>2026-07-30T12:34:24.000Z</time>
        <extensions>
          <ns3:TrackPointExtension>
            <ns3:hr>100</ns3:hr>
          </ns3:TrackPointExtension>
        </extensions>
      </trkpt>
      <trkpt lat="31.284417919814586639404296875" lon="121.37170798145234584808349609375">
        <ele>17.200000762939453125</ele>
        <time>2026-07-30T12:34:27.000Z</time>
        <extensions>
          <ns3:TrackPointExtension>
            <ns3:hr>100</ns3:hr>
          </ns3:TrackPointExtension>
        </extensions>
      </trkpt>
      <trkpt lat="31.2843216955661773681640625" lon="121.37171166948974132537841796875">
        <ele>17.200000762939453125</ele>
        <time>2026-07-30T12:34:33.000Z</time>
        <extensions>
          <ns3:TrackPointExtension>
            <ns3:hr>102</ns3:hr>
          </ns3:TrackPointExtension>
        </extensions>
      </trkpt>
      <trkpt lat="31.28409479744732379913330078125" lon="121.37174226343631744384765625">
        <ele>17</ele>
        <time>2026-07-30T12:34:41.000Z</time>
        <extensions>
          <ns3:TrackPointExtension>
            <ns3:hr>102</ns3:hr>
          </ns3:TrackPointExtension>
        </extensions>
      </trkpt>
      <trkpt lat="31.2837968207895755767822265625" lon="121.37168115936219692230224609375">
        <ele>17.799999237060546875</ele>
        <time>2026-07-30T12:34:53.000Z</time>
        <extensions>
          <ns3:TrackPointExtension>
            <ns3:hr>102</ns3:hr>
          </ns3:TrackPointExtension>
        </extensions>
      </trkpt>
      <trkpt lat="31.28364787437021732330322265625" lon="121.37166305445134639739990234375">
        <ele>18</ele>
        <time>2026-07-30T12:35:01.000Z</time>
        <extensions>
          <ns3:TrackPointExtension>
            <ns3:hr>105</ns3:hr>
          </ns3:TrackPointExtension>
        </extensions>
      </trkpt>
      <trkpt lat="31.283554919064044952392578125" lon="121.371631287038326263427734375">
        <ele>18</ele>
        <time>2026-07-30T12:35:06.000Z</time>
        <extensions>
          <ns3:TrackPointExtension>
            <ns3:hr>108</ns3:hr>
          </ns3:TrackPointExtension>
        </extensions>
      </trkpt>
      <trkpt lat="31.28343229182064533233642578125" lon="121.37162022292613983154296875">
        <ele>18.200000762939453125</ele>
        <time>2026-07-30T12:35:12.000Z</time>
        <extensions>
          <ns3:TrackPointExtension>
            <ns3:hr>107</ns3:hr>
          </ns3:TrackPointExtension>
        </extensions>
      </trkpt>
      <trkpt lat="31.28336406312882900238037109375" lon="121.37160890735685825347900390625">
        <ele>18.3999996185302734375</ele>
        <time>2026-07-30T12:35:15.000Z</time>
        <extensions>
          <ns3:TrackPointExtension>
            <ns3:hr>109</ns3:hr>
          </ns3:TrackPointExtension>
        </extensions>
      </trkpt>
      <trkpt lat="31.28325057215988636016845703125" lon="121.371601782739162445068359375">
        <ele>18.3999996185302734375</ele>
        <time>2026-07-30T12:35:20.000Z</time>
        <extensions>
          <ns3:TrackPointExtension>
            <ns3:hr>110</ns3:hr>
          </ns3:TrackPointExtension>
        </extensions>
      </trkpt>
      <trkpt lat="31.283148564398288726806640625" lon="121.3715804927051067352294921875">
        <ele>18.799999237060546875</ele>
        <time>2026-07-30T12:35:27.000Z</time>
        <extensions>
          <ns3:TrackPointExtension>
            <ns3:hr>112</ns3:hr>
          </ns3:TrackPointExtension>
        </extensions>
      </trkpt>
      <trkpt lat="31.28295284695923328399658203125" lon="121.3715597055852413177490234375">
        <ele>18.799999237060546875</ele>
        <time>2026-07-30T12:35:37.000Z</time>
        <extensions>
          <ns3:TrackPointExtension>
            <ns3:hr>114</ns3:hr>
          </ns3:TrackPointExtension>
        </extensions>
      </trkpt>
      <trkpt lat="31.28276559524238109588623046875" lon="121.37151268310844898223876953125">
        <ele>18.200000762939453125</ele>
        <time>2026-07-30T12:35:44.000Z</time>
        <extensions>
          <ns3:TrackPointExtension>
            <ns3:hr>114</ns3:hr>
          </ns3:TrackPointExtension>
        </extensions>
      </trkpt>
      <trkpt lat="31.28247440792620182037353515625" lon="121.37151754461228847503662109375">
        <ele>17.200000762939453125</ele>
        <time>2026-07-30T12:35:52.000Z</time>
        <extensions>
          <ns3:TrackPointExtension>
            <ns3:hr>112</ns3:hr>
          </ns3:TrackPointExtension>
        </extensions>
      </trkpt>
      <trkpt lat="31.282404251396656036376953125" lon="121.371507234871387481689453125">
        <ele>17</ele>
        <time>2026-07-30T12:35:54.000Z</time>
        <extensions>
          <ns3:TrackPointExtension>
            <ns3:hr>112</ns3:hr>
          </ns3:TrackPointExtension>
        </extensions>
      </trkpt>
      <trkpt lat="31.282139718532562255859375" lon="121.3714487291872501373291015625">
        <ele>17.200000762939453125</ele>
        <time>2026-07-30T12:36:03.000Z</time>
        <extensions>
          <ns3:TrackPointExtension>
            <ns3:hr>111</ns3:hr>
          </ns3:TrackPointExtension>
        </extensions>
      </trkpt>
      <trkpt lat="31.28199932165443897247314453125" lon="121.37143640778958797454833984375">
        <ele>17.200000762939453125</ele>
        <time>2026-07-30T12:36:09.000Z</time>
        <extensions>
          <ns3:TrackPointExtension>
            <ns3:hr>108</ns3:hr>
          </ns3:TrackPointExtension>
        </extensions>
      </trkpt>
      <trkpt lat="31.28190301358699798583984375" lon="121.3714426942169666290283203125">
        <ele>17.3999996185302734375</ele>
        <time>2026-07-30T12:36:13.000Z</time>
        <extensions>
          <ns3:TrackPointExtension>
            <ns3:hr>105</ns3:hr>
          </ns3:TrackPointExtension>
        </extensions>
      </trkpt>
      <trkpt lat="31.28184668719768524169921875" lon="121.37144495733082294464111328125">
        <ele>17.3999996185302734375</ele>
        <time>2026-07-30T12:36:16.000Z</time>
        <extensions>
          <ns3:TrackPointExtension>
            <ns3:hr>104</ns3:hr>
          </ns3:TrackPointExtension>
        </extensions>
      </trkpt>
      <trkpt lat="31.2817735970020294189453125" lon="121.37145551852881908416748046875">
        <ele>17.6000003814697265625</ele>
        <time>2026-07-30T12:36:20.000Z</time>
        <extensions>
          <ns3:TrackPointExtension>
            <ns3:hr>104</ns3:hr>
          </ns3:TrackPointExtension>
        </extensions>
      </trkpt>
      <trkpt lat="31.28176395781338214874267578125" lon="121.37147244997322559356689453125">
        <ele>17.6000003814697265625</ele>
        <time>2026-07-30T12:36:21.000Z</time>
        <extensions>
          <ns3:TrackPointExtension>
            <ns3:hr>104</ns3:hr>
          </ns3:TrackPointExtension>
        </extensions>
      </trkpt>
      <trkpt lat="31.28178591839969158172607421875" lon="121.37159968726336956024169921875">
        <ele>17.6000003814697265625</ele>
        <time>2026-07-30T12:36:27.000Z</time>
        <extensions>
          <ns3:TrackPointExtension>
            <ns3:hr>106</ns3:hr>
          </ns3:TrackPointExtension>
        </extensions>
      </trkpt>
      <trkpt lat="31.28179212100803852081298828125" lon="121.37178861536085605621337890625">
        <ele>17.3999996185302734375</ele>
        <time>2026-07-30T12:36:33.000Z</time>
        <extensions>
          <ns3:TrackPointExtension>
            <ns3:hr>109</ns3:hr>
          </ns3:TrackPointExtension>
        </extensions>
      </trkpt>
      <trkpt lat="31.28178357146680355072021484375" lon="121.37188173830509185791015625">
        <ele>17.200000762939453125</ele>
        <time>2026-07-30T12:36:36.000Z</time>
        <extensions>
          <ns3:TrackPointExtension>
            <ns3:hr>108</ns3:hr>
          </ns3:TrackPointExtension>
        </extensions>
      </trkpt>
      <trkpt lat="31.28173696808516979217529296875" lon="121.3721722550690174102783203125">
        <ele>17.200000762939453125</ele>
        <time>2026-07-30T12:36:45.000Z</time>
        <extensions>
          <ns3:TrackPointExtension>
            <ns3:hr>110</ns3:hr>
          </ns3:TrackPointExtension>
        </extensions>
      </trkpt>
      <trkpt lat="31.2817422486841678619384765625" lon="121.3723866641521453857421875">
        <ele>16.799999237060546875</ele>
        <time>2026-07-30T12:36:52.000Z</time>
        <extensions>
          <ns3:TrackPointExtension>
            <ns3:hr>111</ns3:hr>
          </ns3:TrackPointExtension>
        </extensions>
      </trkpt>
      <trkpt lat="31.2817080505192279815673828125" lon="121.372627727687358856201171875">
        <ele>17</ele>
        <time>2026-07-30T12:37:01.000Z</time>
        <extensions>
          <ns3:TrackPointExtension>
            <ns3:hr>108</ns3:hr>
          </ns3:TrackPointExtension>
        </extensions>
      </trkpt>
      <trkpt lat="31.2816966511309146881103515625" lon="121.37266066856682300567626953125">
        <ele>17</ele>
        <time>2026-07-30T12:37:03.000Z</time>
        <extensions>
          <ns3:TrackPointExtension>
            <ns3:hr>105</ns3:hr>
          </ns3:TrackPointExtension>
        </extensions>
      </trkpt>
      <trkpt lat="31.2816792167723178863525390625" lon="121.37274314649403095245361328125">
        <ele>16.799999237060546875</ele>
        <time>2026-07-30T12:37:08.000Z</time>
        <extensions>
          <ns3:TrackPointExtension>
            <ns3:hr>106</ns3:hr>
          </ns3:TrackPointExtension>
        </extensions>
      </trkpt>
      <trkpt lat="31.28164778463542461395263671875" lon="121.3730533607304096221923828125">
        <ele>16.799999237060546875</ele>
        <time>2026-07-30T12:37:18.000Z</time>
        <extensions>
          <ns3:TrackPointExtension>
            <ns3:hr>108</ns3:hr>
          </ns3:TrackPointExtension>
        </extensions>
      </trkpt>
      <trkpt lat="31.28158517181873321533203125" lon="121.373430378735065460205078125">
        <ele>17.200000762939453125</ele>
        <time>2026-07-30T12:37:30.000Z</time>
        <extensions>
          <ns3:TrackPointExtension>
            <ns3:hr>107</ns3:hr>
          </ns3:TrackPointExtension>
        </extensions>
      </trkpt>
      <trkpt lat="31.2815226428210735321044921875" lon="121.3735800795257091522216796875">
        <ele>17.3999996185302734375</ele>
        <time>2026-07-30T12:37:38.000Z</time>
        <extensions>
          <ns3:TrackPointExtension>
            <ns3:hr>105</ns3:hr>
          </ns3:TrackPointExtension>
        </extensions>
      </trkpt>
      <trkpt lat="31.28151602111756801605224609375" lon="121.3736005313694477081298828125">
        <ele>17.200000762939453125</ele>
        <time>2026-07-30T12:37:41.000Z</time>
        <extensions>
          <ns3:TrackPointExtension>
            <ns3:hr>106</ns3:hr>
          </ns3:TrackPointExtension>
        </extensions>
      </trkpt>
      <trkpt lat="31.28142960369586944580078125" lon="121.37366347946226596832275390625">
        <ele>17.200000762939453125</ele>
        <time>2026-07-30T12:38:05.000Z</time>
        <extensions>
          <ns3:TrackPointExtension>
            <ns3:hr>112</ns3:hr>
          </ns3:TrackPointExtension>
        </extensions>
      </trkpt>
      <trkpt lat="31.28139414824545383453369140625" lon="121.37367747724056243896484375">
        <ele>17.200000762939453125</ele>
        <time>2026-07-30T12:38:07.000Z</time>
        <extensions>
          <ns3:TrackPointExtension>
            <ns3:hr>113</ns3:hr>
          </ns3:TrackPointExtension>
        </extensions>
      </trkpt>
      <trkpt lat="31.281242184340953826904296875" lon="121.37367420829832553863525390625">
        <ele>17.200000762939453125</ele>
        <time>2026-07-30T12:38:14.000Z</time>
        <extensions>
          <ns3:TrackPointExtension>
            <ns3:hr>112</ns3:hr>
          </ns3:TrackPointExtension>
        </extensions>
      </trkpt>
      <trkpt lat="31.28103573806583881378173828125" lon="121.37363548390567302703857421875">
        <ele>17</ele>
        <time>2026-07-30T12:38:23.000Z</time>
        <extensions>
          <ns3:TrackPointExtension>
            <ns3:hr>113</ns3:hr>
          </ns3:TrackPointExtension>
        </extensions>
      </trkpt>
      <trkpt lat="31.2808822654187679290771484375" lon="121.3736069016158580780029296875">
        <ele>17</ele>
        <time>2026-07-30T12:38:31.000Z</time>
        <extensions>
          <ns3:TrackPointExtension>
            <ns3:hr>112</ns3:hr>
          </ns3:TrackPointExtension>
        </extensions>
      </trkpt>
      <trkpt lat="31.2808785773813724517822265625" lon="121.37360463850200176239013671875">
        <ele>17</ele>
        <time>2026-07-30T12:38:32.000Z</time>
        <extensions>
          <ns3:TrackPointExtension>
            <ns3:hr>112</ns3:hr>
          </ns3:TrackPointExtension>
        </extensions>
      </trkpt>
      <trkpt lat="31.28085561096668243408203125" lon="121.37361268512904644012451171875">
        <ele>16.799999237060546875</ele>
        <time>2026-07-30T12:39:08.000Z</time>
        <extensions>
          <ns3:TrackPointExtension>
            <ns3:hr>112</ns3:hr>
          </ns3:TrackPointExtension>
        </extensions>
      </trkpt>
      <trkpt lat="31.280817724764347076416015625" lon="121.37360782362520694732666015625">
        <ele>16.799999237060546875</ele>
        <time>2026-07-30T12:39:10.000Z</time>
        <extensions>
          <ns3:TrackPointExtension>
            <ns3:hr>112</ns3:hr>
          </ns3:TrackPointExtension>
        </extensions>
      </trkpt>
      <trkpt lat="31.280629970133304595947265625" lon="121.373583264648914337158203125">
        <ele>17</ele>
        <time>2026-07-30T12:39:19.000Z</time>
        <extensions>
          <ns3:TrackPointExtension>
            <ns3:hr>112</ns3:hr>
          </ns3:TrackPointExtension>
        </extensions>
      </trkpt>
      <trkpt lat="31.28040139563381671905517578125" lon="121.37356189079582691192626953125">
        <ele>16.799999237060546875</ele>
        <time>2026-07-30T12:39:28.000Z</time>
        <extensions>
          <ns3:TrackPointExtension>
            <ns3:hr>112</ns3:hr>
          </ns3:TrackPointExtension>
        </extensions>
      </trkpt>
      <trkpt lat="31.280162595212459564208984375" lon="121.37351310811936855316162109375">
        <ele>16.3999996185302734375</ele>
        <time>2026-07-30T12:39:37.000Z</time>
        <extensions>
          <ns3:TrackPointExtension>
            <ns3:hr>112</ns3:hr>
          </ns3:TrackPointExtension>
        </extensions>
      </trkpt>
      <trkpt lat="31.28001297824084758758544921875" lon="121.3734959252178668975830078125">
        <ele>16.200000762939453125</ele>
        <time>2026-07-30T12:39:43.000Z</time>
        <extensions>
          <ns3:TrackPointExtension>
            <ns3:hr>113</ns3:hr>
          </ns3:TrackPointExtension>
        </extensions>
      </trkpt>
      <trkpt lat="31.27998732961714267730712890625" lon="121.37349165044724941253662109375">
        <ele>16.200000762939453125</ele>
        <time>2026-07-30T12:39:44.000Z</time>
        <extensions>
          <ns3:TrackPointExtension>
            <ns3:hr>113</ns3:hr>
          </ns3:TrackPointExtension>
        </extensions>
      </trkpt>
      <trkpt lat="31.27984433434903621673583984375" lon="121.37345619499683380126953125">
        <ele>16.200000762939453125</ele>
        <time>2026-07-30T12:39:49.000Z</time>
        <extensions>
          <ns3:TrackPointExtension>
            <ns3:hr>116</ns3:hr>
          </ns3:TrackPointExtension>
        </extensions>
      </trkpt>
      <trkpt lat="31.27971407957375049591064453125" lon="121.37343398295342922210693359375">
        <ele>16.799999237060546875</ele>
        <time>2026-07-30T12:39:54.000Z</time>
        <extensions>
          <ns3:TrackPointExtension>
            <ns3:hr>116</ns3:hr>
          </ns3:TrackPointExtension>
        </extensions>
      </trkpt>
      <trkpt lat="31.279647611081600189208984375" lon="121.37340917252004146575927734375">
        <ele>17</ele>
        <time>2026-07-30T12:39:59.000Z</time>
        <extensions>
          <ns3:TrackPointExtension>
            <ns3:hr>116</ns3:hr>
          </ns3:TrackPointExtension>
        </extensions>
      </trkpt>
      <trkpt lat="31.2795870937407016754150390625" lon="121.3733846135437488555908203125">
        <ele>16.6000003814697265625</ele>
        <time>2026-07-30T12:41:43.000Z</time>
        <extensions>
          <ns3:TrackPointExtension>
            <ns3:hr>100</ns3:hr>
          </ns3:TrackPointExtension>
        </extensions>
      </trkpt>
      <trkpt lat="31.2795715034008026123046875" lon="121.37337598018348217010498046875">
        <ele>16.6000003814697265625</ele>
        <time>2026-07-30T12:41:44.000Z</time>
        <extensions>
          <ns3:TrackPointExtension>
            <ns3:hr>100</ns3:hr>
          </ns3:TrackPointExtension>
        </extensions>
      </trkpt>
      <trkpt lat="31.2795311026275157928466796875" lon="121.3733631558716297149658203125">
        <ele>16.6000003814697265625</ele>
        <time>2026-07-30T12:41:46.000Z</time>
        <extensions>
          <ns3:TrackPointExtension>
            <ns3:hr>100</ns3:hr>
          </ns3:TrackPointExtension>
        </extensions>
      </trkpt>
      <trkpt lat="31.2794295139610767364501953125" lon="121.37334228493273258209228515625">
        <ele>16.799999237060546875</ele>
        <time>2026-07-30T12:41:51.000Z</time>
        <extensions>
          <ns3:TrackPointExtension>
            <ns3:hr>103</ns3:hr>
          </ns3:TrackPointExtension>
        </extensions>
      </trkpt>
      <trkpt lat="31.2793819047510623931884765625" lon="121.37333951890468597412109375">
        <ele>16.799999237060546875</ele>
        <time>2026-07-30T12:41:53.000Z</time>
        <extensions>
          <ns3:TrackPointExtension>
            <ns3:hr>104</ns3:hr>
          </ns3:TrackPointExtension>
        </extensions>
      </trkpt>
      <trkpt lat="31.27931526862084865570068359375" lon="121.37333138845860958099365234375">
        <ele>17</ele>
        <time>2026-07-30T12:41:56.000Z</time>
        <extensions>
          <ns3:TrackPointExtension>
            <ns3:hr>108</ns3:hr>
          </ns3:TrackPointExtension>
        </extensions>
      </trkpt>
      <trkpt lat="31.27921946346759796142578125" lon="121.37332049198448657989501953125">
        <ele>17.200000762939453125</ele>
        <time>2026-07-30T12:42:00.000Z</time>
        <extensions>
          <ns3:TrackPointExtension>
            <ns3:hr>109</ns3:hr>
          </ns3:TrackPointExtension>
        </extensions>
      </trkpt>
      <trkpt lat="31.27899005077779293060302734375" lon="121.37328444980084896087646484375">
        <ele>16.799999237060546875</ele>
        <time>2026-07-30T12:42:08.000Z</time>
        <extensions>
          <ns3:TrackPointExtension>
            <ns3:hr>111</ns3:hr>
          </ns3:TrackPointExtension>
        </extensions>
      </trkpt>
      <trkpt lat="31.27868461422622203826904296875" lon="121.373227201402187347412109375">
        <ele>16.3999996185302734375</ele>
        <time>2026-07-30T12:42:19.000Z</time>
        <extensions>
          <ns3:TrackPointExtension>
            <ns3:hr>112</ns3:hr>
          </ns3:TrackPointExtension>
        </extensions>
      </trkpt>
      <trkpt lat="31.2784823589026927947998046875" lon="121.373198032379150390625">
        <ele>16.6000003814697265625</ele>
        <time>2026-07-30T12:42:26.000Z</time>
        <extensions>
          <ns3:TrackPointExtension>
            <ns3:hr>109</ns3:hr>
          </ns3:TrackPointExtension>
        </extensions>
      </trkpt>
      <trkpt lat="31.27839342691004276275634765625" lon="121.37317749671638011932373046875">
        <ele>16.3999996185302734375</ele>
        <time>2026-07-30T12:42:29.000Z</time>
        <extensions>
          <ns3:TrackPointExtension>
            <ns3:hr>108</ns3:hr>
          </ns3:TrackPointExtension>
        </extensions>
      </trkpt>
      <trkpt lat="31.27827800810337066650390625" lon="121.37316056527197360992431640625">
        <ele>16.200000762939453125</ele>
        <time>2026-07-30T12:42:33.000Z</time>
        <extensions>
          <ns3:TrackPointExtension>
            <ns3:hr>113</ns3:hr>
          </ns3:TrackPointExtension>
        </extensions>
      </trkpt>
      <trkpt lat="31.278212964534759521484375" lon="121.373161487281322479248046875">
        <ele>16.200000762939453125</ele>
        <time>2026-07-30T12:42:35.000Z</time>
        <extensions>
          <ns3:TrackPointExtension>
            <ns3:hr>116</ns3:hr>
          </ns3:TrackPointExtension>
        </extensions>
      </trkpt>
      <trkpt lat="31.27800551243126392364501953125" lon="121.37315017171204090118408203125">
        <ele>16</ele>
        <time>2026-07-30T12:42:42.000Z</time>
        <extensions>
          <ns3:TrackPointExtension>
            <ns3:hr>117</ns3:hr>
          </ns3:TrackPointExtension>
        </extensions>
      </trkpt>
      <trkpt lat="31.2776683084666728973388671875" lon="121.373091749846935272216796875">
        <ele>16.6000003814697265625</ele>
        <time>2026-07-30T12:42:53.000Z</time>
        <extensions>
          <ns3:TrackPointExtension>
            <ns3:hr>117</ns3:hr>
          </ns3:TrackPointExtension>
        </extensions>
      </trkpt>
      <trkpt lat="31.27750645391643047332763671875" lon="121.37307691387832164764404296875">
        <ele>16.3999996185302734375</ele>
        <time>2026-07-30T12:42:58.000Z</time>
        <extensions>
          <ns3:TrackPointExtension>
            <ns3:hr>116</ns3:hr>
          </ns3:TrackPointExtension>
        </extensions>
      </trkpt>
      <trkpt lat="31.277354657649993896484375" lon="121.37306325137615203857421875">
        <ele>16.200000762939453125</ele>
        <time>2026-07-30T12:43:03.000Z</time>
        <extensions>
          <ns3:TrackPointExtension>
            <ns3:hr>119</ns3:hr>
          </ns3:TrackPointExtension>
        </extensions>
      </trkpt>
      <trkpt lat="31.27711703069508075714111328125" lon="121.3730357587337493896484375">
        <ele>16.3999996185302734375</ele>
        <time>2026-07-30T12:43:11.000Z</time>
        <extensions>
          <ns3:TrackPointExtension>
            <ns3:hr>118</ns3:hr>
          </ns3:TrackPointExtension>
        </extensions>
      </trkpt>
      <trkpt lat="31.27690798602998256683349609375" lon="121.3730127923190593719482421875">
        <ele>16.3999996185302734375</ele>
        <time>2026-07-30T12:43:19.000Z</time>
        <extensions>
          <ns3:TrackPointExtension>
            <ns3:hr>118</ns3:hr>
          </ns3:TrackPointExtension>
        </extensions>
      </trkpt>
      <trkpt lat="31.2768267653882503509521484375" lon="121.372992508113384246826171875">
        <ele>16.3999996185302734375</ele>
        <time>2026-07-30T12:43:24.000Z</time>
        <extensions>
          <ns3:TrackPointExtension>
            <ns3:hr>116</ns3:hr>
          </ns3:TrackPointExtension>
        </extensions>
      </trkpt>
      <trkpt lat="31.2768240831792354583740234375" lon="121.3729913346469402313232421875">
        <ele>16.3999996185302734375</ele>
        <time>2026-07-30T12:43:25.000Z</time>
        <extensions>
          <ns3:TrackPointExtension>
            <ns3:hr>116</ns3:hr>
          </ns3:TrackPointExtension>
        </extensions>
      </trkpt>
      <trkpt lat="31.276774294674396514892578125" lon="121.37299041263759136199951171875">
        <ele>16.200000762939453125</ele>
        <time>2026-07-30T12:43:50.000Z</time>
        <extensions>
          <ns3:TrackPointExtension>
            <ns3:hr>112</ns3:hr>
          </ns3:TrackPointExtension>
        </extensions>
      </trkpt>
      <trkpt lat="31.27673649229109287261962890625" lon="121.37298437766730785369873046875">
        <ele>16.200000762939453125</ele>
        <time>2026-07-30T12:43:52.000Z</time>
        <extensions>
          <ns3:TrackPointExtension>
            <ns3:hr>111</ns3:hr>
          </ns3:TrackPointExtension>
        </extensions>
      </trkpt>
      <trkpt lat="31.276546977460384368896484375" lon="121.3729356788098812103271484375">
        <ele>16.3999996185302734375</ele>
        <time>2026-07-30T12:44:00.000Z</time>
        <extensions>
          <ns3:TrackPointExtension>
            <ns3:hr>111</ns3:hr>
          </ns3:TrackPointExtension>
        </extensions>
      </trkpt>
      <trkpt lat="31.27648654393851757049560546875" lon="121.37292654253542423248291015625">
        <ele>16.3999996185302734375</ele>
        <time>2026-07-30T12:44:04.000Z</time>
        <extensions>
          <ns3:TrackPointExtension>
            <ns3:hr>114</ns3:hr>
          </ns3:TrackPointExtension>
        </extensions>
      </trkpt>
      <trkpt lat="31.27643725834786891937255859375" lon="121.37292956002056598663330078125">
        <ele>16.3999996185302734375</ele>
        <time>2026-07-30T12:44:06.000Z</time>
        <extensions>
          <ns3:TrackPointExtension>
            <ns3:hr>116</ns3:hr>
          </ns3:TrackPointExtension>
        </extensions>
      </trkpt>
      <trkpt lat="31.2762108631432056427001953125" lon="121.37291044928133487701416015625">
        <ele>16</ele>
        <time>2026-07-30T12:44:14.000Z</time>
        <extensions>
          <ns3:TrackPointExtension>
            <ns3:hr>116</ns3:hr>
          </ns3:TrackPointExtension>
        </extensions>
      </trkpt>
      <trkpt lat="31.2761275470256805419921875" lon="121.372901313006877899169921875">
        <ele>15.3999996185302734375</ele>
        <time>2026-07-30T12:44:17.000Z</time>
        <extensions>
          <ns3:TrackPointExtension>
            <ns3:hr>116</ns3:hr>
          </ns3:TrackPointExtension>
        </extensions>
      </trkpt>
      <trkpt lat="31.27597223035991191864013671875" lon="121.372865773737430572509765625">
        <ele>16</ele>
        <time>2026-07-30T12:44:23.000Z</time>
        <extensions>
          <ns3:TrackPointExtension>
            <ns3:hr>116</ns3:hr>
          </ns3:TrackPointExtension>
        </extensions>
      </trkpt>
      <trkpt lat="31.27564030699431896209716796875" lon="121.3728136382997035980224609375">
        <ele>16</ele>
        <time>2026-07-30T12:44:35.000Z</time>
        <extensions>
          <ns3:TrackPointExtension>
            <ns3:hr>117</ns3:hr>
          </ns3:TrackPointExtension>
        </extensions>
      </trkpt>
      <trkpt lat="31.27537057735025882720947265625" lon="121.3727630116045475006103515625">
        <ele>15.80000019073486328125</ele>
        <time>2026-07-30T12:44:46.000Z</time>
        <extensions>
          <ns3:TrackPointExtension>
            <ns3:hr>115</ns3:hr>
          </ns3:TrackPointExtension>
        </extensions>
      </trkpt>
      <trkpt lat="31.27514250576496124267578125" lon="121.3727194257080554962158203125">
        <ele>15.3999996185302734375</ele>
        <time>2026-07-30T12:44:55.000Z</time>
        <extensions>
          <ns3:TrackPointExtension>
            <ns3:hr>114</ns3:hr>
          </ns3:TrackPointExtension>
        </extensions>
      </trkpt>
      <trkpt lat="31.2749783881008625030517578125" lon="121.37266703881323337554931640625">
        <ele>15.19999980926513671875</ele>
        <time>2026-07-30T12:45:03.000Z</time>
        <extensions>
          <ns3:TrackPointExtension>
            <ns3:hr>114</ns3:hr>
          </ns3:TrackPointExtension>
        </extensions>
      </trkpt>
      <trkpt lat="31.274802200496196746826171875" lon="121.37262915261089801788330078125">
        <ele>16</ele>
        <time>2026-07-30T12:45:12.000Z</time>
        <extensions>
          <ns3:TrackPointExtension>
            <ns3:hr>114</ns3:hr>
          </ns3:TrackPointExtension>
        </extensions>
      </trkpt>
      <trkpt lat="31.2746250070631504058837890625" lon="121.3725806213915348052978515625">
        <ele>15.3999996185302734375</ele>
        <time>2026-07-30T12:45:21.000Z</time>
        <extensions>
          <ns3:TrackPointExtension>
            <ns3:hr>112</ns3:hr>
          </ns3:TrackPointExtension>
        </extensions>
      </trkpt>
      <trkpt lat="31.274392493069171905517578125" lon="121.3725149072706699371337890625">
        <ele>15.19999980926513671875</ele>
        <time>2026-07-30T12:45:32.000Z</time>
        <extensions>
          <ns3:TrackPointExtension>
            <ns3:hr>114</ns3:hr>
          </ns3:TrackPointExtension>
        </extensions>
      </trkpt>
      <trkpt lat="31.27414413727819919586181640625" lon="121.3724820502102375030517578125">
        <ele>14.6000003814697265625</ele>
        <time>2026-07-30T12:45:43.000Z</time>
        <extensions>
          <ns3:TrackPointExtension>
            <ns3:hr>114</ns3:hr>
          </ns3:TrackPointExtension>
        </extensions>
      </trkpt>
      <trkpt lat="31.27389787696301937103271484375" lon="121.37243829667568206787109375">
        <ele>15.3999996185302734375</ele>
        <time>2026-07-30T12:45:53.000Z</time>
        <extensions>
          <ns3:TrackPointExtension>
            <ns3:hr>111</ns3:hr>
          </ns3:TrackPointExtension>
        </extensions>
      </trkpt>
      <trkpt lat="31.27377323806285858154296875" lon="121.37242899276316165924072265625">
        <ele>15.3999996185302734375</ele>
        <time>2026-07-30T12:45:59.000Z</time>
        <extensions>
          <ns3:TrackPointExtension>
            <ns3:hr>114</ns3:hr>
          </ns3:TrackPointExtension>
        </extensions>
      </trkpt>
      <trkpt lat="31.273750104010105133056640625" lon="121.37243402190506458282470703125">
        <ele>15.6000003814697265625</ele>
        <time>2026-07-30T12:46:01.000Z</time>
        <extensions>
          <ns3:TrackPointExtension>
            <ns3:hr>115</ns3:hr>
          </ns3:TrackPointExtension>
        </extensions>
      </trkpt>
      <trkpt lat="31.273681037127971649169921875" lon="121.37239781208336353302001953125">
        <ele>15.80000019073486328125</ele>
        <time>2026-07-30T12:46:07.000Z</time>
        <extensions>
          <ns3:TrackPointExtension>
            <ns3:hr>116</ns3:hr>
          </ns3:TrackPointExtension>
        </extensions>
      </trkpt>
      <trkpt lat="31.2736473418772220611572265625" lon="121.3724027574062347412109375">
        <ele>15.6000003814697265625</ele>
        <time>2026-07-30T12:46:11.000Z</time>
        <extensions>
          <ns3:TrackPointExtension>
            <ns3:hr>115</ns3:hr>
          </ns3:TrackPointExtension>
        </extensions>
      </trkpt>
      <trkpt lat="31.2736104615032672882080078125" lon="121.372391693294048309326171875">
        <ele>16.3999996185302734375</ele>
        <time>2026-07-30T12:46:17.000Z</time>
        <extensions>
          <ns3:TrackPointExtension>
            <ns3:hr>114</ns3:hr>
          </ns3:TrackPointExtension>
        </extensions>
      </trkpt>
      <trkpt lat="31.27359663136303424835205078125" lon="121.37237484566867351531982421875">
        <ele>16.200000762939453125</ele>
        <time>2026-07-30T12:46:18.000Z</time>
        <extensions>
          <ns3:TrackPointExtension>
            <ns3:hr>115</ns3:hr>
          </ns3:TrackPointExtension>
        </extensions>
      </trkpt>
      <trkpt lat="31.273552961647510528564453125" lon="121.372252888977527618408203125">
        <ele>16.3999996185302734375</ele>
        <time>2026-07-30T12:46:23.000Z</time>
        <extensions>
          <ns3:TrackPointExtension>
            <ns3:hr>116</ns3:hr>
          </ns3:TrackPointExtension>
        </extensions>
      </trkpt>
      <trkpt lat="31.27355396747589111328125" lon="121.37222900055348873138427734375">
        <ele>16.6000003814697265625</ele>
        <time>2026-07-30T12:46:24.000Z</time>
        <extensions>
          <ns3:TrackPointExtension>
            <ns3:hr>116</ns3:hr>
          </ns3:TrackPointExtension>
        </extensions>
      </trkpt>
      <trkpt lat="31.27359059639275074005126953125" lon="121.37198257260024547576904296875">
        <ele>16</ele>
        <time>2026-07-30T12:46:32.000Z</time>
        <extensions>
          <ns3:TrackPointExtension>
            <ns3:hr>117</ns3:hr>
          </ns3:TrackPointExtension>
        </extensions>
      </trkpt>
      <trkpt lat="31.2736289016902446746826171875" lon="121.37174570001661777496337890625">
        <ele>16.200000762939453125</ele>
        <time>2026-07-30T12:46:40.000Z</time>
        <extensions>
          <ns3:TrackPointExtension>
            <ns3:hr>117</ns3:hr>
          </ns3:TrackPointExtension>
        </extensions>
      </trkpt>
      <trkpt lat="31.27366100437939167022705078125" lon="121.37150279246270656585693359375">
        <ele>16.3999996185302734375</ele>
        <time>2026-07-30T12:46:50.000Z</time>
        <extensions>
          <ns3:TrackPointExtension>
            <ns3:hr>116</ns3:hr>
          </ns3:TrackPointExtension>
        </extensions>
      </trkpt>
      <trkpt lat="31.27366368658840656280517578125" lon="121.37117941863834857940673828125">
        <ele>16.6000003814697265625</ele>
        <time>2026-07-30T12:47:00.000Z</time>
        <extensions>
          <ns3:TrackPointExtension>
            <ns3:hr>114</ns3:hr>
          </ns3:TrackPointExtension>
        </extensions>
      </trkpt>
      <trkpt lat="31.27368179149925708770751953125" lon="121.3709719665348529815673828125">
        <ele>16.3999996185302734375</ele>
        <time>2026-07-30T12:47:07.000Z</time>
        <extensions>
          <ns3:TrackPointExtension>
            <ns3:hr>114</ns3:hr>
          </ns3:TrackPointExtension>
        </extensions>
      </trkpt>
      <trkpt lat="31.27371565438807010650634765625" lon="121.37069041840732097625732421875">
        <ele>16</ele>
        <time>2026-07-30T12:47:16.000Z</time>
        <extensions>
          <ns3:TrackPointExtension>
            <ns3:hr>116</ns3:hr>
          </ns3:TrackPointExtension>
        </extensions>
      </trkpt>
      <trkpt lat="31.2737093679606914520263671875" lon="121.37045840732753276824951171875">
        <ele>16.200000762939453125</ele>
        <time>2026-07-30T12:47:23.000Z</time>
        <extensions>
          <ns3:TrackPointExtension>
            <ns3:hr>114</ns3:hr>
          </ns3:TrackPointExtension>
        </extensions>
      </trkpt>
      <trkpt lat="31.2737304903566837310791015625" lon="121.37015950866043567657470703125">
        <ele>16</ele>
        <time>2026-07-30T12:47:33.000Z</time>
        <extensions>
          <ns3:TrackPointExtension>
            <ns3:hr>114</ns3:hr>
          </ns3:TrackPointExtension>
        </extensions>
      </trkpt>
      <trkpt lat="31.27376493997871875762939453125" lon="121.3697713427245616912841796875">
        <ele>16.200000762939453125</ele>
        <time>2026-07-30T12:47:45.000Z</time>
        <extensions>
          <ns3:TrackPointExtension>
            <ns3:hr>115</ns3:hr>
          </ns3:TrackPointExtension>
        </extensions>
      </trkpt>
      <trkpt lat="31.27378824166953563690185546875" lon="121.369521729648113250732421875">
        <ele>16.200000762939453125</ele>
        <time>2026-07-30T12:47:54.000Z</time>
        <extensions>
          <ns3:TrackPointExtension>
            <ns3:hr>114</ns3:hr>
          </ns3:TrackPointExtension>
        </extensions>
      </trkpt>
      <trkpt lat="31.2737858109176158905029296875" lon="121.369431875646114349365234375">
        <ele>16.200000762939453125</ele>
        <time>2026-07-30T12:48:00.000Z</time>
        <extensions>
          <ns3:TrackPointExtension>
            <ns3:hr>114</ns3:hr>
          </ns3:TrackPointExtension>
        </extensions>
      </trkpt>
      <trkpt lat="31.2737940251827239990234375" lon="121.36939072050154209136962890625">
        <ele>15.80000019073486328125</ele>
        <time>2026-07-30T12:48:38.000Z</time>
        <extensions>
          <ns3:TrackPointExtension>
            <ns3:hr>107</ns3:hr>
          </ns3:TrackPointExtension>
        </extensions>
      </trkpt>
      <trkpt lat="31.27379947341978549957275390625" lon="121.36937228031456470489501953125">
        <ele>15.6000003814697265625</ele>
        <time>2026-07-30T12:48:39.000Z</time>
        <extensions>
          <ns3:TrackPointExtension>
            <ns3:hr>108</ns3:hr>
          </ns3:TrackPointExtension>
        </extensions>
      </trkpt>
      <trkpt lat="31.2738049216568470001220703125" lon="121.36934998445212841033935546875">
        <ele>15.6000003814697265625</ele>
        <time>2026-07-30T12:48:40.000Z</time>
        <extensions>
          <ns3:TrackPointExtension>
            <ns3:hr>108</ns3:hr>
          </ns3:TrackPointExtension>
        </extensions>
      </trkpt>
      <trkpt lat="31.273806095123291015625" lon="121.36913591064512729644775390625">
        <ele>16</ele>
        <time>2026-07-30T12:48:47.000Z</time>
        <extensions>
          <ns3:TrackPointExtension>
            <ns3:hr>109</ns3:hr>
          </ns3:TrackPointExtension>
        </extensions>
      </trkpt>
      <trkpt lat="31.2738032452762126922607421875" lon="121.3690333999693393707275390625">
        <ele>15.80000019073486328125</ele>
        <time>2026-07-30T12:48:50.000Z</time>
        <extensions>
          <ns3:TrackPointExtension>
            <ns3:hr>112</ns3:hr>
          </ns3:TrackPointExtension>
        </extensions>
      </trkpt>
      <trkpt lat="31.2738022394478321075439453125" lon="121.368965841829776763916015625">
        <ele>15.80000019073486328125</ele>
        <time>2026-07-30T12:48:52.000Z</time>
        <extensions>
          <ns3:TrackPointExtension>
            <ns3:hr>116</ns3:hr>
          </ns3:TrackPointExtension>
        </extensions>
      </trkpt>
      <trkpt lat="31.2738112919032573699951171875" lon="121.3688010536134243011474609375">
        <ele>15.3999996185302734375</ele>
        <time>2026-07-30T12:48:57.000Z</time>
        <extensions>
          <ns3:TrackPointExtension>
            <ns3:hr>116</ns3:hr>
          </ns3:TrackPointExtension>
        </extensions>
      </trkpt>
      <trkpt lat="31.2738166563212871551513671875" lon="121.36876258067786693572998046875">
        <ele>15.3999996185302734375</ele>
        <time>2026-07-30T12:48:58.000Z</time>
        <extensions>
          <ns3:TrackPointExtension>
            <ns3:hr>116</ns3:hr>
          </ns3:TrackPointExtension>
        </extensions>
      </trkpt>
      <trkpt lat="31.27383484505116939544677734375" lon="121.36845127679407596588134765625">
        <ele>15.3999996185302734375</ele>
        <time>2026-07-30T12:49:07.000Z</time>
        <extensions>
          <ns3:TrackPointExtension>
            <ns3:hr>117</ns3:hr>
          </ns3:TrackPointExtension>
        </extensions>
      </trkpt>
      <trkpt lat="31.27386267296969890594482421875" lon="121.36810963042080402374267578125">
        <ele>15.3999996185302734375</ele>
        <time>2026-07-30T12:49:16.000Z</time>
        <extensions>
          <ns3:TrackPointExtension>
            <ns3:hr>116</ns3:hr>
          </ns3:TrackPointExtension>
        </extensions>
      </trkpt>
      <trkpt lat="31.27388413064181804656982421875" lon="121.367747448384761810302734375">
        <ele>15.3999996185302734375</ele>
        <time>2026-07-30T12:49:26.000Z</time>
        <extensions>
          <ns3:TrackPointExtension>
            <ns3:hr>116</ns3:hr>
          </ns3:TrackPointExtension>
        </extensions>
      </trkpt>
      <trkpt lat="31.27390257082879543304443359375" lon="121.36741929687559604644775390625">
        <ele>15</ele>
        <time>2026-07-30T12:49:35.000Z</time>
        <extensions>
          <ns3:TrackPointExtension>
            <ns3:hr>118</ns3:hr>
          </ns3:TrackPointExtension>
        </extensions>
      </trkpt>
      <trkpt lat="31.2739685364067554473876953125" lon="121.367108412086963653564453125">
        <ele>15.19999980926513671875</ele>
        <time>2026-07-30T12:49:44.000Z</time>
        <extensions>
          <ns3:TrackPointExtension>
            <ns3:hr>120</ns3:hr>
          </ns3:TrackPointExtension>
        </extensions>
      </trkpt>
      <trkpt lat="31.2740483321249485015869140625" lon="121.36679367162287235260009765625">
        <ele>15.19999980926513671875</ele>
        <time>2026-07-30T12:49:52.000Z</time>
        <extensions>
          <ns3:TrackPointExtension>
            <ns3:hr>123</ns3:hr>
          </ns3:TrackPointExtension>
        </extensions>
      </trkpt>
      <trkpt lat="31.274057887494564056396484375" lon="121.36675737798213958740234375">
        <ele>15.19999980926513671875</ele>
        <time>2026-07-30T12:49:53.000Z</time>
        <extensions>
          <ns3:TrackPointExtension>
            <ns3:hr>122</ns3:hr>
          </ns3:TrackPointExtension>
        </extensions>
      </trkpt>
      <trkpt lat="31.274090744554996490478515625" lon="121.3666261173784732818603515625">
        <ele>15.19999980926513671875</ele>
        <time>2026-07-30T12:49:57.000Z</time>
        <extensions>
          <ns3:TrackPointExtension>
            <ns3:hr>119</ns3:hr>
          </ns3:TrackPointExtension>
        </extensions>
      </trkpt>
      <trkpt lat="31.27413609065115451812744140625" lon="121.36642402969300746917724609375">
        <ele>15</ele>
        <time>2026-07-30T12:50:03.000Z</time>
        <extensions>
          <ns3:TrackPointExtension>
            <ns3:hr>121</ns3:hr>
          </ns3:TrackPointExtension>
        </extensions>
      </trkpt>
      <trkpt lat="31.27420348115265369415283203125" lon="121.366213895380496978759765625">
        <ele>15.19999980926513671875</ele>
        <time>2026-07-30T12:50:10.000Z</time>
        <extensions>
          <ns3:TrackPointExtension>
            <ns3:hr>120</ns3:hr>
          </ns3:TrackPointExtension>
        </extensions>
      </trkpt>
      <trkpt lat="31.274325437843799591064453125" lon="121.365926563739776611328125">
        <ele>15</ele>
        <time>2026-07-30T12:50:19.000Z</time>
        <extensions>
          <ns3:TrackPointExtension>
            <ns3:hr>121</ns3:hr>
          </ns3:TrackPointExtension>
        </extensions>
      </trkpt>
      <trkpt lat="31.2744825147092342376708984375" lon="121.3656209595501422882080078125">
        <ele>14.80000019073486328125</ele>
        <time>2026-07-30T12:50:29.000Z</time>
        <extensions>
          <ns3:TrackPointExtension>
            <ns3:hr>119</ns3:hr>
          </ns3:TrackPointExtension>
        </extensions>
      </trkpt>
      <trkpt lat="31.27462685108184814453125" lon="121.365331448614597320556640625">
        <ele>14.80000019073486328125</ele>
        <time>2026-07-30T12:50:38.000Z</time>
        <extensions>
          <ns3:TrackPointExtension>
            <ns3:hr>118</ns3:hr>
          </ns3:TrackPointExtension>
        </extensions>
      </trkpt>
      <trkpt lat="31.27474880777299404144287109375" lon="121.36507521383464336395263671875">
        <ele>14.6000003814697265625</ele>
        <time>2026-07-30T12:50:46.000Z</time>
        <extensions>
          <ns3:TrackPointExtension>
            <ns3:hr>120</ns3:hr>
          </ns3:TrackPointExtension>
        </extensions>
      </trkpt>
      <trkpt lat="31.2748362310230731964111328125" lon="121.36491545476019382476806640625">
        <ele>14.6000003814697265625</ele>
        <time>2026-07-30T12:50:51.000Z</time>
        <extensions>
          <ns3:TrackPointExtension>
            <ns3:hr>116</ns3:hr>
          </ns3:TrackPointExtension>
        </extensions>
      </trkpt>
      <trkpt lat="31.27492792904376983642578125" lon="121.364762820303440093994140625">
        <ele>14.6000003814697265625</ele>
        <time>2026-07-30T12:50:56.000Z</time>
        <extensions>
          <ns3:TrackPointExtension>
            <ns3:hr>114</ns3:hr>
          </ns3:TrackPointExtension>
        </extensions>
      </trkpt>
      <trkpt lat="31.2750119157135486602783203125" lon="121.36459878645837306976318359375">
        <ele>14.6000003814697265625</ele>
        <time>2026-07-30T12:51:01.000Z</time>
        <extensions>
          <ns3:TrackPointExtension>
            <ns3:hr>117</ns3:hr>
          </ns3:TrackPointExtension>
        </extensions>
      </trkpt>
      <trkpt lat="31.27507821656763553619384765625" lon="121.3644325733184814453125">
        <ele>14.3999996185302734375</ele>
        <time>2026-07-30T12:51:06.000Z</time>
        <extensions>
          <ns3:TrackPointExtension>
            <ns3:hr>117</ns3:hr>
          </ns3:TrackPointExtension>
        </extensions>
      </trkpt>
      <trkpt lat="31.27508659847080707550048828125" lon="121.36439946480095386505126953125">
        <ele>14.19999980926513671875</ele>
        <time>2026-07-30T12:51:07.000Z</time>
        <extensions>
          <ns3:TrackPointExtension>
            <ns3:hr>117</ns3:hr>
          </ns3:TrackPointExtension>
        </extensions>
      </trkpt>
      <trkpt lat="31.2751949764788150787353515625" lon="121.3641809485852718353271484375">
        <ele>14.3999996185302734375</ele>
        <time>2026-07-30T12:51:14.000Z</time>
        <extensions>
          <ns3:TrackPointExtension>
            <ns3:hr>118</ns3:hr>
          </ns3:TrackPointExtension>
        </extensions>
      </trkpt>
      <trkpt lat="31.27533084712922573089599609375" lon="121.3638962991535663604736328125">
        <ele>14.3999996185302734375</ele>
        <time>2026-07-30T12:51:23.000Z</time>
        <extensions>
          <ns3:TrackPointExtension>
            <ns3:hr>120</ns3:hr>
          </ns3:TrackPointExtension>
        </extensions>
      </trkpt>
      <trkpt lat="31.2754819728434085845947265625" lon="121.36358960531651973724365234375">
        <ele>14.19999980926513671875</ele>
        <time>2026-07-30T12:51:33.000Z</time>
        <extensions>
          <ns3:TrackPointExtension>
            <ns3:hr>120</ns3:hr>
          </ns3:TrackPointExtension>
        </extensions>
      </trkpt>
      <trkpt lat="31.2756093777716159820556640625" lon="121.3633476197719573974609375">
        <ele>14.19999980926513671875</ele>
        <time>2026-07-30T12:51:41.000Z</time>
        <extensions>
          <ns3:TrackPointExtension>
            <ns3:hr>118</ns3:hr>
          </ns3:TrackPointExtension>
        </extensions>
      </trkpt>
      <trkpt lat="31.2757703103125095367431640625" lon="121.363038830459117889404296875">
        <ele>14</ele>
        <time>2026-07-30T12:51:50.000Z</time>
        <extensions>
          <ns3:TrackPointExtension>
            <ns3:hr>120</ns3:hr>
          </ns3:TrackPointExtension>
        </extensions>
      </trkpt>
      <trkpt lat="31.27591766417026519775390625" lon="121.3628126867115497589111328125">
        <ele>14</ele>
        <time>2026-07-30T12:51:58.000Z</time>
        <extensions>
          <ns3:TrackPointExtension>
            <ns3:hr>120</ns3:hr>
          </ns3:TrackPointExtension>
        </extensions>
      </trkpt>
      <trkpt lat="31.276091672480106353759765625" lon="121.3625484891235828399658203125">
        <ele>14</ele>
        <time>2026-07-30T12:52:07.000Z</time>
        <extensions>
          <ns3:TrackPointExtension>
            <ns3:hr>120</ns3:hr>
          </ns3:TrackPointExtension>
        </extensions>
      </trkpt>
      <trkpt lat="31.27628738991916179656982421875" lon="121.36230566538870334625244140625">
        <ele>14</ele>
        <time>2026-07-30T12:52:16.000Z</time>
        <extensions>
          <ns3:TrackPointExtension>
            <ns3:hr>121</ns3:hr>
          </ns3:TrackPointExtension>
        </extensions>
      </trkpt>
      <trkpt lat="31.27645251341164112091064453125" lon="121.36208790354430675506591796875">
        <ele>14</ele>
        <time>2026-07-30T12:52:25.000Z</time>
        <extensions>
          <ns3:TrackPointExtension>
            <ns3:hr>122</ns3:hr>
          </ns3:TrackPointExtension>
        </extensions>
      </trkpt>
      <trkpt lat="31.27658008597791194915771484375" lon="121.36194574646651744842529296875">
        <ele>13.80000019073486328125</ele>
        <time>2026-07-30T12:52:31.000Z</time>
        <extensions>
          <ns3:TrackPointExtension>
            <ns3:hr>119</ns3:hr>
          </ns3:TrackPointExtension>
        </extensions>
      </trkpt>
      <trkpt lat="31.2766467221081256866455078125" lon="121.36186997406184673309326171875">
        <ele>13.80000019073486328125</ele>
        <time>2026-07-30T12:52:34.000Z</time>
        <extensions>
          <ns3:TrackPointExtension>
            <ns3:hr>118</ns3:hr>
          </ns3:TrackPointExtension>
        </extensions>
      </trkpt>
      <trkpt lat="31.27676633186638355255126953125" lon="121.36173854582011699676513671875">
        <ele>13.80000019073486328125</ele>
        <time>2026-07-30T12:52:39.000Z</time>
        <extensions>
          <ns3:TrackPointExtension>
            <ns3:hr>121</ns3:hr>
          </ns3:TrackPointExtension>
        </extensions>
      </trkpt>
      <trkpt lat="31.2768638134002685546875" lon="121.3616439141333103179931640625">
        <ele>13.6000003814697265625</ele>
        <time>2026-07-30T12:52:43.000Z</time>
        <extensions>
          <ns3:TrackPointExtension>
            <ns3:hr>119</ns3:hr>
          </ns3:TrackPointExtension>
        </extensions>
      </trkpt>
      <trkpt lat="31.2770296074450016021728515625" lon="121.36147803626954555511474609375">
        <ele>13.80000019073486328125</ele>
        <time>2026-07-30T12:52:51.000Z</time>
        <extensions>
          <ns3:TrackPointExtension>
            <ns3:hr>120</ns3:hr>
          </ns3:TrackPointExtension>
        </extensions>
      </trkpt>
      <trkpt lat="31.27704427577555179595947265625" lon="121.36146831326186656951904296875">
        <ele>13.80000019073486328125</ele>
        <time>2026-07-30T12:52:54.000Z</time>
        <extensions>
          <ns3:TrackPointExtension>
            <ns3:hr>120</ns3:hr>
          </ns3:TrackPointExtension>
        </extensions>
      </trkpt>
      <trkpt lat="31.27702801488339900970458984375" lon="121.361476443707942962646484375">
        <ele>13.19999980926513671875</ele>
        <time>2026-07-30T12:53:30.000Z</time>
        <extensions>
          <ns3:TrackPointExtension>
            <ns3:hr>123</ns3:hr>
          </ns3:TrackPointExtension>
        </extensions>
      </trkpt>
      <trkpt lat="31.27705223858356475830078125" lon="121.3614424131810665130615234375">
        <ele>13.3999996185302734375</ele>
        <time>2026-07-30T12:53:32.000Z</time>
        <extensions>
          <ns3:TrackPointExtension>
            <ns3:hr>122</ns3:hr>
          </ns3:TrackPointExtension>
        </extensions>
      </trkpt>
      <trkpt lat="31.27711124718189239501953125" lon="121.36137912981212139129638671875">
        <ele>13.19999980926513671875</ele>
        <time>2026-07-30T12:53:38.000Z</time>
        <extensions>
          <ns3:TrackPointExtension>
            <ns3:hr>121</ns3:hr>
          </ns3:TrackPointExtension>
        </extensions>
      </trkpt>
      <trkpt lat="31.27715424634516239166259765625" lon="121.3613466918468475341796875">
        <ele>13.19999980926513671875</ele>
        <time>2026-07-30T12:53:51.000Z</time>
        <extensions>
          <ns3:TrackPointExtension>
            <ns3:hr>114</ns3:hr>
          </ns3:TrackPointExtension>
        </extensions>
      </trkpt>
      <trkpt lat="31.27716891467571258544921875" lon="121.36133931577205657958984375">
        <ele>13.19999980926513671875</ele>
        <time>2026-07-30T12:53:52.000Z</time>
        <extensions>
          <ns3:TrackPointExtension>
            <ns3:hr>114</ns3:hr>
          </ns3:TrackPointExtension>
        </extensions>
      </trkpt>
      <trkpt lat="31.27720780670642852783203125" lon="121.36131358332931995391845703125">
        <ele>13.19999980926513671875</ele>
        <time>2026-07-30T12:53:54.000Z</time>
        <extensions>
          <ns3:TrackPointExtension>
            <ns3:hr>114</ns3:hr>
          </ns3:TrackPointExtension>
        </extensions>
      </trkpt>
      <trkpt lat="31.27738407813012599945068359375" lon="121.3612154312431812286376953125">
        <ele>13</ele>
        <time>2026-07-30T12:54:02.000Z</time>
        <extensions>
          <ns3:TrackPointExtension>
            <ns3:hr>115</ns3:hr>
          </ns3:TrackPointExtension>
        </extensions>
      </trkpt>
      <trkpt lat="31.27762623131275177001953125" lon="121.361093223094940185546875">
        <ele>13</ele>
        <time>2026-07-30T12:54:12.000Z</time>
        <extensions>
          <ns3:TrackPointExtension>
            <ns3:hr>113</ns3:hr>
          </ns3:TrackPointExtension>
        </extensions>
      </trkpt>
      <trkpt lat="31.27790945582091808319091796875" lon="121.36100211180746555328369140625">
        <ele>13</ele>
        <time>2026-07-30T12:54:21.000Z</time>
        <extensions>
          <ns3:TrackPointExtension>
            <ns3:hr>113</ns3:hr>
          </ns3:TrackPointExtension>
        </extensions>
      </trkpt>
      <trkpt lat="31.27816946245729923248291015625" lon="121.36093036271631717681884765625">
        <ele>13</ele>
        <time>2026-07-30T12:54:30.000Z</time>
        <extensions>
          <ns3:TrackPointExtension>
            <ns3:hr>111</ns3:hr>
          </ns3:TrackPointExtension>
        </extensions>
      </trkpt>
      <trkpt lat="31.27841572277247905731201171875" lon="121.36090773157775402069091796875">
        <ele>13</ele>
        <time>2026-07-30T12:54:38.000Z</time>
        <extensions>
          <ns3:TrackPointExtension>
            <ns3:hr>113</ns3:hr>
          </ns3:TrackPointExtension>
        </extensions>
      </trkpt>
      <trkpt lat="31.27872367389500141143798828125" lon="121.360895745456218719482421875">
        <ele>12.80000019073486328125</ele>
        <time>2026-07-30T12:54:48.000Z</time>
        <extensions>
          <ns3:TrackPointExtension>
            <ns3:hr>111</ns3:hr>
          </ns3:TrackPointExtension>
        </extensions>
      </trkpt>
      <trkpt lat="31.27887303940951824188232421875" lon="121.36088979430496692657470703125">
        <ele>13</ele>
        <time>2026-07-30T12:54:53.000Z</time>
        <extensions>
          <ns3:TrackPointExtension>
            <ns3:hr>115</ns3:hr>
          </ns3:TrackPointExtension>
        </extensions>
      </trkpt>
      <trkpt lat="31.2790472991764545440673828125" lon="121.3608828373253345489501953125">
        <ele>13</ele>
        <time>2026-07-30T12:54:59.000Z</time>
        <extensions>
          <ns3:TrackPointExtension>
            <ns3:hr>116</ns3:hr>
          </ns3:TrackPointExtension>
        </extensions>
      </trkpt>
      <trkpt lat="31.27929590642452239990234375" lon="121.36087386868894100189208984375">
        <ele>13</ele>
        <time>2026-07-30T12:55:08.000Z</time>
        <extensions>
          <ns3:TrackPointExtension>
            <ns3:hr>114</ns3:hr>
          </ns3:TrackPointExtension>
        </extensions>
      </trkpt>
      <trkpt lat="31.27959354780614376068115234375" lon="121.3608684204518795013427734375">
        <ele>13.19999980926513671875</ele>
        <time>2026-07-30T12:55:19.000Z</time>
        <extensions>
          <ns3:TrackPointExtension>
            <ns3:hr>112</ns3:hr>
          </ns3:TrackPointExtension>
        </extensions>
      </trkpt>
      <trkpt lat="31.27976386807858943939208984375" lon="121.36086816899478435516357421875">
        <ele>13</ele>
        <time>2026-07-30T12:55:25.000Z</time>
        <extensions>
          <ns3:TrackPointExtension>
            <ns3:hr>109</ns3:hr>
          </ns3:TrackPointExtension>
        </extensions>
      </trkpt>
      <trkpt lat="31.27987300045788288116455078125" lon="121.36086598969995975494384765625">
        <ele>13</ele>
        <time>2026-07-30T12:55:29.000Z</time>
        <extensions>
          <ns3:TrackPointExtension>
            <ns3:hr>109</ns3:hr>
          </ns3:TrackPointExtension>
        </extensions>
      </trkpt>
      <trkpt lat="31.2802174128592014312744140625" lon="121.36086833663284778594970703125">
        <ele>13.19999980926513671875</ele>
        <time>2026-07-30T12:55:41.000Z</time>
        <extensions>
          <ns3:TrackPointExtension>
            <ns3:hr>111</ns3:hr>
          </ns3:TrackPointExtension>
        </extensions>
      </trkpt>
      <trkpt lat="31.28053718246519565582275390625" lon="121.3608719408512115478515625">
        <ele>12.80000019073486328125</ele>
        <time>2026-07-30T12:55:51.000Z</time>
        <extensions>
          <ns3:TrackPointExtension>
            <ns3:hr>110</ns3:hr>
          </ns3:TrackPointExtension>
        </extensions>
      </trkpt>
      <trkpt lat="31.2806309759616851806640625" lon="121.36086951009929180145263671875">
        <ele>12.80000019073486328125</ele>
        <time>2026-07-30T12:55:54.000Z</time>
        <extensions>
          <ns3:TrackPointExtension>
            <ns3:hr>113</ns3:hr>
          </ns3:TrackPointExtension>
        </extensions>
      </trkpt>
      <trkpt lat="31.280845217406749725341796875" lon="121.36085660196840763092041015625">
        <ele>12.80000019073486328125</ele>
        <time>2026-07-30T12:56:02.000Z</time>
        <extensions>
          <ns3:TrackPointExtension>
            <ns3:hr>111</ns3:hr>
          </ns3:TrackPointExtension>
        </extensions>
      </trkpt>
      <trkpt lat="31.28097304143011569976806640625" lon="121.36086850427091121673583984375">
        <ele>12.80000019073486328125</ele>
        <time>2026-07-30T12:56:10.000Z</time>
        <extensions>
          <ns3:TrackPointExtension>
            <ns3:hr>111</ns3:hr>
          </ns3:TrackPointExtension>
        </extensions>
      </trkpt>
      <trkpt lat="31.280976645648479461669921875" lon="121.36086850427091121673583984375">
        <ele>12.6000003814697265625</ele>
        <time>2026-07-30T12:56:11.000Z</time>
        <extensions>
          <ns3:TrackPointExtension>
            <ns3:hr>110</ns3:hr>
          </ns3:TrackPointExtension>
        </extensions>
      </trkpt>
      <trkpt lat="31.2810053117573261260986328125" lon="121.3608613796532154083251953125">
        <ele>12.3999996185302734375</ele>
        <time>2026-07-30T12:56:59.000Z</time>
        <extensions>
          <ns3:TrackPointExtension>
            <ns3:hr>107</ns3:hr>
          </ns3:TrackPointExtension>
        </extensions>
      </trkpt>
      <trkpt lat="31.2810333073139190673828125" lon="121.36085978709161281585693359375">
        <ele>12.3999996185302734375</ele>
        <time>2026-07-30T12:57:01.000Z</time>
        <extensions>
          <ns3:TrackPointExtension>
            <ns3:hr>108</ns3:hr>
          </ns3:TrackPointExtension>
        </extensions>
      </trkpt>
      <trkpt lat="31.281153671443462371826171875" lon="121.36085878126323223114013671875">
        <ele>12.3999996185302734375</ele>
        <time>2026-07-30T12:57:07.000Z</time>
        <extensions>
          <ns3:TrackPointExtension>
            <ns3:hr>105</ns3:hr>
          </ns3:TrackPointExtension>
        </extensions>
      </trkpt>
      <trkpt lat="31.28117588348686695098876953125" lon="121.3608573563396930694580078125">
        <ele>12.3999996185302734375</ele>
        <time>2026-07-30T12:57:08.000Z</time>
        <extensions>
          <ns3:TrackPointExtension>
            <ns3:hr>104</ns3:hr>
          </ns3:TrackPointExtension>
        </extensions>
      </trkpt>
      <trkpt lat="31.2813747860491275787353515625" lon="121.3608516566455364227294921875">
        <ele>12.3999996185302734375</ele>
        <time>2026-07-30T12:57:16.000Z</time>
        <extensions>
          <ns3:TrackPointExtension>
            <ns3:hr>106</ns3:hr>
          </ns3:TrackPointExtension>
        </extensions>
      </trkpt>
      <trkpt lat="31.28161693923175334930419921875" lon="121.36084469966590404510498046875">
        <ele>12.6000003814697265625</ele>
        <time>2026-07-30T12:57:25.000Z</time>
        <extensions>
          <ns3:TrackPointExtension>
            <ns3:hr>106</ns3:hr>
          </ns3:TrackPointExtension>
        </extensions>
      </trkpt>
      <trkpt lat="31.28191885538399219512939453125" lon="121.3608456216752529144287109375">
        <ele>12.3999996185302734375</ele>
        <time>2026-07-30T12:57:35.000Z</time>
        <extensions>
          <ns3:TrackPointExtension>
            <ns3:hr>104</ns3:hr>
          </ns3:TrackPointExtension>
        </extensions>
      </trkpt>
      <trkpt lat="31.28212966024875640869140625" lon="121.36083682067692279815673828125">
        <ele>12.6000003814697265625</ele>
        <time>2026-07-30T12:57:42.000Z</time>
        <extensions>
          <ns3:TrackPointExtension>
            <ns3:hr>107</ns3:hr>
          </ns3:TrackPointExtension>
        </extensions>
      </trkpt>
      <trkpt lat="31.2822475098073482513427734375" lon="121.3608358986675739288330078125">
        <ele>12.6000003814697265625</ele>
        <time>2026-07-30T12:57:46.000Z</time>
        <extensions>
          <ns3:TrackPointExtension>
            <ns3:hr>109</ns3:hr>
          </ns3:TrackPointExtension>
        </extensions>
      </trkpt>
      <trkpt lat="31.28258052282035350799560546875" lon="121.360832042992115020751953125">
        <ele>12.80000019073486328125</ele>
        <time>2026-07-30T12:57:57.000Z</time>
        <extensions>
          <ns3:TrackPointExtension>
            <ns3:hr>110</ns3:hr>
          </ns3:TrackPointExtension>
        </extensions>
      </trkpt>
      <trkpt lat="31.282820999622344970703125" lon="121.36083413846790790557861328125">
        <ele>12.6000003814697265625</ele>
        <time>2026-07-30T12:58:06.000Z</time>
        <extensions>
          <ns3:TrackPointExtension>
            <ns3:hr>109</ns3:hr>
          </ns3:TrackPointExtension>
        </extensions>
      </trkpt>
      <trkpt lat="31.282984279096126556396484375" lon="121.36082055978477001190185546875">
        <ele>12.3999996185302734375</ele>
        <time>2026-07-30T12:58:13.000Z</time>
        <extensions>
          <ns3:TrackPointExtension>
            <ns3:hr>108</ns3:hr>
          </ns3:TrackPointExtension>
        </extensions>
      </trkpt>
      <trkpt lat="31.28311428241431713104248046875" lon="121.360814273357391357421875">
        <ele>12.19999980926513671875</ele>
        <time>2026-07-30T12:58:18.000Z</time>
        <extensions>
          <ns3:TrackPointExtension>
            <ns3:hr>107</ns3:hr>
          </ns3:TrackPointExtension>
        </extensions>
      </trkpt>
      <trkpt lat="31.28313875757157802581787109375" lon="121.36081150732934474945068359375">
        <ele>12.19999980926513671875</ele>
        <time>2026-07-30T12:58:19.000Z</time>
        <extensions>
          <ns3:TrackPointExtension>
            <ns3:hr>107</ns3:hr>
          </ns3:TrackPointExtension>
        </extensions>
      </trkpt>
      <trkpt lat="31.28329013474285602569580078125" lon="121.36081628501415252685546875">
        <ele>12.19999980926513671875</ele>
        <time>2026-07-30T12:58:25.000Z</time>
        <extensions>
          <ns3:TrackPointExtension>
            <ns3:hr>108</ns3:hr>
          </ns3:TrackPointExtension>
        </extensions>
      </trkpt>
      <trkpt lat="31.28353337757289409637451171875" lon="121.36081695556640625">
        <ele>12.3999996185302734375</ele>
        <time>2026-07-30T12:58:34.000Z</time>
        <extensions>
          <ns3:TrackPointExtension>
            <ns3:hr>108</ns3:hr>
          </ns3:TrackPointExtension>
        </extensions>
      </trkpt>
      <trkpt lat="31.2836194597184658050537109375" lon="121.36081921868026256561279296875">
        <ele>12.6000003814697265625</ele>
        <time>2026-07-30T12:58:37.000Z</time>
        <extensions>
          <ns3:TrackPointExtension>
            <ns3:hr>111</ns3:hr>
          </ns3:TrackPointExtension>
        </extensions>
      </trkpt>
      <trkpt lat="31.28383227623999118804931640625" lon="121.36081628501415252685546875">
        <ele>12.80000019073486328125</ele>
        <time>2026-07-30T12:58:45.000Z</time>
        <extensions>
          <ns3:TrackPointExtension>
            <ns3:hr>110</ns3:hr>
          </ns3:TrackPointExtension>
        </extensions>
      </trkpt>
      <trkpt lat="31.28396160900592803955078125" lon="121.3608268462121486663818359375">
        <ele>13</ele>
        <time>2026-07-30T12:58:52.000Z</time>
        <extensions>
          <ns3:TrackPointExtension>
            <ns3:hr>108</ns3:hr>
          </ns3:TrackPointExtension>
        </extensions>
      </trkpt>
      <trkpt lat="31.283975355327129364013671875" lon="121.36083296500146389007568359375">
        <ele>13</ele>
        <time>2026-07-30T12:58:55.000Z</time>
        <extensions>
          <ns3:TrackPointExtension>
            <ns3:hr>108</ns3:hr>
          </ns3:TrackPointExtension>
        </extensions>
      </trkpt>
      <trkpt lat="31.28401131369173526763916015625" lon="121.36086867190897464752197265625">
        <ele>12.80000019073486328125</ele>
        <time>2026-07-30T12:58:59.000Z</time>
        <extensions>
          <ns3:TrackPointExtension>
            <ns3:hr>108</ns3:hr>
          </ns3:TrackPointExtension>
        </extensions>
      </trkpt>
      <trkpt lat="31.28401583991944789886474609375" lon="121.360894404351711273193359375">
        <ele>12.6000003814697265625</ele>
        <time>2026-07-30T12:59:00.000Z</time>
        <extensions>
          <ns3:TrackPointExtension>
            <ns3:hr>108</ns3:hr>
          </ns3:TrackPointExtension>
        </extensions>
      </trkpt>
      <trkpt lat="31.2840087153017520904541015625" lon="121.36108584702014923095703125">
        <ele>12.6000003814697265625</ele>
        <time>2026-07-30T12:59:06.000Z</time>
        <extensions>
          <ns3:TrackPointExtension>
            <ns3:hr>108</ns3:hr>
          </ns3:TrackPointExtension>
        </extensions>
      </trkpt>
      <trkpt lat="31.28397627733647823333740234375" lon="121.36142757721245288848876953125">
        <ele>12.3999996185302734375</ele>
        <time>2026-07-30T12:59:15.000Z</time>
        <extensions>
          <ns3:TrackPointExtension>
            <ns3:hr>110</ns3:hr>
          </ns3:TrackPointExtension>
        </extensions>
      </trkpt>
      <trkpt lat="31.2839393131434917449951171875" lon="121.3616982288658618927001953125">
        <ele>12.6000003814697265625</ele>
        <time>2026-07-30T12:59:23.000Z</time>
        <extensions>
          <ns3:TrackPointExtension>
            <ns3:hr>110</ns3:hr>
          </ns3:TrackPointExtension>
        </extensions>
      </trkpt>
      <trkpt lat="31.28390335477888584136962890625" lon="121.3620174117386341094970703125">
        <ele>12.6000003814697265625</ele>
        <time>2026-07-30T12:59:32.000Z</time>
        <extensions>
          <ns3:TrackPointExtension>
            <ns3:hr>110</ns3:hr>
          </ns3:TrackPointExtension>
        </extensions>
      </trkpt>
      <trkpt lat="31.28386043943464756011962890625" lon="121.36239736340939998626708984375">
        <ele>12.3999996185302734375</ele>
        <time>2026-07-30T12:59:43.000Z</time>
        <extensions>
          <ns3:TrackPointExtension>
            <ns3:hr>112</ns3:hr>
          </ns3:TrackPointExtension>
        </extensions>
      </trkpt>
      <trkpt lat="31.2838186137378215789794921875" lon="121.36283607222139835357666015625">
        <ele>12.19999980926513671875</ele>
        <time>2026-07-30T12:59:55.000Z</time>
        <extensions>
          <ns3:TrackPointExtension>
            <ns3:hr>111</ns3:hr>
          </ns3:TrackPointExtension>
        </extensions>
      </trkpt>
      <trkpt lat="31.28376983106136322021484375" lon="121.36321962811052799224853515625">
        <ele>12.6000003814697265625</ele>
        <time>2026-07-30T13:00:06.000Z</time>
        <extensions>
          <ns3:TrackPointExtension>
            <ns3:hr>111</ns3:hr>
          </ns3:TrackPointExtension>
        </extensions>
      </trkpt>
      <trkpt lat="31.28374560736119747161865234375" lon="121.3634996674954891204833984375">
        <ele>12.80000019073486328125</ele>
        <time>2026-07-30T13:00:15.000Z</time>
        <extensions>
          <ns3:TrackPointExtension>
            <ns3:hr>110</ns3:hr>
          </ns3:TrackPointExtension>
        </extensions>
      </trkpt>
      <trkpt lat="31.28370948135852813720703125" lon="121.363768391311168670654296875">
        <ele>13.19999980926513671875</ele>
        <time>2026-07-30T13:00:24.000Z</time>
        <extensions>
          <ns3:TrackPointExtension>
            <ns3:hr>111</ns3:hr>
          </ns3:TrackPointExtension>
        </extensions>
      </trkpt>
      <trkpt lat="31.28367503173649311065673828125" lon="121.36404759250581264495849609375">
        <ele>13.19999980926513671875</ele>
        <time>2026-07-30T13:00:33.000Z</time>
        <extensions>
          <ns3:TrackPointExtension>
            <ns3:hr>110</ns3:hr>
          </ns3:TrackPointExtension>
        </extensions>
      </trkpt>
      <trkpt lat="31.2836570106446743011474609375" lon="121.364338360726833343505859375">
        <ele>13</ele>
        <time>2026-07-30T13:00:41.000Z</time>
        <extensions>
          <ns3:TrackPointExtension>
            <ns3:hr>110</ns3:hr>
          </ns3:TrackPointExtension>
        </extensions>
      </trkpt>
      <trkpt lat="31.283609904348850250244140625" lon="121.364693082869052886962890625">
        <ele>12.3999996185302734375</ele>
        <time>2026-07-30T13:00:50.000Z</time>
        <extensions>
          <ns3:TrackPointExtension>
            <ns3:hr>112</ns3:hr>
          </ns3:TrackPointExtension>
        </extensions>
      </trkpt>
      <trkpt lat="31.2835980020463466644287109375" lon="121.36485376395285129547119140625">
        <ele>12.19999980926513671875</ele>
        <time>2026-07-30T13:00:54.000Z</time>
        <extensions>
          <ns3:TrackPointExtension>
            <ns3:hr>112</ns3:hr>
          </ns3:TrackPointExtension>
        </extensions>
      </trkpt>
      <trkpt lat="31.28357805311679840087890625" lon="121.3650157861411571502685546875">
        <ele>12.19999980926513671875</ele>
        <time>2026-07-30T13:00:58.000Z</time>
        <extensions>
          <ns3:TrackPointExtension>
            <ns3:hr>108</ns3:hr>
          </ns3:TrackPointExtension>
        </extensions>
      </trkpt>
      <trkpt lat="31.2835249118506908416748046875" lon="121.36547989211976528167724609375">
        <ele>12.19999980926513671875</ele>
        <time>2026-07-30T13:01:10.000Z</time>
        <extensions>
          <ns3:TrackPointExtension>
            <ns3:hr>106</ns3:hr>
          </ns3:TrackPointExtension>
        </extensions>
      </trkpt>
      <trkpt lat="31.2834870256483554840087890625" lon="121.3657785393297672271728515625">
        <ele>12.19999980926513671875</ele>
        <time>2026-07-30T13:01:18.000Z</time>
        <extensions>
          <ns3:TrackPointExtension>
            <ns3:hr>105</ns3:hr>
          </ns3:TrackPointExtension>
        </extensions>
      </trkpt>
      <trkpt lat="31.2834400869905948638916015625" lon="121.36614072136580944061279296875">
        <ele>12.3999996185302734375</ele>
        <time>2026-07-30T13:01:28.000Z</time>
        <extensions>
          <ns3:TrackPointExtension>
            <ns3:hr>106</ns3:hr>
          </ns3:TrackPointExtension>
        </extensions>
      </trkpt>
      <trkpt lat="31.28342240117490291595458984375" lon="121.3663803599774837493896484375">
        <ele>12.3999996185302734375</ele>
        <time>2026-07-30T13:01:35.000Z</time>
        <extensions>
          <ns3:TrackPointExtension>
            <ns3:hr>106</ns3:hr>
          </ns3:TrackPointExtension>
        </extensions>
      </trkpt>
      <trkpt lat="31.28339541144669055938720703125" lon="121.366725526750087738037109375">
        <ele>12.3999996185302734375</ele>
        <time>2026-07-30T13:01:45.000Z</time>
        <extensions>
          <ns3:TrackPointExtension>
            <ns3:hr>105</ns3:hr>
          </ns3:TrackPointExtension>
        </extensions>
      </trkpt>
      <trkpt lat="31.2833830900490283966064453125" lon="121.36687296442687511444091796875">
        <ele>12.3999996185302734375</ele>
        <time>2026-07-30T13:01:49.000Z</time>
        <extensions>
          <ns3:TrackPointExtension>
            <ns3:hr>102</ns3:hr>
          </ns3:TrackPointExtension>
        </extensions>
      </trkpt>
      <trkpt lat="31.283400021493434906005859375" lon="121.3670546002686023712158203125">
        <ele>12.6000003814697265625</ele>
        <time>2026-07-30T13:01:54.000Z</time>
        <extensions>
          <ns3:TrackPointExtension>
            <ns3:hr>104</ns3:hr>
          </ns3:TrackPointExtension>
        </extensions>
      </trkpt>
      <trkpt lat="31.2834504805505275726318359375" lon="121.36716297827661037445068359375">
        <ele>12.19999980926513671875</ele>
        <time>2026-07-30T13:01:59.000Z</time>
        <extensions>
          <ns3:TrackPointExtension>
            <ns3:hr>106</ns3:hr>
          </ns3:TrackPointExtension>
        </extensions>
      </trkpt>
      <trkpt lat="31.28347621299326419830322265625" lon="121.3671628944575786590576171875">
        <ele>12.19999980926513671875</ele>
        <time>2026-07-30T13:02:02.000Z</time>
        <extensions>
          <ns3:TrackPointExtension>
            <ns3:hr>106</ns3:hr>
          </ns3:TrackPointExtension>
        </extensions>
      </trkpt>
    </trkseg>
  </trk>
</gpx>
