<?xml version="1.0" encoding="UTF-8"?>
<gpx creator="Garmin Connect" version="1.1"
  xsi:schemaLocation="http://www.topografix.com/GPX/1/1 http://www.topografix.com/GPX/11.xsd"
  xmlns:ns3="http://www.garmin.com/xmlschemas/TrackPointExtension/v1"
  xmlns="http://www.topografix.com/GPX/1/1"
  xmlns:xsi="http://www.w3.org/2001/XMLSchema-instance" xmlns:ns2="http://www.garmin.com/xmlschemas/GpxExtensions/v3">
  <metadata>
    <link href="connect.garmin.com">
      <text>Garmin Connect</text>
    </link>
    <time>2026-08-12T11:19:00.000Z</time>
  </metadata>
  <trk>
    <name>普陀区 公路骑行</name>
    <type>road_biking</type>
    <trkseg>
      <trkpt lat="31.27378036268055438995361328125" lon="121.3702015019953250885009765625">
        <ele>3.7999999523162841796875</ele>
        <time>2026-08-12T11:19:04.000Z</time>
        <extensions>
          <ns3:TrackPointExtension>
            <ns3:hr>92</ns3:hr>
          </ns3:TrackPointExtension>
        </extensions>
      </trkpt>
      <trkpt lat="31.2737848050892353057861328125" lon="121.37013788335025310516357421875">
        <ele>4.19999980926513671875</ele>
        <time>2026-08-12T11:19:07.000Z</time>
        <extensions>
          <ns3:TrackPointExtension>
            <ns3:hr>92</ns3:hr>
          </ns3:TrackPointExtension>
        </extensions>
      </trkpt>
      <trkpt lat="31.27379461191594600677490234375" lon="121.370083652436733245849609375">
        <ele>4.19999980926513671875</ele>
        <time>2026-08-12T11:19:09.000Z</time>
        <extensions>
          <ns3:TrackPointExtension>
            <ns3:hr>93</ns3:hr>
          </ns3:TrackPointExtension>
        </extensions>
      </trkpt>
      <trkpt lat="31.273809112608432769775390625" lon="121.3698437623679637908935546875">
        <ele>3.599999904632568359375</ele>
        <time>2026-08-12T11:19:15.000Z</time>
        <extensions>
          <ns3:TrackPointExtension>
            <ns3:hr>93</ns3:hr>
          </ns3:TrackPointExtension>
        </extensions>
      </trkpt>
      <trkpt lat="31.27380819059908390045166015625" lon="121.3696167804300785064697265625">
        <ele>3.7999999523162841796875</ele>
        <time>2026-08-12T11:19:21.000Z</time>
        <extensions>
          <ns3:TrackPointExtension>
            <ns3:hr>95</ns3:hr>
          </ns3:TrackPointExtension>
        </extensions>
      </trkpt>
      <trkpt lat="31.27384088002145290374755859375" lon="121.36930706910789012908935546875">
        <ele>4</ele>
        <time>2026-08-12T11:19:28.000Z</time>
        <extensions>
          <ns3:TrackPointExtension>
            <ns3:hr>95</ns3:hr>
          </ns3:TrackPointExtension>
        </extensions>
      </trkpt>
      <trkpt lat="31.273942887783050537109375" lon="121.3692640699446201324462890625">
        <ele>3.7999999523162841796875</ele>
        <time>2026-08-12T11:19:31.000Z</time>
        <extensions>
          <ns3:TrackPointExtension>
            <ns3:hr>95</ns3:hr>
          </ns3:TrackPointExtension>
        </extensions>
      </trkpt>
      <trkpt lat="31.2739836238324642181396484375" lon="121.3692714460194110870361328125">
        <ele>3.599999904632568359375</ele>
        <time>2026-08-12T11:19:32.000Z</time>
        <extensions>
          <ns3:TrackPointExtension>
            <ns3:hr>96</ns3:hr>
          </ns3:TrackPointExtension>
        </extensions>
      </trkpt>
      <trkpt lat="31.27413273788988590240478515625" lon="121.36930975131690502166748046875">
        <ele>4</ele>
        <time>2026-08-12T11:19:36.000Z</time>
        <extensions>
          <ns3:TrackPointExtension>
            <ns3:hr>98</ns3:hr>
          </ns3:TrackPointExtension>
        </extensions>
      </trkpt>
      <trkpt lat="31.27443029545247554779052734375" lon="121.3693643175065517425537109375">
        <ele>4.19999980926513671875</ele>
        <time>2026-08-12T11:19:43.000Z</time>
        <extensions>
          <ns3:TrackPointExtension>
            <ns3:hr>102</ns3:hr>
          </ns3:TrackPointExtension>
        </extensions>
      </trkpt>
      <trkpt lat="31.27495198510587215423583984375" lon="121.3694176264107227325439453125">
        <ele>3.599999904632568359375</ele>
        <time>2026-08-12T11:19:54.000Z</time>
        <extensions>
          <ns3:TrackPointExtension>
            <ns3:hr>104</ns3:hr>
          </ns3:TrackPointExtension>
        </extensions>
      </trkpt>
      <trkpt lat="31.27547685988247394561767578125" lon="121.3694954104721546173095703125">
        <ele>4</ele>
        <time>2026-08-12T11:20:05.000Z</time>
        <extensions>
          <ns3:TrackPointExtension>
            <ns3:hr>106</ns3:hr>
          </ns3:TrackPointExtension>
        </extensions>
      </trkpt>
      <trkpt lat="31.275810711085796356201171875" lon="121.36954477988183498382568359375">
        <ele>4.19999980926513671875</ele>
        <time>2026-08-12T11:20:12.000Z</time>
        <extensions>
          <ns3:TrackPointExtension>
            <ns3:hr>109</ns3:hr>
          </ns3:TrackPointExtension>
        </extensions>
      </trkpt>
      <trkpt lat="31.275960914790630340576171875" lon="121.36956824921071529388427734375">
        <ele>4</ele>
        <time>2026-08-12T11:20:15.000Z</time>
        <extensions>
          <ns3:TrackPointExtension>
            <ns3:hr>109</ns3:hr>
          </ns3:TrackPointExtension>
        </extensions>
      </trkpt>
      <trkpt lat="31.276389062404632568359375" lon="121.369643770158290863037109375">
        <ele>4.400000095367431640625</ele>
        <time>2026-08-12T11:20:24.000Z</time>
        <extensions>
          <ns3:TrackPointExtension>
            <ns3:hr>109</ns3:hr>
          </ns3:TrackPointExtension>
        </extensions>
      </trkpt>
      <trkpt lat="31.276840008795261383056640625" lon="121.36968098580837249755859375">
        <ele>4.19999980926513671875</ele>
        <time>2026-08-12T11:20:33.000Z</time>
        <extensions>
          <ns3:TrackPointExtension>
            <ns3:hr>111</ns3:hr>
          </ns3:TrackPointExtension>
        </extensions>
      </trkpt>
      <trkpt lat="31.277020387351512908935546875" lon="121.36969431303441524505615234375">
        <ele>3.599999904632568359375</ele>
        <time>2026-08-12T11:20:37.000Z</time>
        <extensions>
          <ns3:TrackPointExtension>
            <ns3:hr>114</ns3:hr>
          </ns3:TrackPointExtension>
        </extensions>
      </trkpt>
      <trkpt lat="31.2771533243358135223388671875" lon="121.3697086460888385772705078125">
        <ele>4.19999980926513671875</ele>
        <time>2026-08-12T11:20:40.000Z</time>
        <extensions>
          <ns3:TrackPointExtension>
            <ns3:hr>116</ns3:hr>
          </ns3:TrackPointExtension>
        </extensions>
      </trkpt>
      <trkpt lat="31.2775043584406375885009765625" lon="121.36976103298366069793701171875">
        <ele>4.80000019073486328125</ele>
        <time>2026-08-12T11:20:48.000Z</time>
        <extensions>
          <ns3:TrackPointExtension>
            <ns3:hr>118</ns3:hr>
          </ns3:TrackPointExtension>
        </extensions>
      </trkpt>
      <trkpt lat="31.2778265587985515594482421875" lon="121.36980042792856693267822265625">
        <ele>4.400000095367431640625</ele>
        <time>2026-08-12T11:20:55.000Z</time>
        <extensions>
          <ns3:TrackPointExtension>
            <ns3:hr>115</ns3:hr>
          </ns3:TrackPointExtension>
        </extensions>
      </trkpt>
      <trkpt lat="31.277875006198883056640625" lon="121.3698075525462627410888671875">
        <ele>4.400000095367431640625</ele>
        <time>2026-08-12T11:20:56.000Z</time>
        <extensions>
          <ns3:TrackPointExtension>
            <ns3:hr>114</ns3:hr>
          </ns3:TrackPointExtension>
        </extensions>
      </trkpt>
      <trkpt lat="31.278195865452289581298828125" lon="121.3698518089950084686279296875">
        <ele>4.599999904632568359375</ele>
        <time>2026-08-12T11:21:03.000Z</time>
        <extensions>
          <ns3:TrackPointExtension>
            <ns3:hr>114</ns3:hr>
          </ns3:TrackPointExtension>
        </extensions>
      </trkpt>
      <trkpt lat="31.27857246436178684234619140625" lon="121.36990687809884548187255859375">
        <ele>4.599999904632568359375</ele>
        <time>2026-08-12T11:21:11.000Z</time>
        <extensions>
          <ns3:TrackPointExtension>
            <ns3:hr>117</ns3:hr>
          </ns3:TrackPointExtension>
        </extensions>
      </trkpt>
      <trkpt lat="31.27871428616344928741455078125" lon="121.36992380954325199127197265625">
        <ele>4.599999904632568359375</ele>
        <time>2026-08-12T11:21:14.000Z</time>
        <extensions>
          <ns3:TrackPointExtension>
            <ns3:hr>118</ns3:hr>
          </ns3:TrackPointExtension>
        </extensions>
      </trkpt>
      <trkpt lat="31.2792469561100006103515625" lon="121.36999740265309810638427734375">
        <ele>4.19999980926513671875</ele>
        <time>2026-08-12T11:21:25.000Z</time>
        <extensions>
          <ns3:TrackPointExtension>
            <ns3:hr>120</ns3:hr>
          </ns3:TrackPointExtension>
        </extensions>
      </trkpt>
      <trkpt lat="31.27967418171465396881103515625" lon="121.37004585005342960357666015625">
        <ele>4.80000019073486328125</ele>
        <time>2026-08-12T11:21:34.000Z</time>
        <extensions>
          <ns3:TrackPointExtension>
            <ns3:hr>118</ns3:hr>
          </ns3:TrackPointExtension>
        </extensions>
      </trkpt>
      <trkpt lat="31.2798504531383514404296875" lon="121.3700704090297222137451171875">
        <ele>5.19999980926513671875</ele>
        <time>2026-08-12T11:21:38.000Z</time>
        <extensions>
          <ns3:TrackPointExtension>
            <ns3:hr>117</ns3:hr>
          </ns3:TrackPointExtension>
        </extensions>
      </trkpt>
      <trkpt lat="31.2799404747784137725830078125" lon="121.370071582496166229248046875">
        <ele>5.400000095367431640625</ele>
        <time>2026-08-12T11:21:40.000Z</time>
        <extensions>
          <ns3:TrackPointExtension>
            <ns3:hr>116</ns3:hr>
          </ns3:TrackPointExtension>
        </extensions>
      </trkpt>
      <trkpt lat="31.28031782805919647216796875" lon="121.3701300881803035736083984375">
        <ele>4.80000019073486328125</ele>
        <time>2026-08-12T11:21:48.000Z</time>
        <extensions>
          <ns3:TrackPointExtension>
            <ns3:hr>115</ns3:hr>
          </ns3:TrackPointExtension>
        </extensions>
      </trkpt>
      <trkpt lat="31.2808453850448131561279296875" lon="121.37018364854156970977783203125">
        <ele>4.400000095367431640625</ele>
        <time>2026-08-12T11:21:59.000Z</time>
        <extensions>
          <ns3:TrackPointExtension>
            <ns3:hr>115</ns3:hr>
          </ns3:TrackPointExtension>
        </extensions>
      </trkpt>
      <trkpt lat="31.28089106641709804534912109375" lon="121.3701954670250415802001953125">
        <ele>4.400000095367431640625</ele>
        <time>2026-08-12T11:22:00.000Z</time>
        <extensions>
          <ns3:TrackPointExtension>
            <ns3:hr>115</ns3:hr>
          </ns3:TrackPointExtension>
        </extensions>
      </trkpt>
      <trkpt lat="31.28106758929789066314697265625" lon="121.370219103991985321044921875">
        <ele>4.599999904632568359375</ele>
        <time>2026-08-12T11:22:04.000Z</time>
        <extensions>
          <ns3:TrackPointExtension>
            <ns3:hr>112</ns3:hr>
          </ns3:TrackPointExtension>
        </extensions>
      </trkpt>
      <trkpt lat="31.28115610219538211822509765625" lon="121.3702175952494144439697265625">
        <ele>4.400000095367431640625</ele>
        <time>2026-08-12T11:22:06.000Z</time>
        <extensions>
          <ns3:TrackPointExtension>
            <ns3:hr>112</ns3:hr>
          </ns3:TrackPointExtension>
        </extensions>
      </trkpt>
      <trkpt lat="31.28133832477033138275146484375" lon="121.37020267546176910400390625">
        <ele>4.400000095367431640625</ele>
        <time>2026-08-12T11:22:10.000Z</time>
        <extensions>
          <ns3:TrackPointExtension>
            <ns3:hr>111</ns3:hr>
          </ns3:TrackPointExtension>
        </extensions>
      </trkpt>
      <trkpt lat="31.28162012435495853424072265625" lon="121.3702390529215335845947265625">
        <ele>4.599999904632568359375</ele>
        <time>2026-08-12T11:22:16.000Z</time>
        <extensions>
          <ns3:TrackPointExtension>
            <ns3:hr>111</ns3:hr>
          </ns3:TrackPointExtension>
        </extensions>
      </trkpt>
      <trkpt lat="31.2820480205118656158447265625" lon="121.3702725805342197418212890625">
        <ele>4.19999980926513671875</ele>
        <time>2026-08-12T11:22:25.000Z</time>
        <extensions>
          <ns3:TrackPointExtension>
            <ns3:hr>113</ns3:hr>
          </ns3:TrackPointExtension>
        </extensions>
      </trkpt>
      <trkpt lat="31.28247273154556751251220703125" lon="121.37030552141368389129638671875">
        <ele>4.400000095367431640625</ele>
        <time>2026-08-12T11:22:34.000Z</time>
        <extensions>
          <ns3:TrackPointExtension>
            <ns3:hr>113</ns3:hr>
          </ns3:TrackPointExtension>
        </extensions>
      </trkpt>
      <trkpt lat="31.28276400268077850341796875" lon="121.3703401386737823486328125">
        <ele>5</ele>
        <time>2026-08-12T11:22:41.000Z</time>
        <extensions>
          <ns3:TrackPointExtension>
            <ns3:hr>115</ns3:hr>
          </ns3:TrackPointExtension>
        </extensions>
      </trkpt>
      <trkpt lat="31.282798536121845245361328125" lon="121.37034860439598560333251953125">
        <ele>5.19999980926513671875</ele>
        <time>2026-08-12T11:22:42.000Z</time>
        <extensions>
          <ns3:TrackPointExtension>
            <ns3:hr>113</ns3:hr>
          </ns3:TrackPointExtension>
        </extensions>
      </trkpt>
      <trkpt lat="31.28286165185272693634033203125" lon="121.3703577406704425811767578125">
        <ele>5.400000095367431640625</ele>
        <time>2026-08-12T11:22:44.000Z</time>
        <extensions>
          <ns3:TrackPointExtension>
            <ns3:hr>110</ns3:hr>
          </ns3:TrackPointExtension>
        </extensions>
      </trkpt>
      <trkpt lat="31.28301747143268585205078125" lon="121.370365284383296966552734375">
        <ele>5.400000095367431640625</ele>
        <time>2026-08-12T11:22:48.000Z</time>
        <extensions>
          <ns3:TrackPointExtension>
            <ns3:hr>109</ns3:hr>
          </ns3:TrackPointExtension>
        </extensions>
      </trkpt>
      <trkpt lat="31.28335014916956424713134765625" lon="121.37035815976560115814208984375">
        <ele>4.599999904632568359375</ele>
        <time>2026-08-12T11:22:55.000Z</time>
        <extensions>
          <ns3:TrackPointExtension>
            <ns3:hr>109</ns3:hr>
          </ns3:TrackPointExtension>
        </extensions>
      </trkpt>
      <trkpt lat="31.28363580442965030670166015625" lon="121.3703946210443973541259765625">
        <ele>4.599999904632568359375</ele>
        <time>2026-08-12T11:23:01.000Z</time>
        <extensions>
          <ns3:TrackPointExtension>
            <ns3:hr>112</ns3:hr>
          </ns3:TrackPointExtension>
        </extensions>
      </trkpt>
      <trkpt lat="31.28377879969775676727294921875" lon="121.37040761299431324005126953125">
        <ele>4.599999904632568359375</ele>
        <time>2026-08-12T11:23:04.000Z</time>
        <extensions>
          <ns3:TrackPointExtension>
            <ns3:hr>115</ns3:hr>
          </ns3:TrackPointExtension>
        </extensions>
      </trkpt>
      <trkpt lat="31.28382640890777111053466796875" lon="121.3704123906791210174560546875">
        <ele>4.599999904632568359375</ele>
        <time>2026-08-12T11:23:05.000Z</time>
        <extensions>
          <ns3:TrackPointExtension>
            <ns3:hr>114</ns3:hr>
          </ns3:TrackPointExtension>
        </extensions>
      </trkpt>
      <trkpt lat="31.2841964699327945709228515625" lon="121.37047215364873409271240234375">
        <ele>4.599999904632568359375</ele>
        <time>2026-08-12T11:23:13.000Z</time>
        <extensions>
          <ns3:TrackPointExtension>
            <ns3:hr>114</ns3:hr>
          </ns3:TrackPointExtension>
        </extensions>
      </trkpt>
      <trkpt lat="31.2846427224576473236083984375" lon="121.37051875703036785125732421875">
        <ele>4.599999904632568359375</ele>
        <time>2026-08-12T11:23:23.000Z</time>
        <extensions>
          <ns3:TrackPointExtension>
            <ns3:hr>111</ns3:hr>
          </ns3:TrackPointExtension>
        </extensions>
      </trkpt>
      <trkpt lat="31.28477968275547027587890625" lon="121.37053518556058406829833984375">
        <ele>4.599999904632568359375</ele>
        <time>2026-08-12T11:23:26.000Z</time>
        <extensions>
          <ns3:TrackPointExtension>
            <ns3:hr>108</ns3:hr>
          </ns3:TrackPointExtension>
        </extensions>
      </trkpt>
      <trkpt lat="31.285111606121063232421875" lon="121.37054054997861385345458984375">
        <ele>4.80000019073486328125</ele>
        <time>2026-08-12T11:23:33.000Z</time>
        <extensions>
          <ns3:TrackPointExtension>
            <ns3:hr>110</ns3:hr>
          </ns3:TrackPointExtension>
        </extensions>
      </trkpt>
      <trkpt lat="31.285276897251605987548828125" lon="121.37057592160999774932861328125">
        <ele>5</ele>
        <time>2026-08-12T11:23:38.000Z</time>
        <extensions>
          <ns3:TrackPointExtension>
            <ns3:hr>110</ns3:hr>
          </ns3:TrackPointExtension>
        </extensions>
      </trkpt>
      <trkpt lat="31.28532224334776401519775390625" lon="121.3705796934664249420166015625">
        <ele>5.19999980926513671875</ele>
        <time>2026-08-12T11:23:41.000Z</time>
        <extensions>
          <ns3:TrackPointExtension>
            <ns3:hr>109</ns3:hr>
          </ns3:TrackPointExtension>
        </extensions>
      </trkpt>
    </trkseg>
  </trk>
</gpx>
